{"type":"FeatureCollection","features":[{"type":"Feature","geometry":{"type":"Point","coordinates":[11.0690017,47.3032078]},"properties":{"addr:city":"Telfs","addr:housenumber":"9","addr:postcode":"6410","addr:street":"Marktplatz","alt_name":null,"ambulance_station:emergency_doctor":"yes","ambulance_station:patient_transport":"yes","brand":"Österreichisches Rotes Kreuz","brand:short":"ÖRK","emergency":"ambulance_station","name":"Rotes Kreuz Bezirksstelle Telfs","operator":"Rettungsdienst Tirol gGmbH","short_name":"ÖRK"}},{"type":"Feature","geometry":{"type":"Point","coordinates":[11.8801066,47.4442486]},"properties":{"addr:city":"Kramsach","addr:housenumber":"7","addr:postcode":"6233","ambulance_station:emergency_doctor":"yes","ambulance_station:patient_transport":"yes","brand":"Österreichisches Rotes Kreuz","emergency":"ambulance_station","name":"Rotes Kreuz Ortsstelle Kramsach","operator":"Rettungsdienst Tirol gGmbH","short_name":"ÖRK","brand:short":"ÖRK"}},{"type":"Feature","geometry":{"type":"Point","coordinates":[11.7081793,47.3541055]},"properties":{"addr:city":"Schwaz","addr:housenumber":"25","addr:postcode":"6130","addr:street":"Münchner Straße","ambulance_station:emergency_doctor":"yes","ambulance_station:patient_transport":"yes","brand":"Österreichisches Rotes Kreuz","brand:short":"ÖRK","emergency":"ambulance_station","name":"Rotes Kreuz Bezirksstelle Schwaz","operator":"Rettungsdienst Tirol gGmbH","short_name":"ÖRK"}},{"type":"Feature","geometry":{"type":"Point","coordinates":[11.5090929,47.2854693]},"properties":{"addr:city":"Hall in Tirol","addr:housenumber":"20","addr:postcode":"6060","addr:street":"Bruckergasse","ambulance_station:emergency_doctor":"yes","ambulance_station:patient_transport":"yes","brand":"Österreichisches Rotes Kreuz","brand:short":"ÖRK","emergency":"ambulance_station","name":"Rotes Kreuz Bezirksstelle Hall","operator":"Rettungsdienst Tirol gGmbH","short_name":"ÖRK"}},{"type":"Feature","geometry":{"type":"Point","coordinates":[12.1493494,47.5716825]},"properties":{"addr:city":"Kufstein","addr:housenumber":"29","addr:postcode":"6330","addr:street":"Endach","ambulance_station:emergency_doctor":"yes","brand":"Arbeiter-Samariter-Bund Österreichs","emergency":"ambulance_station","name":"Rotes Kreuz Samariterbund Notarztstützpunkt Kufstein","operator":"Rettungsdienst Tirol gGmbH","short_name":"ÖRK","brand:short":"ÖRK"}},{"type":"Feature","geometry":{"type":"Point","coordinates":[11.4004955,47.1860266]},"properties":{"addr:city":"Schönberg im Stubaital","addr:housenumber":"1","addr:postcode":"6141","addr:street":"Brennerautobahn","ambulance_station:emergency_doctor":"yes","ambulance_station:patient_transport":"yes","brand":"Österreichisches Rotes Kreuz","emergency":"ambulance_station","name":"Rotes Kreuz Bezirksstelle Innsbruck-Land","operator":"Rettungsdienst Tirol gGmbH","short_name":"ÖRK","brand:short":"ÖRK"}},{"type":"Feature","geometry":{"type":"Point","coordinates":[12.7660338,46.8344253]},"properties":{"addr:city":"Lienz","addr:housenumber":"3a","addr:postcode":"9900","addr:street":"Emanuel von Hibler-Straße","ambulance_station:emergency_doctor":"yes","ambulance_station:patient_transport":"yes","brand":"Österreichisches Rotes Kreuz","emergency":"ambulance_station","name":"Rotes Kreuz Bezirksstelle Osttriol","operator":"Rettungsdienst Tirol gGmbH","short_name":"ÖRK","brand:short":"ÖRK"}},{"type":"Feature","geometry":{"type":"Point","coordinates":[10.7420281,47.2346464]},"properties":{"addr:city":"Imst","addr:housenumber":"16","addr:postcode":"6460","addr:street":"Meraner Straße","ambulance_station:emergency_doctor":"yes","ambulance_station:patient_transport":"yes","brand":"Österreichisches Rotes Kreuz","brand:short":"ÖRK","emergency":"ambulance_station","name":"Rotes Kreuz Bezirksstelle Imst","operator":"Rettungsdienst Tirol gGmbH","short_name":"ÖRK"}},{"type":"Feature","geometry":{"type":"Point","coordinates":[11.8589862,47.1674173]},"properties":{"addr:city":"Mayrhofen","addr:housenumber":"600","addr:postcode":"6290","addr:street":"Dornaustraße","ambulance_station:emergency_doctor":"yes","ambulance_station:patient_transport":"yes","brand":"Österreichisches Rotes Kreuz","emergency":"ambulance_station","name":"Rotes Kreuz Ortsstelle Mayrhofen","operator":"Rettungsdienst Tirol gGmbH","short_name":"ÖRK","brand:short":"ÖRK"}},{"type":"Feature","geometry":{"type":"Point","coordinates":[12.428313,47.5202814]},"properties":{"addr:city":"St. Johann in Tirol","addr:housenumber":"14","addr:postcode":"6380","addr:street":"Brauweg","ambulance_station:emergency_doctor":"yes","brand":"Österreichisches Rotes Kreuz","emergency":"ambulance_station","name":"Rotes Kreuz Samariterbund Notarztstützpunkt St Johann in Tirol","operator":"Rettungsdienst Tirol gGmbH","short_name":"ÖRK","brand:short":"ÖRK"}},{"type":"Feature","geometry":{"type":"Point","coordinates":[11.3846129,47.2614462]},"properties":{"addr:city":"Innsbruck","addr:postcode":"6020","addr:street":"Innerkoflerstraße","ambulance_station:emergency_doctor":"yes","brand":"Österreichisches Rotes Kreuz","brand:short":"ÖRK","emergency":"ambulance_station","name":"Rotes Kreuz Notarztstützpunkt Innsbruck","operator":"Rettungsdienst Tirol gGmbH","short_name":"ÖRK"}},{"type":"Feature","geometry":{"type":"Point","coordinates":[12.5349317,46.999024]},"properties":{"addr:city":"Matrei in Osttirol","addr:housenumber":"18a","addr:postcode":"9971","addr:street":"Virgener Straße","ambulance_station:emergency_doctor":"yes","ambulance_station:patient_transport":"yes","brand":"Österreichisches Rotes Kreuz","brand:short":"ÖRK","emergency":"ambulance_station","name":"Rotes Kreuz Ortsstelle Matrei/Osttirol","operator":"Rettungsdienst Tirol gGmbH","short_name":"ÖRK"}},{"type":"Feature","geometry":{"type":"Point","coordinates":[10.593129,47.1612149]},"properties":{"addr:city":"Zams","addr:housenumber":"43","addr:postcode":"6511","addr:street":"Sanatoriumstraße","ambulance_station:emergency_doctor":"yes","brand":"Österreichisches Rotes Kreuz","emergency":"ambulance_station","name":"Rotes Kreuz Notarztstützpunkt Zams","operator":"Rettungsdienst Tirol gGmbH","short_name":"ÖRK","brand:short":"ÖRK"}},{"type":"Feature","geometry":{"type":"Point","coordinates":[10.7108089,47.4735014]},"properties":{"addr:city":"Ehenbichl","addr:housenumber":"33","addr:postcode":"6600","addr:street":"Krankenhausstraße","ambulance_station:emergency_doctor":"yes","brand":"Österreichisches Rotes Kreuz","emergency":"ambulance_station","name":"Rotes Kreuz Notarztstützpunkt Reutte","operator":"Rettungsdienst Tirol gGmbH","short_name":"ÖRK","brand:short":"ÖRK"}}]}