{
  "type": "FeatureCollection",
  "generator": "overpass-turbo",
  "copyright": "The data included in this document is from www.openstreetmap.org. The data is made available under ODbL.",
  "timestamp": "2025-11-06T07:15:34Z",
  "features": [
    {
      "type": "Feature",
      "properties": {
        "@id": "way/23049009",
        "addr:city": "Korneuburg",
        "addr:country": "AT",
        "addr:housenumber": "7",
        "addr:postcode": "2100",
        "addr:street": "Jahnstraße",
        "ambulance_station:emergency_doctor": "yes",
        "ambulance_station:patient_transport": "yes",
        "brand": "Österreichisches Rotes Kreuz",
        "brand:wikidata": "Q168276",
        "building": "yes",
        "construction_date": "2020-05-01;1970-01-01",
        "emergency": "ambulance_station",
        "name": "Rotes Kreuz Bezirksstelle Ortsstelle Korneuburg",
        "operator": "Österreichisches Rotes Kreuz, Landesverband Niederösterreich",
        "operator:wikidata": "Q61950913",
        "short_name": "ÖRK",
        "website": "https://www.roteskreuz.at/niederoesterreich/korneuburg/home",
        "@geometry": "center"
      },
      "geometry": {
        "type": "Point",
        "coordinates": [
          16.336203,
          48.3388855
        ]
      },
      "id": "way/23049009"
    },
    {
      "type": "Feature",
      "properties": {
        "@id": "way/26299582",
        "addr:city": "Purkersdorf",
        "addr:country": "AT",
        "addr:housenumber": "65",
        "addr:postcode": "3002",
        "addr:street": "Kaiser Josef-Straße",
        "ambulance_station:emergency_doctor": "yes",
        "ambulance_station:patient_transport": "yes",
        "brand": "Österreichisches Rotes Kreuz",
        "brand:wikidata": "Q168276",
        "brand:wikipedia": "Österreichisches Rotes Kreuz",
        "building": "yes",
        "contact:fax": "+43 59 144 66000 77",
        "contact:phone": "+43 59 144 66 000",
        "contact:website": "http://www.roteskreuz.at/noe/dienststellen/purkersdorf/organisieren/purkersdorf/",
        "defibrillator:location": "yes",
        "emergency": "ambulance_station",
        "full_name": "Rotes Kreuz Bezirksstelle Purkersdorf-Gablitz",
        "name": "Rotes Kreuz Bezirksstelle Purkersdorf-Gablitz",
        "office": "association",
        "opening_hours": "00:00-24:00",
        "operator": "Rotes Kreuz Purkersdorf",
        "short_name": "ÖRK",
        "source": "Rotes Kreuz Purkersdorf",
        "website": "https://www.roteskreuz.at/",
        "wheelchair": "yes",
        "wheelchair:description": "Behinderten Toilette vorhanden, Rollstuhltransporte nach Anfrage möglich",
        "@geometry": "center"
      },
      "geometry": {
        "type": "Point",
        "coordinates": [
          16.1695731,
          48.2011285
        ]
      },
      "id": "way/26299582"
    },
    {
      "type": "Feature",
      "properties": {
        "@id": "way/26806369",
        "addr:city": "Hainburg an der Donau",
        "addr:country": "AT",
        "addr:housenumber": "14",
        "addr:postcode": "2410",
        "addr:street": "Rot Kreuz Straße",
        "ambulance_station:emergency_doctor": "yes",
        "ambulance_station:patient_transport": "yes",
        "at_bev:addr_date": "2021-04-01",
        "brand": "Österreichisches Rotes Kreuz",
        "brand:short": "ÖRK",
        "brand:wikidata": "Q168276",
        "building": "yes",
        "emergency": "ambulance_station",
        "name": "Rotes Kreuz Bezirksstelle Hainburg",
        "operator": "Österreichisches Rotes Kreuz, Landesverband Niederösterreich",
        "operator:wikidata": "Q168276",
        "operator:wikipedia": "de:Österreichisches Rotes Kreuz",
        "short_name": "ÖRK",
        "@geometry": "center"
      },
      "geometry": {
        "type": "Point",
        "coordinates": [
          16.9600128,
          48.1436665
        ]
      },
      "id": "way/26806369"
    },
    {
      "type": "Feature",
      "properties": {
        "@id": "way/27090722",
        "addr:city": "Klosterneuburg",
        "addr:housenumber": "11-13",
        "addr:postcode": "3400",
        "addr:street": "Kreutzergasse",
        "ambulance_station:emergency_doctor": "yes",
        "ambulance_station:patient_transport": "yes",
        "brand": "Österreichisches Rotes Kreuz",
        "brand:wikidata": "Q168276",
        "building": "yes",
        "emergency": "ambulance_station",
        "name": "Rotes Kreuz Bezirksstelle Klosterneuburg",
        "operator": "Österreichisches Rotes Kreuz, Landesverband Niederösterreich",
        "operator:wikidata": "Q61950913",
        "short_name": "ÖRK",
        "@geometry": "center"
      },
      "geometry": {
        "type": "Point",
        "coordinates": [
          16.324824,
          48.3081246
        ]
      },
      "id": "way/27090722"
    },
    {
      "type": "Feature",
      "properties": {
        "@id": "way/29306031",
        "addr:city": "Neulengbach",
        "addr:country": "AT",
        "addr:housenumber": "1",
        "addr:postcode": "3040",
        "addr:street": "Rettungsgasse",
        "ambulance_station:emergency_doctor": "yes",
        "ambulance_station:patient_transport": "yes",
        "brand": "Österreichisches Rotes Kreuz",
        "brand:wikidata": "Q168276",
        "building": "yes",
        "construction_date": "2022-10-01;1972-01-01",
        "description": "Notarztstützpunkt (emergency_doctor) wöchentlich alternierend Neulengbach Altlengbach",
        "emergency": "ambulance_station",
        "name": "Rotes Kreuz Bezirksstelle Neulengbach",
        "operator": "Österreichisches Rotes Kreuz, Landesverband Niederösterreich",
        "operator:wikidata": "Q61950913",
        "short_name": "ÖRK",
        "website": "https://www.roteskreuz.at/niederoesterreich/neulengbach/bezirksstelle-neulengbach",
        "@geometry": "center"
      },
      "geometry": {
        "type": "Point",
        "coordinates": [
          15.9002267,
          48.190459
        ]
      },
      "id": "way/29306031"
    },
    {
      "type": "Feature",
      "properties": {
        "@id": "way/29474058",
        "addr:city": "Zwettl-Niederösterreich",
        "addr:country": "AT",
        "addr:housenumber": "45",
        "addr:postcode": "3910",
        "addr:street": "Propstei",
        "ambulance_station:emergency_doctor": "yes",
        "ambulance_station:patient_transport": "yes",
        "at_bev:addr_date": "2021-10-01",
        "brand": "Österreichisches Rotes Kreuz",
        "brand:wikidata": "Q168276",
        "brand:wikipedia": "de:Österreichisches Rotes Kreuz",
        "building": "yes",
        "emergency": "ambulance_station",
        "name": "Rotes Kreuz Bezirksstelle Zwettl",
        "operator": "Österreichisches Rotes Kreuz, Landesverband Niederösterreich",
        "operator:wikidata": "Q61950913",
        "short_name": "ÖRK",
        "source": "plan.at 2009,geoimage.at",
        "website": "https://www.roteskreuz.at/niederoesterreich/zwettl",
        "@geometry": "center"
      },
      "geometry": {
        "type": "Point",
        "coordinates": [
          15.163645,
          48.6003879
        ]
      },
      "id": "way/29474058"
    },
    {
      "type": "Feature",
      "properties": {
        "@id": "way/35683540",
        "addr:city": "Baden",
        "addr:country": "AT",
        "addr:housenumber": "6",
        "addr:postcode": "2500",
        "addr:street": "Rotes Kreuz-Gasse",
        "ambulance_station:emergency_doctor": "yes",
        "ambulance_station:patient_transport": "yes",
        "at_bev:addr_date": "2018-10-01",
        "brand": "Österreichisches Rotes Kreuz",
        "brand:short": "ÖRK",
        "brand:wikidata": "Q168276",
        "brand:wikipedia": "de:Österreichisches Rotes Kreuz",
        "building": "yes",
        "emergency": "ambulance_station",
        "name": "Rotes Kreuz Bezirksstelle Baden",
        "operator": "Österreichisches Rotes Kreuz, Landesverband Niederösterreich",
        "operator:wikidata": "Q61950913",
        "short_name": "ÖRK",
        "@geometry": "center"
      },
      "geometry": {
        "type": "Point",
        "coordinates": [
          16.2538943,
          48.0014671
        ]
      },
      "id": "way/35683540"
    },
    {
      "type": "Feature",
      "properties": {
        "@id": "way/38424205",
        "addr:city": "Tulln an der Donau",
        "addr:housenumber": "1",
        "addr:postcode": "3430",
        "addr:street": "Dr.-Karl-Landsteiner-Straße",
        "ambulance_station:emergency_doctor": "yes",
        "ambulance_station:patient_transport": "yes",
        "brand": "Österreichisches Rotes Kreuz",
        "brand:wikidata": "Q168276",
        "brand:wikipedia": "de:Österreichisches Rotes Kreuz",
        "building": "yes",
        "building:levels": "2",
        "emergency": "ambulance_station",
        "name": "Rotes Kreuz Bezirksstelle Tulln",
        "operator": "Österreichisches Rotes Kreuz, Landesverband Niederösterreich",
        "short_name": "ÖRK",
        "website": "https://www.roteskreuz.at/niederoesterreich/tulln/home",
        "@geometry": "center"
      },
      "geometry": {
        "type": "Point",
        "coordinates": [
          16.0645466,
          48.3168488
        ]
      },
      "id": "way/38424205"
    },
    {
      "type": "Feature",
      "properties": {
        "@id": "way/88047695",
        "addr:city": "Waidhofen an der Thaya",
        "addr:country": "AT",
        "addr:housename": "Rotes Kreuz Waidhofen/Thaya",
        "addr:housenumber": "30a",
        "addr:postcode": "3830",
        "addr:street": "Moritz Schadekgasse",
        "ambulance_station:emergency_doctor": "yes",
        "ambulance_station:patient_transport": "yes",
        "at_bev:addr_date": "2018-04-02",
        "brand": "Österreichisches Rotes Kreuz",
        "brand:wikidata": "Q168276",
        "building": "yes",
        "emergency": "ambulance_station",
        "health_facility:type": "first_aid",
        "int_name": "Red Cross Stadtion",
        "name": "Rotes Kreuz Bezirksstelle Waidhofen/Thaya",
        "operator": "Österreichisches Rotes Kreuz",
        "operator:wikidata": "Q168276",
        "operator:wikipedia": "de:Österreichisches Rotes Kreuz",
        "short_name": "ÖRK",
        "social_facility:for": "diseased",
        "source": "geoimage.at",
        "@geometry": "center"
      },
      "geometry": {
        "type": "Point",
        "coordinates": [
          15.2843613,
          48.8119877
        ]
      },
      "id": "way/88047695"
    },
    {
      "type": "Feature",
      "properties": {
        "@id": "way/88814473",
        "addr:city": "Krems an der Donau",
        "addr:country": "AT",
        "addr:housenumber": "11",
        "addr:postcode": "3500",
        "addr:street": "Mitterweg",
        "ambulance_station:emergency_doctor": "yes",
        "ambulance_station:patient_transport": "yes",
        "at_bev:addr_date": "2022-10-01",
        "brand": "Österreichisches Rotes Kreuz",
        "brand:wikidata": "Q168276",
        "building": "yes",
        "construction_date": "2020-08-17;1970-01-01",
        "emergency": "ambulance_station",
        "name": "Rotes Kreuz Bezirksstelle Krems",
        "operator": "Österreichisches Rotes Kreuz",
        "operator:wikidata": "Q168276",
        "operator:wikipedia": "de:Österreichisches Rotes Kreuz",
        "phone": "+43 59144 75000",
        "short_name": "ÖRK",
        "website": "https://www.roteskreuz.at/krems",
        "@geometry": "center"
      },
      "geometry": {
        "type": "Point",
        "coordinates": [
          15.6134826,
          48.4129783
        ]
      },
      "id": "way/88814473"
    },
    {
      "type": "Feature",
      "properties": {
        "@id": "way/90045647",
        "addr:city": "Waidhofen an der Ybbs",
        "addr:country": "AT",
        "addr:housenumber": "6",
        "addr:postcode": "3340",
        "addr:street": "Pestalozzi-Straße",
        "ambulance_station:emergency_doctor": "yes",
        "ambulance_station:patient_transport": "yes",
        "brand": "Österreichisches Rotes Kreuz",
        "brand:wikidata": "Q168276",
        "building": "yes",
        "building:levels": "2",
        "contact:phone": "+43 59 1447 6000",
        "emergency": "ambulance_station",
        "name": "Österreichisches Rotes Kreuz Bezirksstelle Waidhofen/Ybbs",
        "operator": "Österreichisches Rotes Kreuz Niederösterreich",
        "roof:colour": "grey",
        "roof:shape": "gabled",
        "short_name": "ÖRK",
        "source": "bing",
        "website": "https://www.roteskreuz.at/niederoesterreich/waidhofen-an-der-ybbs",
        "@geometry": "center"
      },
      "geometry": {
        "type": "Point",
        "coordinates": [
          14.7892976,
          47.9499619
        ]
      },
      "id": "way/90045647"
    },
    {
      "type": "Feature",
      "properties": {
        "@id": "way/122402557",
        "alt_name": "NEF-Stützpunkt St. Pölten",
        "ambulance_station:emergency_doctor": "yes",
        "brand": "Österreichisches Rotes Kreuz",
        "brand:wikidata": "Q168276",
        "building": "hospital",
        "building:levels": "1",
        "description": "Gemeinsamer Notarztstützpunkt des Roten Kreuzes St. Pölten und Samariterbundes St. Pölten",
        "emergency": "ambulance_station",
        "name": "Rotes Kreuz Samariterbund Notarztstützpunkt St. Pölten",
        "operator": "Österreichisches Rotes Kreuz, Landesverband Niederösterreich, Arbeiter Samariterbund Österreichs",
        "roof:shape": "flat",
        "short_name": "ÖRK",
        "@geometry": "center"
      },
      "geometry": {
        "type": "Point",
        "coordinates": [
          15.6289222,
          48.2135394
        ]
      },
      "id": "way/122402557"
    },
    {
      "type": "Feature",
      "properties": {
        "@id": "way/129037155",
        "addr:city": "Persenbeug-Gottsdorf",
        "addr:country": "AT",
        "addr:housenumber": "67",
        "addr:postcode": "3680",
        "addr:street": "Nibelungenstraße",
        "ambulance_station:emergency_doctor": "yes",
        "ambulance_station:patient_transport": "yes",
        "brand": "Arbeiter-Samariter-Bund Österreichs",
        "brand:wikidata": "Q627072",
        "building": "yes",
        "description": "Notarztstützpunkt (Emergency Doctor) alternierend alle 2 Wochen in Ybbs bzw. Persenbeug",
        "emergency": "ambulance_station",
        "name": "Samariterbund Persenbeug",
        "operator": "Arbeiter-Samariter-Bund Österreichs",
        "short_name": "ASB",
        "website": "https://www.samariterbund.net/gruppen/samariterbund-persenbeug/",
        "@geometry": "center"
      },
      "geometry": {
        "type": "Point",
        "coordinates": [
          15.0953958,
          48.1900025
        ]
      },
      "id": "way/129037155"
    },
    {
      "type": "Feature",
      "properties": {
        "@id": "way/129902910",
        "addr:city": "Ybbs an der Donau",
        "addr:country": "AT",
        "addr:housenumber": "1",
        "addr:postcode": "3370",
        "addr:street": "Ybbsflußstraße",
        "ambulance_station:emergency_doctor": "yes",
        "ambulance_station:patient_transport": "yes",
        "brand": "Österreichisches Rotes Kreuz",
        "brand:wikidata": "Q168276",
        "brand:wikipedia": "de:Österreichisches Rotes Kreuz",
        "building": "yes",
        "contact:phone": "+43 59 1446 2400",
        "description": "Notarztstützpunkt (emergency_doctor) alternierend alle 2 Wochen in Ybbs bzw. Persenbeug",
        "emergency": "ambulance_station",
        "name": "Rotes Kreuz Bezirksstelle Ybbs an der Donau",
        "operator": "Österreichisches Rotes Kreuz",
        "operator:wikidata": "Q168276",
        "operator:wikipedia": "de:Österreichisches Rotes Kreuz",
        "short_name": "ÖRK",
        "@geometry": "center"
      },
      "geometry": {
        "type": "Point",
        "coordinates": [
          15.0861626,
          48.1655188
        ]
      },
      "id": "way/129902910"
    },
    {
      "type": "Feature",
      "properties": {
        "@id": "way/142883232",
        "addr:city": "Gänserndorf",
        "addr:country": "AT",
        "addr:housenumber": "1",
        "addr:postcode": "2230",
        "addr:street": "Henri-Dunant-Straße",
        "ambulance_station:emergency_doctor": "yes",
        "ambulance_station:patient_transport": "yes",
        "brand": "Österreichisches Rotes Kreuz",
        "brand:wikidata": "Q168276",
        "building": "yes",
        "emergency": "ambulance_station",
        "name": "Rotes Kreuz Bezirksstelle Gänserndorf Marchegg",
        "operator": "Österreichisches Rotes Kreuz, Landesverband Niederösterreich",
        "operator:wikidata": "Q168276",
        "operator:wikipedia": "de:Österreichisches Rotes Kreuz",
        "phone": "0043 2282 2144",
        "short_name": "ÖRK",
        "source": "geoimage.at",
        "@geometry": "center"
      },
      "geometry": {
        "type": "Point",
        "coordinates": [
          16.7280739,
          48.3452034
        ]
      },
      "id": "way/142883232"
    },
    {
      "type": "Feature",
      "properties": {
        "@id": "way/143373053",
        "addr:city": "Wiener Neustadt",
        "addr:country": "AT",
        "addr:housename": "Rotes Kreuz - Bezirksstelle Wr. Neustadt",
        "addr:housenumber": "41",
        "addr:postcode": "2700",
        "addr:street": "Grazer Straße",
        "ambulance_station:emergency_doctor": "yes",
        "ambulance_station:patient_transport": "yes",
        "at_bev:addr_date": "2019-04-01",
        "brand": "Österreichisches Rotes Kreuz",
        "brand:short": "ÖRK",
        "brand:wikidata": "Q168276",
        "brand:wikipedia": "de:Österreichisches Rotes Kreuz",
        "building": "yes",
        "emergency": "ambulance_station",
        "name": "Rotes Kreuz Bezirksstelle Wiener Neustadt",
        "operator": "Österreichisches Rotes Kreuz, Landesverband Niederösterreich",
        "operator:wikidata": "Q61950913",
        "phone": "+43 59 144-74000",
        "short_name": "ÖRK",
        "website": "https://www.roteskreuz.at/niederoesterreich/wiener-neustadt",
        "wheelchair": "yes",
        "@geometry": "center"
      },
      "geometry": {
        "type": "Point",
        "coordinates": [
          16.2482797,
          47.8183169
        ]
      },
      "id": "way/143373053"
    },
    {
      "type": "Feature",
      "properties": {
        "@id": "way/150308151",
        "addr:city": "Schwechat",
        "addr:country": "AT",
        "addr:housename": "Rotes Kreuz",
        "addr:housenumber": "27",
        "addr:postcode": "2320",
        "addr:street": "Bruck Hainburger-Straße",
        "ambulance_station:emergency_doctor": "yes",
        "ambulance_station:patient_transport": "yes",
        "brand": "Österreichisches Rotes Kreuz",
        "brand:wikidata": "Q168276",
        "brand:wikipedia": "Österreichisches Rotes Kreuz",
        "building": "yes",
        "construction_date": "2024-09-06",
        "emergency": "ambulance_station",
        "name": "Rotes Kreuz Bezirksstelle Schwechat",
        "operator": "Rotes Kreuz Niederösterreich",
        "phone": "+43 59 144 77000",
        "short_name": "ÖRK",
        "website": "https://www.roteskreuz.at/niederoesterreich/schwechat",
        "@geometry": "center"
      },
      "geometry": {
        "type": "Point",
        "coordinates": [
          16.4869216,
          48.1399737
        ]
      },
      "id": "way/150308151"
    },
    {
      "type": "Feature",
      "properties": {
        "@id": "way/158665736",
        "addr:city": "Melk",
        "addr:country": "AT",
        "addr:housenumber": "15",
        "addr:postcode": "3390",
        "addr:street": "Spielberger Straße",
        "ambulance_station:emergency_doctor": "yes",
        "ambulance_station:patient_transport": "yes",
        "amenity": "social_facility",
        "at_bev:addr_date": "2020-04-01",
        "brand": "Österreichisches Rotes Kreuz",
        "brand:wikidata": "Q168276",
        "building": "yes",
        "email": "melk@n.roteskreuz.at",
        "emergency": "ambulance_station",
        "name": "Rotes Kreuz Bezirksstelle Melk",
        "operator": "Österreichisches Rotes Kreuz, Landesverband Niederösterreich",
        "phone": "+43 59 1446 2000",
        "short_name": "ÖRK",
        "social_facility:for": "senior;psychosocial;diseased",
        "website": "https://www.roteskreuz.at/noe/dienststellen/melk/organisieren/startseite/",
        "@geometry": "center"
      },
      "geometry": {
        "type": "Point",
        "coordinates": [
          15.3468449,
          48.2277524
        ]
      },
      "id": "way/158665736"
    },
    {
      "type": "Feature",
      "properties": {
        "@id": "way/184211548",
        "addr:city": "Scheibbs",
        "addr:housenumber": "3",
        "addr:postcode": "3270",
        "addr:street": "Rutesheimer Straße",
        "ambulance_station:emergency_doctor": "yes",
        "ambulance_station:patient_transport": "yes",
        "brand": "Österreichisches Rotes Kreuz",
        "brand:wikidata": "Q168276",
        "building": "yes",
        "emergency": "ambulance_station",
        "name": "Österreichisches Rotes Kreuz",
        "operator": "Österreichisches Rotes Kreuz",
        "operator:wikidata": "Q168276",
        "operator:wikipedia": "de:Österreichisches Rotes Kreuz",
        "short_name": "ÖRK",
        "@geometry": "center"
      },
      "geometry": {
        "type": "Point",
        "coordinates": [
          15.1607087,
          48.0087508
        ]
      },
      "id": "way/184211548"
    },
    {
      "type": "Feature",
      "properties": {
        "@id": "way/184596475",
        "addr:city": "Groß-Enzersdorf",
        "addr:housenumber": "1",
        "addr:postcode": "2301",
        "addr:street": "Freiherr von Smola-Straße",
        "ambulance_station:emergency_doctor": "yes",
        "ambulance_station:patient_transport": "yes",
        "brand": "Österreichisches Rotes Kreuz",
        "brand:wikidata": "Q168276",
        "brand:wikipedia": "de:Österreichisches Rotes Kreuz",
        "building": "yes",
        "emergency": "ambulance_station",
        "name": "Rotes Kreuz Bezirksstelle Marchfeld",
        "operator": "Österreichisches Rotes Kreuz",
        "phone": "059 144 54 400",
        "short_name": "ÖRK",
        "website": "https://www.roteskreuz.at/noe/dienststellen/gross-enzersdorf/organisieren/startseite/",
        "wheelchair": "yes",
        "@geometry": "center"
      },
      "geometry": {
        "type": "Point",
        "coordinates": [
          16.5486585,
          48.2059235
        ]
      },
      "id": "way/184596475"
    },
    {
      "type": "Feature",
      "properties": {
        "@id": "way/233220983",
        "addr:city": "Altlengbach",
        "addr:country": "AT",
        "addr:housenumber": "7",
        "addr:postcode": "3033",
        "addr:street": "Hauptplatz",
        "ambulance_station:emergency_doctor": "yes",
        "ambulance_station:patient_transport": "yes",
        "brand": "Arbeiter-Samariter-Bund Österreichs",
        "brand:wikidata": "Q627072",
        "building": "yes",
        "description": "Notarztstützpunkt (emergency_doctor) wöchentlich alternierend Neulengbach Altlengbach",
        "emergency": "ambulance_station",
        "full_name": "Arbeiter-Samariter-Bund, Gruppe Altlengbach",
        "name": "Samariterbund Altlengbach",
        "operator": "Arbeiter-Samariter-Bund Österreichs",
        "operator:wikidata": "Q627072",
        "operator:wikipedia": "de:Arbeiter-Samariter-Bund Österreichs",
        "phone": "+43 (2774) 2244",
        "website": "https://www.samariterbund.net/gruppen/samariterbund-altlengbach/",
        "@geometry": "center"
      },
      "geometry": {
        "type": "Point",
        "coordinates": [
          15.9311375,
          48.1527629
        ]
      },
      "id": "way/233220983"
    },
    {
      "type": "Feature",
      "properties": {
        "@id": "way/235319903",
        "addr:housenumber": "54",
        "addr:postcode": "3950",
        "addr:street": "Weitraer Straße",
        "ambulance_station:emergency_doctor": "yes",
        "ambulance_station:patient_transport": "yes",
        "brand": "Österreichisches Rotes Kreuz",
        "brand:wikidata": "Q168276",
        "brand:wikipedia": "Österreichisches Rotes Kreuz",
        "building": "yes",
        "construction_date": "2026-01-01",
        "emergency": "ambulance_station",
        "name": "Rotes Kreuz Bezirksstelle Gmünd",
        "operator": "Österreichisches Rotes Kreuz, Landesverband Niederösterreich",
        "operator:wikidata": "Q61950913",
        "short_name": "ÖRK",
        "website": "https://www.roteskreuz.at/niederoesterreich/gmuend/wer-wir-sind/bezirksstelle",
        "@geometry": "center"
      },
      "geometry": {
        "type": "Point",
        "coordinates": [
          14.9773433,
          48.7667803
        ]
      },
      "id": "way/235319903"
    },
    {
      "type": "Feature",
      "properties": {
        "@id": "way/263355775",
        "addr:city": "Lilienfeld",
        "addr:country": "AT",
        "addr:housenumber": "8",
        "addr:postcode": "3180",
        "addr:street": "Liese Prokop Straße",
        "ambulance_station:emergency_doctor": "yes",
        "ambulance_station:patient_transport": "yes",
        "brand": "Österreichisches Rotes Kreuz",
        "brand:wikidata": "Q168276",
        "brand:wikipedia": "de:Österreichisches Rotes Kreuz",
        "building": "yes",
        "emergency": "ambulance_station",
        "name": "Rotes Kreuz Bezirksstelle Lilienfeld - St. Aegyd",
        "operator": "Österreichisches Rotes Kreuz, Landesverband Niederösterreich",
        "operator:wikidata": "Q61950913",
        "short_name": "ÖRK",
        "@geometry": "center"
      },
      "geometry": {
        "type": "Point",
        "coordinates": [
          15.5982278,
          48.0144875
        ]
      },
      "id": "way/263355775"
    },
    {
      "type": "Feature",
      "properties": {
        "@id": "way/268319830",
        "addr:city": "Pöggstall",
        "addr:country": "AT",
        "addr:housenumber": "5",
        "addr:postcode": "3650",
        "addr:street": "Rogendorferstraße",
        "ambulance_station:emergency_doctor": "yes",
        "ambulance_station:patient_transport": "yes",
        "at_bev:addr_date": "2024-01-01",
        "brand": "Österreichisches Rotes Kreuz",
        "brand:wikidata": "Q168276",
        "building": "yes",
        "construction_date": "2024-01-01",
        "emergency": "ambulance_station",
        "name": "Rotes Kreuz Bezirksstelle Ortsstelle Pöggstall",
        "operator": "Österreichisches Rotes Kreuz, Landesverband Niederösterreich",
        "operator:wikidata": "Q61950913",
        "phone": "+432758/2944",
        "short_name": "ÖRK",
        "@geometry": "center"
      },
      "geometry": {
        "type": "Point",
        "coordinates": [
          15.1987399,
          48.3160067
        ]
      },
      "id": "way/268319830"
    },
    {
      "type": "Feature",
      "properties": {
        "@id": "way/466387055",
        "addr:city": "Aspang-Markt",
        "addr:country": "AT",
        "addr:housenumber": "1a",
        "addr:postcode": "2870",
        "addr:street": "Wechselstraße",
        "ambulance_station:emergency_doctor": "yes",
        "ambulance_station:patient_transport": "yes",
        "at_bev:addr_date": "2020-10-01",
        "brand": "Österreichisches Rotes Kreuz",
        "brand:wikidata": "Q168276",
        "brand:wikipedia": "de:Österreichisches Rotes Kreuz",
        "building": "yes",
        "emergency": "ambulance_station",
        "name": "Rotes Kreuz Ortsstelle Aspang",
        "operator": "Österreichisches Rotes Kreuz, Landesverband Niederösterreich",
        "short_name": "ÖRK",
        "website": "https://www.roteskreuz.at/niederoesterreich/neunkirchen/wer-wir-sind/ortsstellen",
        "@geometry": "center"
      },
      "geometry": {
        "type": "Point",
        "coordinates": [
          16.0914861,
          47.5583703
        ]
      },
      "id": "way/466387055"
    },
    {
      "type": "Feature",
      "properties": {
        "@id": "way/591992316",
        "addr:city": "Amstetten",
        "addr:country": "AT",
        "addr:housenumber": "10",
        "addr:postcode": "3300",
        "addr:street": "Krankenhausstraße",
        "ambulance_station:emergency_doctor": "yes",
        "ambulance_station:patient_transport": "yes",
        "brand": "Österreichisches Rotes Kreuz",
        "brand:wikidata": "Q168276",
        "building": "yes",
        "emergency": "ambulance_station",
        "name": "Rotes Kreuz Bezirksstelle Amstetten",
        "operator": "Österreichisches Rotes Kreuz, Landesverband Niederösterreich",
        "operator:wikidata": "Q168276",
        "operator:wikipedia": "de:Österreichisches Rotes Kreuz",
        "short_name": "ÖRK",
        "@geometry": "center"
      },
      "geometry": {
        "type": "Point",
        "coordinates": [
          14.8828182,
          48.1274582
        ]
      },
      "id": "way/591992316"
    },
    {
      "type": "Feature",
      "properties": {
        "@id": "way/759526151",
        "addr:city": "Hollabrunn",
        "addr:country": "AT",
        "addr:housenumber": "21",
        "addr:postcode": "2020",
        "addr:street": "Robert Löffler Straße",
        "ambulance_station:emergency_doctor": "yes",
        "ambulance_station:patient_transport": "yes",
        "brand": "Österreichisches Rotes Kreuz",
        "brand:wikidata": "Q168276",
        "brand:wikipedia": "Österreichisches Rotes Kreuz",
        "building": "yes",
        "construction_date": "2019-09-26",
        "emergency": "ambulance_station",
        "name": "Rotes Kreuz Bezirksstelle Hollabrunn",
        "operator": "Rotes Kreuz",
        "phone": "+43 59144 57000",
        "short_name": "ÖRK",
        "website": "https://www.roteskreuz.at/niederoesterreich/hollabrunn",
        "@geometry": "center"
      },
      "geometry": {
        "type": "Point",
        "coordinates": [
          16.0931166,
          48.5635649
        ]
      },
      "id": "way/759526151"
    },
    {
      "type": "Feature",
      "properties": {
        "@id": "way/1196072381",
        "addr:city": "Groß Gerungs",
        "addr:housenumber": "107",
        "addr:postcode": "3920",
        "addr:street": "Kreuzberg",
        "ambulance_station:emergency_doctor": "yes",
        "ambulance_station:patient_transport": "yes",
        "brand": "Arbeiter-Samariter-Bund Österreichs",
        "brand:wikidata": "Q627072",
        "building": "yes",
        "construction_date": "2023-06-13",
        "email": "office@asb-online.at",
        "emergency": "ambulance_station",
        "fixme": "still no current sattelite image of the recently opened station https://m.noen.at/zwettl/neues-gebaeude-eroeffnet-samariterbund-feiert-seinen-modernen-stuetzpunkt-in-gross-gerungsbasis-369338734",
        "layer": "-1",
        "name": "Samariterbund Groß Gerungs",
        "operator": "Arbeiter-Samariter-Bund Österreichs",
        "short_name": "ASB",
        "website": "https://www.asb-online.at",
        "wheelchair": "yes",
        "@geometry": "center"
      },
      "geometry": {
        "type": "Point",
        "coordinates": [
          14.9553779,
          48.5655623
        ]
      },
      "id": "way/1196072381"
    },
    {
      "type": "Feature",
      "properties": {
        "@id": "way/1196783471",
        "addr:city": "Neunkirchen",
        "addr:country": "AT",
        "addr:housenumber": "4",
        "addr:postcode": "2620",
        "addr:street": "Rotkreuz-Straße",
        "ambulance_station:emergency_doctor": "yes",
        "ambulance_station:patient_transport": "yes",
        "at_bev:addr_date": "2020-10-01",
        "brand": "Österreichisches Rotes Kreuz",
        "brand:wikidata": "Q168276",
        "brand:wikipedia": "de:Österreichisches Rotes Kreuz",
        "building": "yes",
        "emergency": "ambulance_station",
        "name": "Rotes Kreuz Bezirksstelle Neunkirchen",
        "note": "Garage",
        "operator": "Österreichisches Rotes Kreuz",
        "short_name": "ÖRK",
        "website": "https://www.roteskreuz.at/niederoesterreich/neunkirchen/wer-wir-sind/ortsstellen",
        "@geometry": "center"
      },
      "geometry": {
        "type": "Point",
        "coordinates": [
          16.0950093,
          47.7250514
        ]
      },
      "id": "way/1196783471"
    },
    {
      "type": "Feature",
      "properties": {
        "@id": "way/1272968477",
        "addr:city": "Mistelbach",
        "addr:country": "AT",
        "addr:postcode": "2130",
        "addr:street": "Liechtensteinstraße",
        "ambulance_station:emergency_doctor": "yes",
        "ambulance_station:patient_transport": "yes",
        "brand": "Österreichisches Rotes Kreuz",
        "brand:wikidata": "Q168276",
        "building": "yes",
        "construction_date": "2024-10-27",
        "emergency": "ambulance_station",
        "fixme": "Grundriss nicht bekannt – Fläche ist lediglich ein Provisorium. Hausnummer ist außerdem unklar. Vorläufig alle anderen Tags des alten Gebäudes übernommen.",
        "name": "Rotes Kreuz Bezirksstelle Ortsstelle Mistelbach",
        "operator": "Rotes Kreuz",
        "short_name": "ÖRK",
        "@geometry": "center"
      },
      "geometry": {
        "type": "Point",
        "coordinates": [
          16.5807068,
          48.5665109
        ]
      },
      "id": "way/1272968477"
    },
    {
      "type": "Feature",
      "properties": {
        "@id": "node/5518531248",
        "addr:city": "Horn",
        "addr:country": "AT",
        "addr:housenumber": "10b",
        "addr:postcode": "3580",
        "addr:street": "Spitalgasse",
        "ambulance_station:emergency_doctor": "yes",
        "ambulance_station:patient_transport": "yes",
        "brand": "Österreichisches Rotes Kreuz",
        "brand:wikidata": "Q168276",
        "contact:phone": "+43 59 144 58000",
        "emergency": "ambulance_station",
        "name": "Rotes Kreuz Bezirksstelle Horn",
        "operator": "Österreichisches Rotes Kreuz, Landesverband Niederösterreich",
        "short_name": "ÖRK"
      },
      "geometry": {
        "type": "Point",
        "coordinates": [
          15.6605171,
          48.667817
        ]
      },
      "id": "node/5518531248"
    },
    {
      "type": "Feature",
      "properties": {
        "@id": "node/11101225424",
        "ambulance_station:emergency_doctor": "yes",
        "brand": "Österreichisches Rotes Kreuz",
        "brand:wikidata": "Q168276",
        "emergency": "ambulance_station",
        "name": "Rotes Kreuz Notarztstützpunkt Mödling",
        "operator": "Österreichisches Rotes Kreuz, Landesverband Niederösterreich",
        "short_name": "ÖRK"
      },
      "geometry": {
        "type": "Point",
        "coordinates": [
          16.2978682,
          48.0900037
        ]
      },
      "id": "node/11101225424"
    },
    {
      "type": "Feature",
      "properties": {
        "@id": "node/11101232755",
        "addr:city": "Raabs an der Thaya",
        "addr:housenumber": "1",
        "addr:postcode": "3820",
        "addr:street": "Thayatalplatz",
        "ambulance_station:emergency_doctor": "yes",
        "brand": "Österreichisches Rotes Kreuz",
        "brand:wikidata": "Q168276",
        "description": "This is only open 19:00 - 07:00. \nIt also serves 141, but is a usual emergency doctor",
        "emergency": "ambulance_station",
        "name": "Rotes Kreuz Notarztstützpunkt Raabs",
        "opening_hours": "19:00-07:00",
        "operator": "Österreichisches Rotes Kreuz, Landesverband Niederösterreich",
        "operator:wikidata": "Q61950913",
        "short_name": "ÖRK"
      },
      "geometry": {
        "type": "Point",
        "coordinates": [
          15.4860454,
          48.8533505
        ]
      },
      "id": "node/11101232755"
    },
    {
      "type": "Feature",
      "properties": {
        "@id": "node/12151485748",
        "addr:city": "Retz",
        "addr:housenumber": "1",
        "addr:postcode": "2070",
        "addr:street": "Jahnstraße",
        "ambulance_station:emergency_doctor": "yes",
        "ambulance_station:patient_transport": "yes",
        "brand": "Österreichisches Rotes Kreuz",
        "brand:wikidata": "Q168276",
        "emergency": "ambulance_station",
        "name": "Rotes Kreuz Bezirksstelle Retz",
        "operator": "Österreichisches Rotes Kreuz, Landesverband Niederösterreich",
        "operator:wikidata": "Q61950913",
        "short_name": "ÖRK",
        "website": "https://www.roteskreuz.at/niederoesterreich/retz/wer-wir-sind/bezirksstelle"
      },
      "geometry": {
        "type": "Point",
        "coordinates": [
          15.9514805,
          48.7546199
        ]
      },
      "id": "node/12151485748"
    }
  ]
}