{
  "type": "FeatureCollection",
  "generator": "overpass-turbo",
  "copyright": "The data included in this document is from www.openstreetmap.org. The data is made available under ODbL.",
  "timestamp": "2025-11-06T07:16:34Z",
  "features": [
    {
      "type": "Feature",
      "properties": {
        "@id": "relation/1277289",
        "addr:city": "Graz",
        "addr:housenumber": "151",
        "addr:postcode": "8010",
        "addr:street": "Münzgrabenstraße",
        "ambulance_station:emergency_doctor": "yes",
        "ambulance_station:patient_transport": "yes",
        "brand": "Österreichisches Rotes Kreuz",
        "brand:short": "ÖRK",
        "brand:wikidata": "Q168276",
        "building": "public",
        "emergency": "ambulance_station",
        "name": "Rotes Kreuz Bezirksstelle Graz Stadt",
        "operator": "Österreichisches Rotes Kreuz",
        "phone": "+43 501445 16000",
        "short_name": "ÖRK",
        "type": "multipolygon",
        "website": "https://www.roteskreuz.at/steiermark/graz-stadt/ueber-die-bezirksstelle-graz-stadt/unsere-bezirksstelle",
        "wheelchair": "yes",
        "@geometry": "center"
      },
      "geometry": {
        "type": "Point",
        "coordinates": [
          15.4553721,
          47.0547921
        ]
      },
      "id": "relation/1277289"
    },
    {
      "type": "Feature",
      "properties": {
        "@id": "way/30382843",
        "addr:city": "Wagna",
        "addr:housenumber": "12",
        "addr:postcode": "8435",
        "addr:street": "Metlika Straße",
        "ambulance_station:emergency_doctor": "yes",
        "ambulance_station:patient_transport": "yes",
        "brand": "Österreichisches Rotes Kreuz",
        "brand:wikidata": "Q168276",
        "building:part": "yes",
        "emergency": "ambulance_station",
        "name": "Rotes Kreuz Bezirksstelle Leibnitz",
        "operator": "Österreichisches Rotes Kreuz",
        "operator:wikidata": "Q168276",
        "operator:wikipedia": "de:Österreichisches Rotes Kreuz",
        "short_name": "ÖRK",
        "source": "plan.at 2009,bing",
        "website": "https://www.roteskreuz.at/steiermark/leibnitz/home",
        "@geometry": "center"
      },
      "geometry": {
        "type": "Point",
        "coordinates": [
          15.5564615,
          46.7693003
        ]
      },
      "id": "way/30382843"
    },
    {
      "type": "Feature",
      "properties": {
        "@id": "way/30479376",
        "addr:city": "Hartberg",
        "addr:country": "AT",
        "addr:housenumber": "1",
        "addr:postcode": "8230",
        "addr:street": "Rotkreuzplatz",
        "ambulance_station:emergency_doctor": "yes",
        "ambulance_station:patient_transport": "yes",
        "brand": "Österreichisches Rotes Kreuz",
        "brand:wikidata": "Q168276",
        "building": "yes",
        "emergency": "ambulance_station",
        "name": "Rotes Kreuz Bezirksstelle Ortsstelle Hartberg",
        "operator": "Österreichisches Rotes Kreuz",
        "operator:wikidata": "Q168276",
        "operator:wikipedia": "de:Österreichisches Rotes Kreuz",
        "short_name": "ÖRK",
        "source": "http://www.roteskreuz.at/",
        "website": "https://www.roteskreuz.at/steiermark/landesverband-und-bezirksstellen/hartberg",
        "@geometry": "center"
      },
      "geometry": {
        "type": "Point",
        "coordinates": [
          15.9652053,
          47.2731672
        ]
      },
      "id": "way/30479376"
    },
    {
      "type": "Feature",
      "properties": {
        "@id": "way/81847673",
        "addr:city": "Bruck an der Mur",
        "addr:country": "AT",
        "addr:housenumber": "9",
        "addr:postcode": "8600",
        "addr:street": "Tragösser Straße",
        "ambulance_station:emergency_doctor": "yes",
        "ambulance_station:patient_transport": "yes",
        "brand": "Österreichisches Rotes Kreuz",
        "brand:wikidata": "Q168276",
        "building": "yes",
        "emergency": "ambulance_station",
        "name": "Rotes Kreuz Bezirksstelle Ortsstelle Bruck-Mürzzuschlag",
        "operator": "Österreichisches Rotes Kreuz",
        "short_name": "ÖRK",
        "source:address": "basemap.at",
        "website": "https://www.roteskreuz.at/steiermark/bruck-muerzzuschlag/ueber-die-bezirksstelle-muerzzuschlag",
        "@geometry": "center"
      },
      "geometry": {
        "type": "Point",
        "coordinates": [
          15.2645083,
          47.4234314
        ]
      },
      "id": "way/81847673"
    },
    {
      "type": "Feature",
      "properties": {
        "@id": "way/85890649",
        "addr:city": "Leoben",
        "addr:country": "AT",
        "addr:housenumber": "1",
        "addr:postcode": "8700",
        "addr:street": "Rot Kreuz-Platz",
        "addr:suburb": "Waasen",
        "ambulance_station:emergency_doctor": "yes",
        "ambulance_station:patient_transport": "yes",
        "brand": "Österreichisches Rotes Kreuz",
        "brand:short": "ÖRK",
        "brand:wikidata": "Q168276",
        "brand:wikipedia": "de:Österreichisches Rotes Kreuz",
        "building": "yes",
        "emergency": "ambulance_station",
        "name": "Rotes Kreuz Bezirksstelle Ortsstelle Leoben",
        "operator": "Österreichisches Rotes Kreuz",
        "operator:wikidata": "Q168276",
        "operator:wikipedia": "de:Österreichisches Rotes Kreuz",
        "phone": "+43 50 144 5 23 100",
        "short_name": "ÖRK",
        "source": "geoimage.at;survey",
        "website": "https://www.roteskreuz.at/steiermark/leoben/home",
        "@geometry": "center"
      },
      "geometry": {
        "type": "Point",
        "coordinates": [
          15.0849645,
          47.3778052
        ]
      },
      "id": "way/85890649"
    },
    {
      "type": "Feature",
      "properties": {
        "@id": "way/98716622",
        "addr:city": "Voitsberg",
        "addr:country": "AT",
        "addr:housenumber": "1",
        "addr:postcode": "8570",
        "addr:street": "Rot-Kreuz-Gasse",
        "ambulance_station:emergency_doctor": "yes",
        "ambulance_station:patient_transport": "yes",
        "at_bev:addr_date": "2018-10-01",
        "brand": "Österreichisches Rotes Kreuz",
        "brand:wikidata": "Q168276",
        "building": "yes",
        "contact:phone": "+43 50 1445 29000",
        "emergency": "ambulance_station",
        "name": "Rotes Kreuz Bezirksstelle Ortsstelle Voitsberg-Köflach",
        "operator": "Österreichisches Rotes Kreuz",
        "operator:wikidata": "Q168276",
        "operator:wikipedia": "de:Österreichisches Rotes Kreuz",
        "short_name": "ÖRK",
        "source": "GeoImage.at",
        "website": "https://www.roteskreuz.at/stmk/dienststellen/voitsberg-koeflach/startseite/",
        "@geometry": "center"
      },
      "geometry": {
        "type": "Point",
        "coordinates": [
          15.1392981,
          47.0532797
        ]
      },
      "id": "way/98716622"
    },
    {
      "type": "Feature",
      "properties": {
        "@id": "way/100149274",
        "addr:city": "Deutschlandsberg",
        "addr:country": "AT",
        "addr:housenumber": "31",
        "addr:postcode": "8530",
        "addr:street": "Radlpaßstraße",
        "ambulance_station:emergency_doctor": "yes",
        "ambulance_station:patient_transport": "yes",
        "brand": "Österreichisches Rotes Kreuz",
        "brand:wikidata": "Q168276",
        "building": "yes",
        "emergency": "ambulance_station",
        "name": "Rotes Kreuz Bezirksstelle Dienststelle Deutschlandsberg",
        "operator": "Österreichisches Rotes Kreuz",
        "operator:wikidata": "Q168276",
        "operator:wikipedia": "de:Österreichisches Rotes Kreuz",
        "short_name": "ÖRK",
        "source": "GeoImage.at",
        "website": "https://www.roteskreuz.at/steiermark/deutschlandsberg/ueber-die-bezirksstelle-deutschlandsberg-2",
        "@geometry": "center"
      },
      "geometry": {
        "type": "Point",
        "coordinates": [
          15.2288915,
          46.8118098
        ]
      },
      "id": "way/100149274"
    },
    {
      "type": "Feature",
      "properties": {
        "@id": "way/141556843",
        "addr:city": "Zeltweg",
        "addr:country": "AT",
        "addr:housenumber": "18b",
        "addr:postcode": "8740",
        "addr:street": "Bundesstraße",
        "ambulance_station:emergency_doctor": "yes",
        "ambulance_station:patient_transport": "yes",
        "brand": "Österreichisches Rotes Kreuz",
        "brand:wikidata": "Q168276",
        "building": "yes",
        "emergency": "ambulance_station",
        "name": "Rotes Kreuz Stützpunkt Zeltweg",
        "operator": "Österreichisches Rotes Kreuz",
        "short_name": "ÖRK",
        "@geometry": "center"
      },
      "geometry": {
        "type": "Point",
        "coordinates": [
          14.7445112,
          47.195385
        ]
      },
      "id": "way/141556843"
    },
    {
      "type": "Feature",
      "properties": {
        "@id": "way/162293063",
        "addr:city": "Rottenmann",
        "addr:housenumber": "109c",
        "addr:postcode": "8786",
        "addr:street": "Hauptstraße",
        "ambulance_station:emergency_doctor": "yes",
        "ambulance_station:patient_transport": "yes",
        "brand": "Österreichisches Rotes Kreuz",
        "brand:short": "ÖRK",
        "brand:wikidata": "Q168276",
        "building": "yes",
        "emergency": "ambulance_station",
        "name": "Rotes Kreuz Ortstelle Rottenmann",
        "operator": "Österreichisches Rotes Kreuz",
        "operator:wikidata": "Q168276",
        "operator:wikipedia": "de:Österreichisches Rotes Kreuz",
        "short_name": "ÖRK",
        "source": "geoimage.at",
        "@geometry": "center"
      },
      "geometry": {
        "type": "Point",
        "coordinates": [
          14.3665404,
          47.5261103
        ]
      },
      "id": "way/162293063"
    },
    {
      "type": "Feature",
      "properties": {
        "@id": "way/179154051",
        "addr:city": "Weiz",
        "addr:country": "AT",
        "addr:housenumber": "79",
        "addr:postcode": "8160",
        "addr:street": "Franz-Pichler-Straße",
        "ambulance_station:emergency_doctor": "yes",
        "ambulance_station:patient_transport": "yes",
        "brand": "Österreichisches Rotes Kreuz",
        "brand:wikidata": "Q168276",
        "building": "yes",
        "construction_date": "2021-01-01",
        "emergency": "ambulance_station",
        "name": "Rotes Kreuz Bezirksstelle Weiz",
        "operator": "Österreichisches Rotes Kreuz",
        "operator:wikidata": "Q168276",
        "operator:wikipedia": "de:Österreichisches Rotes Kreuz",
        "short_name": "ÖRK",
        "@geometry": "center"
      },
      "geometry": {
        "type": "Point",
        "coordinates": [
          15.6355426,
          47.2127124
        ]
      },
      "id": "way/179154051"
    },
    {
      "type": "Feature",
      "properties": {
        "@id": "way/186303375",
        "addr:city": "Feldbach",
        "addr:country": "AT",
        "addr:housenumber": "57",
        "addr:postcode": "8330",
        "addr:street": "Schillerstraße",
        "ambulance_station:emergency_doctor": "yes",
        "ambulance_station:patient_transport": "yes",
        "brand": "Österreichisches Rotes Kreuz",
        "brand:wikidata": "Q168276",
        "brand:wikipedia": "de:Österreichisches Rotes Kreuz",
        "building": "commercial",
        "emergency": "ambulance_station",
        "name": "Rotes Kreuz Bezirksstelle Feldbach",
        "operator": "Österreichisches Rotes Kreuz",
        "operator:wikidata": "Q168276",
        "operator:wikipedia": "de:Österreichisches Rotes Kreuz",
        "short_name": "ÖRK",
        "source": "GeoImage.at High-Res",
        "website": "https://www.roteskreuz.at/steiermark/landesverband-und-bezirksstellen/feldbach",
        "@geometry": "center"
      },
      "geometry": {
        "type": "Point",
        "coordinates": [
          15.878956,
          46.9525841
        ]
      },
      "id": "way/186303375"
    },
    {
      "type": "Feature",
      "properties": {
        "@id": "way/199997718",
        "addr:city": "Fürstenfeld",
        "addr:country": "AT",
        "addr:housenumber": "4",
        "addr:postcode": "8280",
        "addr:street": "Felberweg",
        "ambulance_station:emergency_doctor": "yes",
        "ambulance_station:patient_transport": "yes",
        "brand": "Österreichisches Rotes Kreuz",
        "brand:wikidata": "Q168276",
        "building": "yes",
        "emergency": "ambulance_station",
        "name": "Rotes Kreuz Bezirksstelle Fürstenfeld",
        "operator": "Österreichisches Rotes Kreuz",
        "short_name": "ÖRK",
        "source": "https://www.roteskreuz.at/steiermark/fuerstenfeld/home",
        "@geometry": "center"
      },
      "geometry": {
        "type": "Point",
        "coordinates": [
          16.0871158,
          47.0465571
        ]
      },
      "id": "way/199997718"
    },
    {
      "type": "Feature",
      "properties": {
        "@id": "way/234067968",
        "addr:city": "Bad Aussee",
        "addr:country": "AT",
        "addr:housenumber": "341",
        "addr:postcode": "8990",
        "addr:street": "Marktleite",
        "ambulance_station:emergency_doctor": "yes",
        "ambulance_station:patient_transport": "yes",
        "at_bev:addr_date": "2018-10-01",
        "brand": "Österreichisches Rotes Kreuz",
        "brand:wikidata": "Q168276",
        "building": "yes",
        "emergency": "ambulance_station",
        "name": "Rotes Kreuz Ortsstelle Ausseerland",
        "operator": "Österreichisches Rotes Kreuz, Landesverband Steiermark",
        "short_name": "ÖRK",
        "website": "https://www.roteskreuz.at/steiermark/liezen/die-ortsstellen",
        "@geometry": "center"
      },
      "geometry": {
        "type": "Point",
        "coordinates": [
          13.7736147,
          47.6108132
        ]
      },
      "id": "way/234067968"
    },
    {
      "type": "Feature",
      "properties": {
        "@id": "way/291683471",
        "addr:city": "Schladming",
        "addr:country": "AT",
        "addr:housenumber": "660",
        "addr:postcode": "8970",
        "addr:street": "Sportplatzgasse",
        "ambulance_station:emergency_doctor": "yes",
        "ambulance_station:patient_transport": "yes",
        "at_bev:addr_date": "2016-10-02",
        "brand": "Österreichisches Rotes Kreuz",
        "brand:short": "ÖRK",
        "brand:wikidata": "Q168276",
        "building": "yes",
        "emergency": "ambulance_station",
        "name": "Rotes Kreuz Ortsstelle Schladming",
        "operator": "Österreichisches Rotes Kreuz Landesverband Steiermark",
        "roof:shape": "half-hipped",
        "short_name": "ÖRK",
        "@geometry": "center"
      },
      "geometry": {
        "type": "Point",
        "coordinates": [
          13.6880463,
          47.3964016
        ]
      },
      "id": "way/291683471"
    },
    {
      "type": "Feature",
      "properties": {
        "@id": "way/316217754",
        "addr:city": "Murau",
        "addr:country": "AT",
        "addr:housenumber": "16",
        "addr:postcode": "8850",
        "addr:street": "Märzenkeller",
        "ambulance_station:emergency_doctor": "yes",
        "ambulance_station:patient_transport": "yes",
        "brand": "Österreichisches Rotes Kreuz",
        "brand:wikidata": "Q168276",
        "building": "yes",
        "construction_date": "2019-09-21;1960-01-01",
        "emergency": "ambulance_station",
        "name": "Rotes Kreuz Bezirksstelle Murau",
        "operator": "Österreichisches Rotes Kreuz",
        "short_name": "ÖRK",
        "website": "https://www.roteskreuz.at/steiermark/murau/home",
        "@geometry": "center"
      },
      "geometry": {
        "type": "Point",
        "coordinates": [
          14.162369,
          47.1135405
        ]
      },
      "id": "way/316217754"
    },
    {
      "type": "Feature",
      "properties": {
        "@id": "way/406476883",
        "addr:city": "Mürzzuschlag",
        "addr:country": "AT",
        "addr:housenumber": "34",
        "addr:postcode": "8680",
        "addr:street": "Grazer Straße",
        "ambulance_station:emergency_doctor": "yes",
        "ambulance_station:patient_transport": "yes",
        "at_bev:addr_date": "2016-10-02",
        "brand": "Österreichisches Rotes Kreuz",
        "brand:wikidata": "Q168276",
        "brand:wikipedia": "de:Österreichisches Rotes Kreuz",
        "building": "yes",
        "construction_date": "2022-08-05",
        "emergency": "ambulance_station",
        "name": "Rotes Kreuz Bezirksstelle Mürzzuschlag",
        "operator": "Österreichisches Rotes Kreuz",
        "operator:wikidata": "Q168276",
        "operator:wikipedia": "de:Österreichisches Rotes Kreuz",
        "short_name": "ÖRK",
        "website": "https://www.roteskreuz.at/steiermark/bruck-muerzzuschlag/ueber-die-bezirksstelle-muerzzuschlag",
        "@geometry": "center"
      },
      "geometry": {
        "type": "Point",
        "coordinates": [
          15.6684935,
          47.6032384
        ]
      },
      "id": "way/406476883"
    },
    {
      "type": "Feature",
      "properties": {
        "@id": "node/1243633403",
        "addr:city": "Bad Radkersburg",
        "addr:country": "AT",
        "addr:housenumber": "17",
        "addr:postcode": "8490",
        "addr:street": "Dr. Schwaiger-Straße",
        "ambulance_station:emergency_doctor": "yes",
        "ambulance_station:patient_transport": "yes",
        "brand": "Österreichisches Rotes Kreuz",
        "brand:wikidata": "Q168276",
        "emergency": "ambulance_station",
        "name": "Rotes Kreuz Bezirksstelle Bad Radkersburg",
        "operator": "Österreichisches Rotes Kreuz",
        "operator:wikidata": "Q168276",
        "operator:wikipedia": "de:Österreichisches Rotes Kreuz",
        "short_name": "ÖRK"
      },
      "geometry": {
        "type": "Point",
        "coordinates": [
          15.9942911,
          46.6903967
        ]
      },
      "id": "node/1243633403"
    },
    {
      "type": "Feature",
      "properties": {
        "@id": "node/2677444142",
        "addr:city": "Vorau",
        "addr:country": "AT",
        "addr:housenumber": "412",
        "addr:postcode": "8230",
        "addr:street": "Vorau",
        "ambulance_station:emergency_doctor": "yes",
        "ambulance_station:patient_transport": "yes",
        "brand": "Österreichisches Rotes Kreuz",
        "brand:wikidata": "Q168276",
        "emergency": "ambulance_station",
        "name": "Rotes Kreuz Ortstelle Vorau",
        "operator": "Österreichisches Rotes Kreuz",
        "short_name": "ÖRK"
      },
      "geometry": {
        "type": "Point",
        "coordinates": [
          15.8791099,
          47.4057825
        ]
      },
      "id": "node/2677444142"
    },
    {
      "type": "Feature",
      "properties": {
        "@id": "node/11020529069",
        "addr:city": "Mariazell",
        "addr:country": "AT",
        "addr:housenumber": "13",
        "addr:postcode": "8630",
        "addr:street": "Wienerneustädterstraße",
        "ambulance_station:emergency_doctor": "yes",
        "brand": "Österreichisches Rotes Kreuz",
        "brand:short": "ÖRK",
        "brand:wikidata": "Q168276",
        "emergency": "ambulance_station",
        "name": "Rotes Kreuz Notarztstützpunkt Mariazell",
        "operator": "Österreichisches Rotes Kreuz, Landesverband Steiermark",
        "short_name": "ÖRK"
      },
      "geometry": {
        "type": "Point",
        "coordinates": [
          15.3224992,
          47.7704728
        ]
      },
      "id": "node/11020529069"
    },
    {
      "type": "Feature",
      "properties": {
        "@id": "node/11020529070",
        "addr:city": "Graz",
        "addr:country": "AT",
        "addr:housenumber": "1",
        "addr:postcode": "8036",
        "addr:street": "Auenbruggerplatz",
        "ambulance_station:emergency_doctor": "yes",
        "brand": "Österreichisches Rotes Kreuz",
        "brand:wikidata": "Q168276",
        "emergency": "ambulance_station",
        "name": "Rotes Kreuz Notarztstützpunkt LKH Graz Ost",
        "operator": "Österreichisches Rotes Kreuz, Landesverband Steiermark",
        "short_name": "ÖRK"
      },
      "geometry": {
        "type": "Point",
        "coordinates": [
          15.4654858,
          47.0792955
        ]
      },
      "id": "node/11020529070"
    },
    {
      "type": "Feature",
      "properties": {
        "@id": "node/11020529071",
        "addr:city": "Graz",
        "addr:country": "AT",
        "addr:housenumber": "22",
        "addr:postcode": "8020",
        "addr:street": "Göstingerstraße",
        "ambulance_station:emergency_doctor": "yes",
        "brand": "Österreichisches Rotes Kreuz",
        "brand:wikidata": "Q168276",
        "emergency": "ambulance_station",
        "name": "Rotes Kreuz Notarztstützpunkt LKH Graz West UKH",
        "operator": "Österreichisches Rotes Kreuz, Landesverband Steiermark",
        "short_name": "ÖRK"
      },
      "geometry": {
        "type": "Point",
        "coordinates": [
          15.3996429,
          47.0775037
        ]
      },
      "id": "node/11020529071"
    }
  ]
}