{
  "type": "FeatureCollection",
  "generator": "overpass-turbo",
  "copyright": "The data included in this document is from www.openstreetmap.org. The data is made available under ODbL.",
  "timestamp": "2025-11-06T07:17:37Z",
  "features": [
    {
      "type": "Feature",
      "properties": {
        "@id": "way/30337747",
        "addr:city": "Oberpullendorf",
        "addr:country": "AT",
        "addr:housenumber": "1",
        "addr:postcode": "7350",
        "addr:street": "Roseggergasse",
        "ambulance_station:emergency_doctor": "yes",
        "ambulance_station:patient_transport": "yes",
        "at_bev:addr_date": "2017-10-01",
        "brand": "Österreichisches Rotes Kreuz",
        "brand:wikidata": "Q168276",
        "building": "yes",
        "emergency": "ambulance_station",
        "name": "Rotes Kreuz Dienststelle Oberpullendorf",
        "operator": "Österreichisches Rotes Kreuz, Landesverband Burgenland",
        "short_name": "ÖRK",
        "@geometry": "center"
      },
      "geometry": {
        "type": "Point",
        "coordinates": [
          16.5097334,
          47.5061667
        ]
      },
      "id": "way/30337747"
    },
    {
      "type": "Feature",
      "properties": {
        "@id": "way/169850172",
        "addr:city": "Güssing",
        "addr:housenumber": "24",
        "addr:postcode": "7540",
        "addr:street": "Grazer Straße",
        "ambulance_station:emergency_doctor": "yes",
        "ambulance_station:patient_transport": "yes",
        "brand": "Österreichisches Rotes Kreuz",
        "brand:short": "ÖRK",
        "brand:wikidata": "Q168276",
        "building": "house",
        "emergency": "ambulance_station",
        "name": "Rotes Kreuz Bezirksstelle Güssing",
        "operator": "Österreichisches Rotes Kreuz, Landesverband Burgenland",
        "operator:wikidata": "Q105580734",
        "short_name": "ÖRK",
        "@geometry": "center"
      },
      "geometry": {
        "type": "Point",
        "coordinates": [
          16.3211938,
          47.0501659
        ]
      },
      "id": "way/169850172"
    },
    {
      "type": "Feature",
      "properties": {
        "@id": "way/230120487",
        "addr:city": "Frauenkirchen",
        "addr:country": "AT",
        "addr:housenumber": "3",
        "addr:postcode": "7132",
        "addr:street": "Mühlteich",
        "ambulance_station:emergency_doctor": "yes",
        "ambulance_station:patient_transport": "yes",
        "at_bev:addr_date": "2018-10-01",
        "brand": "Österreichisches Rotes Kreuz",
        "brand:short": "ÖRK",
        "brand:wikidata": "Q168276",
        "building": "ambulance_station",
        "emergency": "ambulance_station",
        "name": "Österreichisches Rotes Kreuz - Rettungsstelle Frauenkirchen",
        "operator": "Österreichisches Rotes Kreuz, Landesverband Burgenland",
        "short_name": "ÖRK",
        "source": "geoimage.at",
        "website": "https://www.roteskreuz.at/burgenland/kontakte/bezirksstellen/bezirksstelle-neusiedl-am-see",
        "@geometry": "center"
      },
      "geometry": {
        "type": "Point",
        "coordinates": [
          16.9218854,
          47.8390277
        ]
      },
      "id": "way/230120487"
    },
    {
      "type": "Feature",
      "properties": {
        "@id": "node/11026572982",
        "addr:city": "Eisenstadt",
        "addr:country": "AT",
        "addr:housenumber": "26",
        "addr:postcode": "7000",
        "addr:street": "Esterhazystraße",
        "ambulance_station:emergency_doctor": "yes",
        "brand": "Österreichisches Rotes Kreuz",
        "brand:short": "ÖRK",
        "brand:wikidata": "Q168276",
        "emergency": "ambulance_station",
        "name": "Rotes Kreuz Notarztdienst Eisenstadt",
        "operator": "Österreichisches Rotes Kreuz, Landesverband Burgenland",
        "operator:wikidata": "Q105580734",
        "short_name": "ÖRK"
      },
      "geometry": {
        "type": "Point",
        "coordinates": [
          16.5136684,
          47.8463951
        ]
      },
      "id": "node/11026572982"
    },
    {
      "type": "Feature",
      "properties": {
        "@id": "node/11026606007",
        "addr:city": "Oberwart",
        "addr:country": "AT",
        "addr:housenumber": "80",
        "addr:postcode": "7400",
        "addr:street": "Dornburggasse",
        "ambulance_station:emergency_doctor": "yes",
        "brand": "Österreichisches Rotes Kreuz",
        "brand:short": "ÖRK",
        "brand:wikidata": "Q168276",
        "emergency": "ambulance_station",
        "name": "Rotes Kreuz Notarztdienst Oberwart",
        "operator": "Österreichisches Rotes Kreuz, Landesverband Burgenland",
        "operator:wikidata": "Q105580734",
        "short_name": "ÖRK"
      },
      "geometry": {
        "type": "Point",
        "coordinates": [
          16.2040007,
          47.2803467
        ]
      },
      "id": "node/11026606007"
    }
  ]
}