{"type":"FeatureCollection","features":[{"type":"Feature","geometry":{"type":"Point","coordinates":[13.4930671,46.7943781]},"properties":{"addr:city":"Spittal an der Drau","addr:housenumber":"22","addr:postcode":"9800","addr:street":"Koschatstraße","ambulance_station:emergency_doctor":"yes","ambulance_station:patient_transport":"yes","brand":"Österreichisches Rotes Kreuz","emergency":"ambulance_station","name":"Rotes Kreuz Bezirksstelle Spittal (Altbau);Rotes Kreuz Bezirksstelle Spittal","operator":"Österreichisches Rotes Kreuz;Österreichisches Rotes Kreuz, Landesverband Kärnten","short_name":"ÖRK","brand:short":"ÖRK"}},{"type":"Feature","geometry":{"type":"Point","coordinates":[13.3898248,46.6313643]},"properties":{"addr:city":"Hermagor","addr:housenumber":"88","addr:postcode":"9620","ambulance_station:emergency_doctor":"yes","ambulance_station:patient_transport":"yes","brand":"Österreichisches Rotes Kreuz","emergency":"ambulance_station","name":"Rotes Kreuz Bezirksstelle Hermagor","operator":"Österreichisches Rotes Kreuz, Landesverband Kärnten","short_name":"ÖRK","brand:short":"ÖRK"}},{"type":"Feature","geometry":{"type":"Point","coordinates":[14.3009676,46.636449]},"properties":{"addr:city":"Klagenfurt am Wörthersee","addr:housenumber":"9","addr:postcode":"9020","addr:street":"Grete-Bittner-Straße","ambulance_station:emergency_doctor":"yes","ambulance_station:patient_transport":"yes","brand":"Österreichisches Rotes Kreuz","brand:short":"ÖRK","emergency":"ambulance_station","name":"Rotes Kreuz Bezirksstelle Klagenfurt","operator":"Österreichisches Rotes Kreuz, Landesverband Kärnten","short_name":"ÖRK"}},{"type":"Feature","geometry":{"type":"Point","coordinates":[14.3706264,46.7796473]},"properties":{"addr:city":"St. Veit","addr:housenumber":"1","addr:postcode":"9300","addr:street":"Henry Dunant Straße","ambulance_station:emergency_doctor":"yes","ambulance_station:patient_transport":"yes","brand":"Österreichisches Rotes Kreuz","emergency":"ambulance_station","name":"Rotes Kreuz Bezirksstelle St. Veit an der Glan","operator":"Österreichisches Rotes Kreuz, Landesverband Kärnten","short_name":"ÖRK","brand:short":"ÖRK"}},{"type":"Feature","geometry":{"type":"Point","coordinates":[14.846538,46.8323682]},"properties":{"addr:city":"Wolfsberg","addr:housenumber":"3","addr:postcode":"9400","addr:street":"Krankenhausstraße","ambulance_station:emergency_doctor":"yes","ambulance_station:patient_transport":"yes","brand":"Österreichisches Rotes Kreuz","emergency":"ambulance_station","name":"Rotes Kreuz Bezirksstelle Wolfsberg","operator":"Österreichisches Rotes Kreuz, Landesverband Kärnten","short_name":"ÖRK","brand:short":"ÖRK"}},{"type":"Feature","geometry":{"type":"Point","coordinates":[14.6199927,46.6619094]},"properties":{"addr:city":"Völkermarkt","addr:housenumber":"3","addr:postcode":"9100","addr:street":"Bleistraße","ambulance_station:emergency_doctor":"yes","ambulance_station:patient_transport":"yes","brand":"Österreichisches Rotes Kreuz","brand:short":"ÖRK","emergency":"ambulance_station","name":"Rotes Kreuz Bezirksstelle Völkermarkt","operator":"Österreichisches Rotes Kreuz, Landesverband Kärnten","short_name":"ÖRK"}},{"type":"Feature","geometry":{"type":"Point","coordinates":[14.1023019,46.7173732]},"properties":{"addr:city":"Feldkirchen","addr:housenumber":"15","addr:postcode":"9560","addr:street":"Lastenstraße","ambulance_station:emergency_doctor":"yes","ambulance_station:patient_transport":"yes","brand":"Österreichisches Rotes Kreuz","emergency":"ambulance_station","name":"Rotes Kreuz Bezirksstelle Feldkirchen","operator":"Österreichisches Rotes Kreuz, Landesverband Kärnten","short_name":"ÖRK","brand:short":"ÖRK"}},{"type":"Feature","geometry":{"type":"Point","coordinates":[14.3991397,46.9626873]},"properties":{"addr:city":"Friesach","addr:housenumber":"60","addr:postcode":"9360","addr:street":"Neumarkter Straße","ambulance_station:emergency_doctor":"yes","ambulance_station:patient_transport":"yes","brand":"Österreichisches Rotes Kreuz","emergency":"ambulance_station","name":"Rotes Kreuz Ortsrettungsstelle Friesach","operator":"Österreichisches Rotes Kreuz, Landesverband Kärnten","short_name":"ÖRK","brand:short":"ÖRK"}},{"type":"Feature","geometry":{"type":"Point","coordinates":[13.8557789,46.6166571]},"properties":{"addr:city":"Villach","addr:housenumber":"10","addr:postcode":"9500","addr:street":"Dreschnigstraße","ambulance_station:emergency_doctor":"yes","ambulance_station:patient_transport":"yes","brand":"Österreichisches Rotes Kreuz","brand:short":"ÖRK","emergency":"ambulance_station","name":"Rotes Kreuz Bezirksstelle Villach","operator":"Österreichisches Rotes Kreuz, Landesverband Kärnten","short_name":"ÖRK"}}]}