{"type":"FeatureCollection","features":[{"type":"Feature","geometry":{"type":"Point","coordinates":[13.6371087,48.0031512]},"properties":{"addr:city":"Vöcklabruck","addr:housenumber":"1a","addr:postcode":"4840","addr:street":"Dr. Wilhelm Bock-Straße","alt_name":"1310","ambulance_station:emergency_doctor":"yes","ambulance_station:patient_transport":"yes","brand":"Österreichisches Rotes Kreuz","brand:short":"ÖRK","emergency":"ambulance_station","name":"Rotes Kreuz Bezirksstelle Vöcklabruck","operator":"Österreichisches Rotes Kreuz, Landesverband Oberösterreich","short_name":"ÖRK"}},{"type":"Feature","geometry":{"type":"Point","coordinates":[14.3054572,48.2289345]},"properties":{"addr:city":"Ansfelden","addr:housenumber":"9a","addr:postcode":"4052","addr:street":"Traunuferstraße","ambulance_station:emergency_doctor":"yes","brand":"Österreichisches Rotes Kreuz","brand:short":"ÖRK","emergency":"ambulance_station","name":"Rotes Kreuz Notarztdienst Linz-Land","operator":"Österreichisches Rotes Kreuz, Landesverband Oberösterreich","short_name":"ÖRK","alt_name":660}},{"type":"Feature","geometry":{"type":"Point","coordinates":[14.024318,48.3060443]},"properties":{"addr:city":"Eferding","addr:housenumber":"10","addr:postcode":"4070","addr:street":"Vor dem Linzertor","alt_name":"0110","ambulance_station:emergency_doctor":"yes","ambulance_station:patient_transport":"yes","brand":"Österreichisches Rotes Kreuz","brand:short":"ÖRK","emergency":"ambulance_station","name":"Rotes Kreuz Bezirksstelle Ortsstelle Eferding","operator":"Österreichisches Rotes Kreuz, Landesverband Oberösterreich","short_name":"ÖRK"}},{"type":"Feature","geometry":{"type":"Point","coordinates":[14.123279,47.9080188]},"properties":{"addr:city":"Kirchdorf an der Krems","addr:housenumber":"11","addr:postcode":"4560","addr:street":"Krankenhausstraße","alt_name":"0510","ambulance_station:emergency_doctor":"yes","ambulance_station:patient_transport":"yes","brand":"Österreichisches Rotes Kreuz","brand:short":"ÖRK","emergency":"ambulance_station","name":"Rotes Kreuz Bezirksstelle Kirchdorf an der Krems","operator":"Österreichisches Rotes Kreuz, Landesverband Oberösterreich","short_name":"ÖRK"}},{"type":"Feature","geometry":{"type":"Point","coordinates":[14.2694102,48.4658749]},"properties":{"addr:city":"Zwettl an der Rodl","addr:housenumber":"2","addr:postcode":"4180","addr:street":"Oberneukirchner Straße","alt_name":"1260","ambulance_station:emergency_doctor":"yes","brand":"Österreichisches Rotes Kreuz","brand:short":"ÖRK","emergency":"ambulance_station","name":"Rotes Kreuz Notarztdienst Zwettl","operator":"Österreichisches Rotes Kreuz, Landesverband Oberösterreich","short_name":"ÖRK"}},{"type":"Feature","geometry":{"type":"Point","coordinates":[14.6359585,48.245149]},"properties":{"addr:city":"Perg","addr:housenumber":"15","addr:postcode":"4320","addr:street":"Dirnbergerstraße","alt_name":"0710","ambulance_station:emergency_doctor":"yes","ambulance_station:patient_transport":"yes","brand":"Österreichisches Rotes Kreuz","brand:short":"ÖRK","emergency":"ambulance_station","name":"Rotes Kreuz Ortsstelle Perg","operator":"Österreichisches Rotes Kreuz, Landesverband Oberösterreich","short_name":"ÖRK"}},{"type":"Feature","geometry":{"type":"Point","coordinates":[13.4949414,48.2099456]},"properties":{"addr:city":"Ried im Innkreis","addr:housenumber":"3","addr:postcode":"4910","addr:street":"Hohenzeller Straße","alt_name":"0810","ambulance_station:emergency_doctor":"yes","ambulance_station:patient_transport":"yes","brand":"Österreichisches Rotes Kreuz","brand:short":"ÖRK","emergency":"ambulance_station","name":"Rotes Kreuz Bezirksstelle Ried im Innkreis","operator":"Österreichisches Rotes Kreuz, Landesverband Oberösterreich","short_name":"ÖRK"}},{"type":"Feature","geometry":{"type":"Point","coordinates":[13.033678,48.2548368]},"properties":{"addr:city":"Braunau am Inn","addr:housenumber":"8","addr:postcode":"5280","addr:street":"Jubiläumstraße","alt_name":"0010","ambulance_station:emergency_doctor":"yes","ambulance_station:patient_transport":"yes","brand":"Österreichisches Rotes Kreuz","brand:short":"ÖRK","emergency":"ambulance_station","name":"Rotes Kreuz Bezirksstelle Braunau","operator":"Österreichisches Rotes Kreuz, Landesverband Oberösterreich","short_name":"ÖRK"}},{"type":"Feature","geometry":{"type":"Point","coordinates":[13.7796396,47.9162555]},"properties":{"addr:city":"Gmunden","addr:housenumber":"49","addr:postcode":"4810","addr:street":"Miller von Aichholzstraße","alt_name":"0390","ambulance_station:emergency_doctor":"yes","brand":"Österreichisches Rotes Kreuz","brand:short":"ÖRK","emergency":"ambulance_station","name":"Rotes Kreuz Notarztdienst Gmunden","operator":"Österreichisches Rotes Kreuz, Landesverband Oberösterreich","short_name":"ÖRK"}},{"type":"Feature","geometry":{"type":"Point","coordinates":[14.4976541,48.4926727]},"properties":{"addr:city":"Freistadt","addr:postcode":"4240","addr:street":"Krankenhausstraße","alt_name":"0210","ambulance_station:emergency_doctor":"yes","brand":"Österreichisches Rotes Kreuz","brand:short":"ÖRK","emergency":"ambulance_station","name":"Rotes Kreuz Notarztdienst Freistadt","operator":"Österreichisches Rotes Kreuz, Landesverband Oberösterreich","short_name":"ÖRK"}},{"type":"Feature","geometry":{"type":"Point","coordinates":[13.821522,48.2382768]},"properties":{"addr:city":"Grieskirchen","addr:housenumber":"27","addr:postcode":"4710","addr:street":"Wagnleithnerstraße","alt_name":"0440","ambulance_station:emergency_doctor":"yes","brand":"Österreichisches Rotes Kreuz","brand:short":"ÖRK","emergency":"ambulance_station","name":"Rotes Kreuz Notarztdienst Grieskirchen","operator":"Österreichisches Rotes Kreuz, Landesverband Oberösterreich","short_name":"ÖRK"}},{"type":"Feature","geometry":{"type":"Point","coordinates":[13.6244685,47.7062613]},"properties":{"addr:city":"Bad Ischl","addr:housenumber":"8-10","addr:postcode":"4820","addr:street":"Doktor-Mayer-Straße","alt_name":"0380","ambulance_station:emergency_doctor":"yes","brand":"Österreichisches Rotes Kreuz","brand:short":"ÖRK","emergency":"ambulance_station","name":"Rotes Kreuz Notartzdienst Bad Ischl","operator":"Österreichisches Rotes Kreuz, Landesverband Oberösterreich","short_name":"ÖRK"}},{"type":"Feature","geometry":{"type":"Point","coordinates":[13.9819846,48.5714087]},"properties":{"addr:city":"Rohrbach-Berg","addr:postcode":"4150","addr:street":"Krankenhausstraße","alt_name":"0901","ambulance_station:emergency_doctor":"yes","brand":"Österreichisches Rotes Kreuz","brand:short":"ÖRK","emergency":"ambulance_station","name":"Rotes Kreuz Notarztdienst Rohrbach","operator":"Österreichisches Rotes Kreuz, Landesverband Oberösterreich","short_name":"ÖRK"}},{"type":"Feature","geometry":{"type":"Point","coordinates":[13.4359382,48.4553749]},"properties":{"addr:city":"Schärding","addr:housenumber":"2","addr:postcode":"4780","addr:street":"Alfred-Kubin-Straße","alt_name":"1060","ambulance_station:emergency_doctor":"yes","brand":"Österreichisches Rotes Kreuz","brand:short":"ÖRK","emergency":"ambulance_station","name":"Rotes Kreuz Notarztdienst Schärding","operator":"Österreichisches Rotes Kreuz, Landesverband Oberösterreich","short_name":"ÖRK"}},{"type":"Feature","geometry":{"type":"Point","coordinates":[14.0242411,48.174563]},"properties":{"addr:city":"Wels","addr:housenumber":"42","addr:postcode":"4600","addr:street":"Grieskirchner Straße","alt_name":"1650","ambulance_station:emergency_doctor":"yes","brand":"Österreichisches Rotes Kreuz","brand:short":"ÖRK","emergency":"ambulance_station","name":"Rotes Kreuz Notarztdienst Wels","operator":"Österreichisches Rotes Kreuz, Landesverband Oberösterreich","short_name":"ÖRK"}},{"type":"Feature","geometry":{"type":"Point","coordinates":[14.3916578,48.0455018]},"properties":{"addr:city":"Steyr","addr:housenumber":"170","addr:postcode":"4400","addr:street":"Sierninger Straße","alt_name":"1570","ambulance_station:emergency_doctor":"yes","brand":"Österreichisches Rotes Kreuz","brand:short":"ÖRK","emergency":"ambulance_station","name":"Rotes Kreuz Notarztdienst Steyr","operator":"Österreichisches Rotes Kreuz, Landesverband Oberösterreich","short_name":"ÖRK"}},{"type":"Feature","geometry":{"type":"Point","coordinates":[14.3055189,48.3031965]},"properties":{"addr:city":"Linz","addr:postcode":"4020","addr:street":"Krankenhausstraße","alt_name":"1950","ambulance_station:emergency_doctor":"yes","brand":"Österreichisches Rotes Kreuz","brand:short":"ÖRK","emergency":"ambulance_station","name":"Rotes Kreuz Notarztdienst Linz","operator":"Österreichisches Rotes Kreuz, Landesverband Oberösterreich","short_name":"ÖRK"}},{"type":"Feature","geometry":{"type":"Point","coordinates":[14.2888401,48.2997458]},"properties":{"addr:city":"Linz","addr:housenumber":"2","addr:postcode":"4020","addr:street":"Seilerstätte","ambulance_station:emergency_doctor":"yes","brand":"Arbeiter-Samariter-Bund Österreichs","emergency":"ambulance_station","name":"Samariterbund Notarztdienst Linz","operator":"Arbeiter-Samariterbund-Österreichs, Gruppe Linz","short_name":"ASB","brand:short":"ASB","alt_name":"NEF 3"}}]}