{"type":"FeatureCollection","features":[{"type":"Feature","geometry":{"type":"Point","coordinates":[13.4930671,46.7943781]},"properties":{"addr:city":"Spittal an der Drau","addr:housenumber":"22","addr:postcode":"9800","addr:street":"Koschatstraße","ambulance_station:emergency_doctor":"yes","ambulance_station:patient_transport":"yes","brand":"Österreichisches Rotes Kreuz","emergency":"ambulance_station","name":"Rotes Kreuz Bezirksstelle Spittal (Altbau);Rotes Kreuz Bezirksstelle Spittal","operator":"Österreichisches Rotes Kreuz;Österreichisches Rotes Kreuz, Landesverband Kärnten","short_name":"ÖRK","brand:short":"ÖRK"}},{"type":"Feature","geometry":{"type":"Point","coordinates":[13.6996345,46.8000511]},"properties":{"addr:city":"Radenthein","addr:housenumber":"62","addr:postcode":"9545","addr:street":"Hauptstraße","ambulance_station:patient_transport":"yes","brand":"Österreichisches Rotes Kreuz","emergency":"ambulance_station","name":"Rotes Kreuz Ortsrettungsstelle Radenthein","operator":"Rotes Kreuz Radenthein, Landesverband Kärnten","short_name":"ÖRK","brand:short":"ÖRK"}},{"type":"Feature","geometry":{"type":"Point","coordinates":[13.3898248,46.6313643]},"properties":{"addr:city":"Hermagor","addr:housenumber":"88","addr:postcode":"9620","ambulance_station:emergency_doctor":"yes","ambulance_station:patient_transport":"yes","brand":"Österreichisches Rotes Kreuz","emergency":"ambulance_station","name":"Rotes Kreuz Bezirksstelle Hermagor","operator":"Österreichisches Rotes Kreuz, Landesverband Kärnten","short_name":"ÖRK","brand:short":"ÖRK"}},{"type":"Feature","geometry":{"type":"Point","coordinates":[14.3009676,46.636449]},"properties":{"addr:city":"Klagenfurt am Wörthersee","addr:housenumber":"9","addr:postcode":"9020","addr:street":"Grete-Bittner-Straße","ambulance_station:emergency_doctor":"yes","ambulance_station:patient_transport":"yes","brand":"Österreichisches Rotes Kreuz","brand:short":"ÖRK","emergency":"ambulance_station","name":"Rotes Kreuz Bezirksstelle Klagenfurt","operator":"Österreichisches Rotes Kreuz, Landesverband Kärnten","short_name":"ÖRK"}},{"type":"Feature","geometry":{"type":"Point","coordinates":[13.8563549,46.8183378]},"properties":{"addr:city":"Reichenau","addr:housenumber":"39","addr:postcode":"9564","addr:street":"Wiedweg","ambulance_station:patient_transport":"yes","emergency":"ambulance_station","name":"Johanniter-Unfall-Hilfe Kärnten Patergassen","operator":"Österreichisches Rotes Kreuz, Landesverband Kärnten","short_name":"JUH","brand":"Johanniter-Unfall-Hilfe Kärnten Patergassen","brand:short":"JUH"}},{"type":"Feature","geometry":{"type":"Point","coordinates":[14.2959778,46.5242791]},"properties":{"addr:city":"Ferlach","addr:housenumber":"5","addr:postcode":"9170","addr:street":"Waagstraße","ambulance_station:patient_transport":"yes","brand":"Österreichisches Rotes Kreuz","emergency":"ambulance_station","name":"Rotes Kreuz Ortsrettungsstelle Ferlach","operator":"Österreichisches Rotes Kreuz, Landesverband Kärnten","short_name":"ÖRK","brand:short":"ÖRK"}},{"type":"Feature","geometry":{"type":"Point","coordinates":[14.3706264,46.7796473]},"properties":{"addr:city":"St. Veit","addr:housenumber":"1","addr:postcode":"9300","addr:street":"Henry Dunant Straße","ambulance_station:emergency_doctor":"yes","ambulance_station:patient_transport":"yes","brand":"Österreichisches Rotes Kreuz","emergency":"ambulance_station","name":"Rotes Kreuz Bezirksstelle St. Veit an der Glan","operator":"Österreichisches Rotes Kreuz, Landesverband Kärnten","short_name":"ÖRK","brand:short":"ÖRK"}},{"type":"Feature","geometry":{"type":"Point","coordinates":[14.846538,46.8323682]},"properties":{"addr:city":"Wolfsberg","addr:housenumber":"3","addr:postcode":"9400","addr:street":"Krankenhausstraße","ambulance_station:emergency_doctor":"yes","ambulance_station:patient_transport":"yes","brand":"Österreichisches Rotes Kreuz","emergency":"ambulance_station","name":"Rotes Kreuz Bezirksstelle Wolfsberg","operator":"Österreichisches Rotes Kreuz, Landesverband Kärnten","short_name":"ÖRK","brand:short":"ÖRK"}},{"type":"Feature","geometry":{"type":"Point","coordinates":[14.8678711,46.7020044]},"properties":{"addr:city":"St. Paul im Lavanttal","addr:housenumber":"5","addr:postcode":"9470","addr:street":"Schießstattstraße","ambulance_station:patient_transport":"yes","brand":"Österreichisches Rotes Kreuz","emergency":"ambulance_station","name":"Rotes Kreuz Ortsrettungsstelle St. Paul im Lavantal","operator":"Österreichisches Rotes Kreuz, Landesverband Kärnten","short_name":"ÖRK","brand:short":"ÖRK"}},{"type":"Feature","geometry":{"type":"Point","coordinates":[14.6199927,46.6619094]},"properties":{"addr:city":"Völkermarkt","addr:housenumber":"3","addr:postcode":"9100","addr:street":"Bleistraße","ambulance_station:emergency_doctor":"yes","ambulance_station:patient_transport":"yes","brand":"Österreichisches Rotes Kreuz","brand:short":"ÖRK","emergency":"ambulance_station","name":"Rotes Kreuz Bezirksstelle Völkermarkt","operator":"Österreichisches Rotes Kreuz, Landesverband Kärnten","short_name":"ÖRK"}},{"type":"Feature","geometry":{"type":"Point","coordinates":[13.0021935,46.67148]},"properties":{"addr:city":"Kötschach-Mauthen","addr:housenumber":"499","addr:postcode":"9640","addr:street":"Kötschach","ambulance_station:patient_transport":"yes","brand":"Österreichisches Rotes Kreuz","brand:short":"ÖRK","emergency":"ambulance_station","name":"Rotes Kreuz Ortsdienststelle Kötschach Mauthen","operator":"Österreichisches Rotes Kreuz, Landesverband Kärnten","short_name":"ÖRK"}},{"type":"Feature","geometry":{"type":"Point","coordinates":[13.2044445,46.929625]},"properties":{"addr:city":"Obervellach","addr:housenumber":"229","addr:postcode":"9821","addr:street":"Obervellach","ambulance_station:patient_transport":"yes","brand":"Österreichisches Rotes Kreuz","emergency":"ambulance_station","name":"Rotes Kreuz Ortsrettungsstelle Obervellach","operator":"Österreichisches Rotes Kreuz, Landesverband Kärnten","short_name":"ÖRK","brand:short":"ÖRK"}},{"type":"Feature","geometry":{"type":"Point","coordinates":[14.1023019,46.7173732]},"properties":{"addr:city":"Feldkirchen","addr:housenumber":"15","addr:postcode":"9560","addr:street":"Lastenstraße","ambulance_station:emergency_doctor":"yes","ambulance_station:patient_transport":"yes","brand":"Österreichisches Rotes Kreuz","emergency":"ambulance_station","name":"Rotes Kreuz Bezirksstelle Feldkirchen","operator":"Österreichisches Rotes Kreuz, Landesverband Kärnten","short_name":"ÖRK","brand:short":"ÖRK"}},{"type":"Feature","geometry":{"type":"Point","coordinates":[13.1838186,46.7475899]},"properties":{"addr:city":"Greifenburg","addr:housenumber":"145","addr:postcode":"9761","addr:street":"Bahnhofstraße","ambulance_station:patient_transport":"yes","brand":"Österreichisches Rotes Kreuz","emergency":"ambulance_station","name":"Rotes Kreuz Ortsrettungsstelle Greifenburg","operator":"Rotes Kreuz, Landesverband Kärnten","short_name":"ÖRK","brand:short":"ÖRK"}},{"type":"Feature","geometry":{"type":"Point","coordinates":[13.8661172,46.6199974]},"properties":{"addr:city":"Villach","addr:housenumber":"40","addr:postcode":"9500","addr:street":"Seebacher Allee","ambulance_station:patient_transport":"yes","brand":"Arbeiter-Samariter-Bund Österreichs","emergency":"ambulance_station","name":"Samariterbund Villach","operator":"Arbeiter-Samariter-Bund Österreichs","short_name":"ASB","brand:short":"ASB"}},{"type":"Feature","geometry":{"type":"Point","coordinates":[14.0651652,46.8218662]},"properties":{"addr:city":"Sirnitz","addr:housenumber":"1","addr:postcode":"9571","addr:street":"Schlossweg","ambulance_station:patient_transport":"yes","brand":"Österreichisches Rotes Kreuz","emergency":"ambulance_station","name":"Rotes Kreuz Ortsdienststelle Sirnitz","operator":"Österreichisches Rotes Kreuz, Landesverband Kärnten","short_name":"ÖRK","brand:short":"ÖRK"}},{"type":"Feature","geometry":{"type":"Point","coordinates":[14.7956014,46.5920106]},"properties":{"addr:city":"Bleiburg","addr:housenumber":"2","addr:postcode":"9150","addr:street":"Völkermarkter Straße","ambulance_station:patient_transport":"yes","brand":"Österreichisches Rotes Kreuz","brand:short":"ÖRK","emergency":"ambulance_station","name":"Rotes Kreuz Ortsrettungsstelle Bleiburg","operator":"Österreichisches Rotes Kreuz, Landesverband Kärnten","short_name":"ÖRK"}},{"type":"Feature","geometry":{"type":"Point","coordinates":[14.2908603,46.874099]},"properties":{"addr:city":"Gurk","addr:housenumber":"4","addr:postcode":"9342","addr:street":"Prof.-Löw-Straße","ambulance_station:patient_transport":"yes","brand":"Österreichisches Rotes Kreuz","emergency":"ambulance_station","name":"Rotes Kreuz Ortsrettungsstelle Gurktal","operator":"Österreichisches Rotes Kreuz, Landesverband Kärnten","short_name":"ÖRK","brand:short":"ÖRK"}},{"type":"Feature","geometry":{"type":"Point","coordinates":[14.3991397,46.9626873]},"properties":{"addr:city":"Friesach","addr:housenumber":"60","addr:postcode":"9360","addr:street":"Neumarkter Straße","ambulance_station:emergency_doctor":"yes","ambulance_station:patient_transport":"yes","brand":"Österreichisches Rotes Kreuz","emergency":"ambulance_station","name":"Rotes Kreuz Ortsrettungsstelle Friesach","operator":"Österreichisches Rotes Kreuz, Landesverband Kärnten","short_name":"ÖRK","brand:short":"ÖRK"}},{"type":"Feature","geometry":{"type":"Point","coordinates":[14.5376761,46.8351734]},"properties":{"addr:city":"Klein St. Paul","addr:housenumber":"2","addr:postcode":"9373","addr:street":"Gewerbestraße","ambulance_station:patient_transport":"yes","brand":"Österreichisches Rotes Kreuz","emergency":"ambulance_station","name":"Rotes Kreuz Ortsrettungsstelle Klein St. Paul/ Görtschnitztal","operator":"Österreichisches Rotes Kreuz, Landesverband Kärnten","short_name":"ÖRK","brand:short":"ÖRK"}},{"type":"Feature","geometry":{"type":"Point","coordinates":[13.8557789,46.6166571]},"properties":{"addr:city":"Villach","addr:housenumber":"10","addr:postcode":"9500","addr:street":"Dreschnigstraße","ambulance_station:emergency_doctor":"yes","ambulance_station:patient_transport":"yes","brand":"Österreichisches Rotes Kreuz","brand:short":"ÖRK","emergency":"ambulance_station","name":"Rotes Kreuz Bezirksstelle Villach","operator":"Österreichisches Rotes Kreuz, Landesverband Kärnten","short_name":"ÖRK"}},{"type":"Feature","geometry":{"type":"Point","coordinates":[13.5320062,46.9116006]},"properties":{"addr:city":"Gmünd in Kärnten","addr:housenumber":"33","addr:postcode":"9853","ambulance_station:patient_transport":"yes","brand":"Österreichisches Rotes Kreuz","emergency":"ambulance_station","name":"Rotes Kreuz Ortsrettungsstelle Gmünd","operator":"Österreichisches Rotes Kreuz","short_name":"ÖRK","brand:short":"ÖRK"}},{"type":"Feature","geometry":{"type":"Point","coordinates":[14.0313265,46.6146637]},"properties":{"addr:city":"Velden am Wörther See","addr:housenumber":"2","addr:postcode":"9220","addr:street":"Franz-Moro-Weg","ambulance_station:patient_transport":"yes","brand":"Österreichisches Rotes Kreuz","emergency":"ambulance_station","name":"Rotes Kreuz Ortsrettungsstelle Velden","operator":"Rotes Kreuz, Landesverband Kärnten","short_name":"ÖRK","brand:short":"ÖRK"}},{"type":"Feature","geometry":{"type":"Point","coordinates":[12.8784426,46.8689105]},"properties":{"ambulance_station:patient_transport":"yes","brand":"Österreichisches Rotes Kreuz","emergency":"ambulance_station","name":"Rotes Kreuz Ortsrettungsstelle Winklern","operator":"Österreichisches Rotes Kreuz, Landesverband Kärnten","short_name":"ÖRK","brand:short":"ÖRK"}},{"type":"Feature","geometry":{"type":"Point","coordinates":[13.6644423,46.699824]},"properties":{"addr:city":"Feistritz/Drau","addr:housenumber":"208","addr:postcode":"9710","addr:street":"Kreuzner Straße","ambulance_station:patient_transport":"yes","brand":"Österreichisches Rotes Kreuz","emergency":"ambulance_station","name":"Rotes Kreuz Ortsrettungsstelle Feistritz","operator":"Österreichisches Rotes Kreuz, Landesverband Kärnten","short_name":"ÖRK","brand:short":"ÖRK"}}]}