{"type":"FeatureCollection","features":[{"type":"Feature","geometry":{"type":"Point","coordinates":[15.0482802,48.9476796]},"properties":{"addr:city":"Litschau","addr:housenumber":"8","addr:postcode":"3874","addr:street":"Schulstraße","ambulance_station:patient_transport":"yes","brand":"Österreichisches Rotes Kreuz","emergency":"ambulance_station","name":"Rotes Kreuz Bezirksstelle Litschau","operator":"Österreichisches Rotes Kreuz, Landesverband Niederösterreich","short_name":"ÖRK","brand:short":"ÖRK"}},{"type":"Feature","geometry":{"type":"Point","coordinates":[16.4696512,48.2913698]},"properties":{"addr:city":"Gerasdorf bei Wien","addr:housenumber":"1","addr:postcode":"2201","addr:street":"Lorenzgasse","ambulance_station:patient_transport":"yes","brand":"Österreichisches Rotes Kreuz","emergency":"ambulance_station","name":"Rotes Kreuz Dienststelle Gerasdorf","operator":"Österreichisches Rotes Kreuz, Landesverband Niederösterreich","short_name":"ÖRK","brand:short":"ÖRK"}},{"type":"Feature","geometry":{"type":"Point","coordinates":[16.336203,48.3388855]},"properties":{"addr:city":"Korneuburg","addr:housenumber":"7","addr:postcode":"2100","addr:street":"Jahnstraße","ambulance_station:emergency_doctor":"yes","ambulance_station:patient_transport":"yes","brand":"Österreichisches Rotes Kreuz","emergency":"ambulance_station","name":"Rotes Kreuz Bezirksstelle Ortsstelle Korneuburg","operator":"Österreichisches Rotes Kreuz, Landesverband Niederösterreich","short_name":"ÖRK","brand:short":"ÖRK"}},{"type":"Feature","geometry":{"type":"Point","coordinates":[16.182748,48.2066977]},"properties":{"addr:city":"Purkersdorf","addr:housenumber":"1","addr:postcode":"3002","addr:street":"Tullnerbachstraße","alt_name":"ASB Purkersdorf","ambulance_station:patient_transport":"yes","brand":"Arbeiter-Samariter-Bund Österreichs","emergency":"ambulance_station","name":"Samariterbund Purkersdorf","operator":"Arbeiter-Samariter-Bund Österreichs","short_name":"ASB","brand:short":"ASB"}},{"type":"Feature","geometry":{"type":"Point","coordinates":[16.1695731,48.2011285]},"properties":{"addr:city":"Purkersdorf","addr:housenumber":"65","addr:postcode":"3002","addr:street":"Kaiser Josef-Straße","ambulance_station:emergency_doctor":"yes","ambulance_station:patient_transport":"yes","brand":"Österreichisches Rotes Kreuz","emergency":"ambulance_station","name":"Rotes Kreuz Bezirksstelle Purkersdorf-Gablitz","operator":"Rotes Kreuz Purkersdorf","short_name":"ÖRK","brand:short":"ÖRK"}},{"type":"Feature","geometry":{"type":"Point","coordinates":[16.9600128,48.1436665]},"properties":{"addr:city":"Hainburg an der Donau","addr:housenumber":"14","addr:postcode":"2410","addr:street":"Rot Kreuz Straße","ambulance_station:emergency_doctor":"yes","ambulance_station:patient_transport":"yes","brand":"Österreichisches Rotes Kreuz","brand:short":"ÖRK","emergency":"ambulance_station","name":"Rotes Kreuz Bezirksstelle Hainburg","operator":"Österreichisches Rotes Kreuz, Landesverband Niederösterreich","short_name":"ÖRK"}},{"type":"Feature","geometry":{"type":"Point","coordinates":[16.324824,48.3081246]},"properties":{"addr:city":"Klosterneuburg","addr:housenumber":"11-13","addr:postcode":"3400","addr:street":"Kreutzergasse","ambulance_station:emergency_doctor":"yes","ambulance_station:patient_transport":"yes","brand":"Österreichisches Rotes Kreuz","emergency":"ambulance_station","name":"Rotes Kreuz Bezirksstelle Klosterneuburg","operator":"Österreichisches Rotes Kreuz, Landesverband Niederösterreich","short_name":"ÖRK","brand:short":"ÖRK"}},{"type":"Feature","geometry":{"type":"Point","coordinates":[16.269187,48.1182593]},"properties":{"addr:city":"Pertoldsdorf","addr:housenumber":"29","addr:postcode":"2380","addr:street":"Franz Josef Straße","ambulance_station:patient_transport":"yes","brand":"Österreichisches Rotes Kreuz","emergency":"ambulance_station","name":"Rotes Kreuz Ortsstelle Perchtoldsdorf","operator":"Österreichisches Rotes Kreuz, Landesverband Niederösterreich","short_name":"ÖRK","brand:short":"ÖRK"}},{"type":"Feature","geometry":{"type":"Point","coordinates":[15.9002267,48.190459]},"properties":{"addr:city":"Neulengbach","addr:housenumber":"1","addr:postcode":"3040","addr:street":"Rettungsgasse","ambulance_station:emergency_doctor":"yes","ambulance_station:patient_transport":"yes","brand":"Österreichisches Rotes Kreuz","emergency":"ambulance_station","name":"Rotes Kreuz Bezirksstelle Neulengbach","operator":"Österreichisches Rotes Kreuz, Landesverband Niederösterreich","short_name":"ÖRK","brand:short":"ÖRK"}},{"type":"Feature","geometry":{"type":"Point","coordinates":[15.163645,48.6003879]},"properties":{"addr:city":"Zwettl-Niederösterreich","addr:housenumber":"45","addr:postcode":"3910","addr:street":"Propstei","ambulance_station:emergency_doctor":"yes","ambulance_station:patient_transport":"yes","brand":"Österreichisches Rotes Kreuz","emergency":"ambulance_station","name":"Rotes Kreuz Bezirksstelle Zwettl","operator":"Österreichisches Rotes Kreuz, Landesverband Niederösterreich","short_name":"ÖRK","brand:short":"ÖRK"}},{"type":"Feature","geometry":{"type":"Point","coordinates":[16.4794915,48.4806209]},"properties":{"addr:city":"Kreuzstetten","addr:housenumber":"3","addr:postcode":"2124","addr:street":"Kirchenplatz","alt_name":"Mehrzweckgebäude Kreuzstetten","ambulance_station:patient_transport":"yes","brand":"Österreichisches Rotes Kreuz","emergency":"ambulance_station","name":"Rotes Kreuz Ortsstelle Kreuzstetten","operator":"Österreichisches Rotes Kreuz, Landesverband Niederösterreich","short_name":"ÖRK","brand:short":"ÖRK"}},{"type":"Feature","geometry":{"type":"Point","coordinates":[15.9565784,47.8980351]},"properties":{"addr:city":"Pernitz","addr:housenumber":"5","addr:postcode":"2763","addr:street":"Peter Rosegger-Straße","ambulance_station:patient_transport":"yes","brand":"Österreichisches Rotes Kreuz","emergency":"ambulance_station","name":"Rotes Kreuz Bezirksstelle Pernitz","operator":"Österreichisches Rotes Kreuz, Landesverband Niederösterreich","short_name":"ÖRK","brand:short":"ÖRK"}},{"type":"Feature","geometry":{"type":"Point","coordinates":[16.7821325,48.0299873]},"properties":{"addr:city":"Bruck an der Leitha","addr:housenumber":"18","addr:postcode":"2460","addr:street":"Höfleiner Straße","ambulance_station:patient_transport":"yes","brand":"Österreichisches Rotes Kreuz","brand:short":"ÖRK","emergency":"ambulance_station","name":"Rotes Kreuz Bezirksstelle Bruck an der Leitha","operator":"Österreichisches Rotes Kreuz, Landesverband Niederösterreich","short_name":"ÖRK"}},{"type":"Feature","geometry":{"type":"Point","coordinates":[16.2048355,48.3858133]},"properties":{"addr:city":"Stockerau","addr:housenumber":"20","addr:postcode":"2000","addr:street":"Landstraße","ambulance_station:patient_transport":"yes","brand":"Österreichisches Rotes Kreuz","emergency":"ambulance_station","name":"Rotes Kreuz Ortsstelle Stockerau","operator":"Österreichisches Rotes Kreuz, Landesverband Niederösterreich","short_name":"ÖRK","brand:short":"ÖRK"}},{"type":"Feature","geometry":{"type":"Point","coordinates":[16.2863227,48.1112018]},"properties":{"addr:city":"Brunn am Gebirge","addr:housenumber":"71","addr:postcode":"2345","addr:street":"Alexander-Groß-Gasse","ambulance_station:patient_transport":"yes","brand":"Österreichisches Rotes Kreuz","emergency":"ambulance_station","name":"Rotes Kreuz Bezirksstelle Brunn am Gebirge","operator":"Österreichisches Rotes Kreuz, Landesverband Niederösterreich","short_name":"ÖRK","brand:short":"ÖRK"}},{"type":"Feature","geometry":{"type":"Point","coordinates":[16.2538943,48.0014671]},"properties":{"addr:city":"Baden","addr:housenumber":"6","addr:postcode":"2500","addr:street":"Rotes Kreuz-Gasse","ambulance_station:emergency_doctor":"yes","ambulance_station:patient_transport":"yes","brand":"Österreichisches Rotes Kreuz","brand:short":"ÖRK","emergency":"ambulance_station","name":"Rotes Kreuz Bezirksstelle Baden","operator":"Österreichisches Rotes Kreuz, Landesverband Niederösterreich","short_name":"ÖRK"}},{"type":"Feature","geometry":{"type":"Point","coordinates":[16.2984329,48.0206105]},"properties":{"addr:city":"Traiskirchen","addr:housenumber":"4","addr:postcode":"2514","addr:street":"Karl Adlitzer-Straße","ambulance_station:patient_transport":"yes","brand":"Arbeiter-Samariter-Bund Österreichs","emergency":"ambulance_station","name":"Samariterbund Traiskirchen-Trumau","operator":"Arbeiter-Samariter-Bund Österreichs","short_name":"ASB","brand:short":"ASB"}},{"type":"Feature","geometry":{"type":"Point","coordinates":[15.6350584,48.2121935]},"properties":{"addr:city":"St. Pölten","addr:housenumber":"33","addr:postcode":"3100","addr:street":"Herzogenburger Straße","ambulance_station:patient_transport":"yes","brand":"Arbeiter-Samariter-Bund Österreichs","emergency":"ambulance_station","name":"Samariterbund St. Pölten","operator":"Arbeiter-Samariter-Bund Österreichs","short_name":"ASB","brand:short":"ASB"}},{"type":"Feature","geometry":{"type":"Point","coordinates":[16.0645466,48.3168488]},"properties":{"addr:city":"Tulln an der Donau","addr:housenumber":"1","addr:postcode":"3430","addr:street":"Dr.-Karl-Landsteiner-Straße","ambulance_station:emergency_doctor":"yes","ambulance_station:patient_transport":"yes","brand":"Österreichisches Rotes Kreuz","emergency":"ambulance_station","name":"Rotes Kreuz Bezirksstelle Tulln","operator":"Österreichisches Rotes Kreuz, Landesverband Niederösterreich","short_name":"ÖRK","brand:short":"ÖRK"}},{"type":"Feature","geometry":{"type":"Point","coordinates":[15.6959126,48.2778262]},"properties":{"addr:city":"Herzogenburg","addr:housenumber":"43","addr:postcode":"3130","addr:street":"St. Pöltner Straße","ambulance_station:patient_transport":"yes","brand":"Österreichisches Rotes Kreuz","emergency":"ambulance_station","name":"Rotes Kreuz Bezirksstelle Herzogenburg","operator":"Österreichisches Rotes Kreuz, Landesverband Niederösterreich","short_name":"ÖRK","brand:short":"ÖRK"}},{"type":"Feature","geometry":{"type":"Point","coordinates":[15.6844769,48.4805469]},"properties":{"addr:city":"Langenlois","addr:housenumber":"83","addr:postcode":"3550","addr:street":"Kamptalstraße","ambulance_station:patient_transport":"yes","brand":"Österreichisches Rotes Kreuz","emergency":"ambulance_station","name":"Rotes Kreuz Bezirksstelle Langenlois","operator":"Österreichisches Rotes Kreuz, Landesverband Niederösterreich","short_name":"ÖRK","brand:short":"ÖRK"}},{"type":"Feature","geometry":{"type":"Point","coordinates":[15.2843613,48.8119877]},"properties":{"addr:city":"Waidhofen an der Thaya","addr:housenumber":"30a","addr:postcode":"3830","addr:street":"Moritz Schadekgasse","ambulance_station:emergency_doctor":"yes","ambulance_station:patient_transport":"yes","brand":"Österreichisches Rotes Kreuz","emergency":"ambulance_station","name":"Rotes Kreuz Bezirksstelle Waidhofen/Thaya","operator":"Österreichisches Rotes Kreuz","short_name":"ÖRK","brand:short":"ÖRK"}},{"type":"Feature","geometry":{"type":"Point","coordinates":[15.6134826,48.4129783]},"properties":{"addr:city":"Krems an der Donau","addr:housenumber":"11","addr:postcode":"3500","addr:street":"Mitterweg","ambulance_station:emergency_doctor":"yes","ambulance_station:patient_transport":"yes","brand":"Österreichisches Rotes Kreuz","emergency":"ambulance_station","name":"Rotes Kreuz Bezirksstelle Krems","operator":"Österreichisches Rotes Kreuz","short_name":"ÖRK","brand:short":"ÖRK"}},{"type":"Feature","geometry":{"type":"Point","coordinates":[14.7892976,47.9499619]},"properties":{"addr:city":"Waidhofen an der Ybbs","addr:housenumber":"6","addr:postcode":"3340","addr:street":"Pestalozzi-Straße","ambulance_station:emergency_doctor":"yes","ambulance_station:patient_transport":"yes","brand":"Österreichisches Rotes Kreuz","emergency":"ambulance_station","name":"Österreichisches Rotes Kreuz Bezirksstelle Waidhofen/Ybbs","operator":"Österreichisches Rotes Kreuz Niederösterreich","short_name":"ÖRK","brand:short":"ÖRK"}},{"type":"Feature","geometry":{"type":"Point","coordinates":[15.8589787,47.6927401]},"properties":{"addr:city":"Payerbach","addr:housenumber":"26","addr:postcode":"2650","addr:street":"Hauptstraße","ambulance_station:patient_transport":"yes","brand":"Österreichisches Rotes Kreuz","emergency":"ambulance_station","name":"Rotes Kreuz Dienststelle Payerbach Reichenau","operator":"Österreichisches Rotes Kreuz, Landesverband Niederösterreich","short_name":"ÖRK","brand:short":"ÖRK"}},{"type":"Feature","geometry":{"type":"Point","coordinates":[15.9811802,48.4719635]},"properties":{"addr:city":"Großweikersdorf","addr:housenumber":"5","addr:postcode":"3701","addr:street":"Schmidastraße","ambulance_station:patient_transport":"yes","brand":"Österreichisches Rotes Kreuz","emergency":"ambulance_station","name":"Rotes Kreuz Bezirksstelle Großweikersdorf","operator":"Österreichisches Rotes Kreuz, Landesverband Niederösterreich","short_name":"ÖRK","brand:short":"ÖRK"}},{"type":"Feature","geometry":{"type":"Point","coordinates":[15.5625287,47.854236]},"properties":{"addr:city":"St.Aegyd am Neuwalde","addr:housenumber":"5","addr:postcode":"3193","addr:street":"Berggasse","ambulance_station:patient_transport":"yes","brand":"Österreichisches Rotes Kreuz","emergency":"ambulance_station","name":"Rotes Kreuz Ortsstelle St. Aegyd am Walde","operator":"Österreichisches Rotes Kreuz","short_name":"ÖRK","brand:short":"ÖRK"}},{"type":"Feature","geometry":{"type":"Point","coordinates":[15.6201849,48.13174]},"properties":{"addr:city":"St. Georgen am Steinfelde","addr:housenumber":"24","addr:postcode":"3151","addr:street":"Ochsenburger Straße","ambulance_station:patient_transport":"yes","brand":"Arbeiter-Samariter-Bund Österreichs","emergency":"ambulance_station","name":"Samariterbund St. Pölten - St. Georgen","operator":"Arbeiter-Samariter-Bund Österreichs","short_name":"ASB","brand:short":"ASB"}},{"type":"Feature","geometry":{"type":"Point","coordinates":[15.8927549,48.3]},"properties":{"addr:city":"Heiligeneich","addr:housenumber":"4","addr:postcode":"3452","addr:street":"Hütteldorfer Straße","ambulance_station:patient_transport":"yes","brand":"Österreichisches Rotes Kreuz","emergency":"ambulance_station","name":"Rotes Kreuz Bezirksstelle Atzenbrugg-Heiligeneich","operator":"Österreichisches Rotes Kreuz, Landesverband Niederösterreich","short_name":"ÖRK","brand:short":"ÖRK"}},{"type":"Feature","geometry":{"type":"Point","coordinates":[16.7533884,48.5490645]},"properties":{"addr:city":"Zistersdorf","addr:housenumber":"1","addr:postcode":"2225","addr:street":"Windisch Baumgartner Straße","ambulance_station:patient_transport":"yes","brand":"Österreichisches Rotes Kreuz","emergency":"ambulance_station","name":"Rotes Kreuz Bezirksstelle Zistersdorf","operator":"Österreichisches Rotes Kreuz, Landesverband Niederösterreich","short_name":"ÖRK","brand:short":"ÖRK"}},{"type":"Feature","geometry":{"type":"Point","coordinates":[16.1397191,47.9393901]},"properties":{"addr:city":"Sankt Veit an der Triesting","addr:housenumber":"56","addr:postcode":"2560","addr:street":"Leobersdorfer Straße","ambulance_station:patient_transport":"yes","brand":"Österreichisches Rotes Kreuz","emergency":"ambulance_station","name":"Rotes Kreuz Bezirksstelle Triestingtal","operator":"Österreichisches Rotes Kreuz, Landesverband Niederösterreich","short_name":"ÖRK","brand:short":"ÖRK"}},{"type":"Feature","geometry":{"type":"Point","coordinates":[15.0953958,48.1900025]},"properties":{"addr:city":"Persenbeug-Gottsdorf","addr:housenumber":"67","addr:postcode":"3680","addr:street":"Nibelungenstraße","ambulance_station:emergency_doctor":"yes","ambulance_station:patient_transport":"yes","brand":"Arbeiter-Samariter-Bund Österreichs","emergency":"ambulance_station","name":"Samariterbund Persenbeug","operator":"Arbeiter-Samariter-Bund Österreichs","short_name":"ASB","brand:short":"ASB"}},{"type":"Feature","geometry":{"type":"Point","coordinates":[15.0861626,48.1655188]},"properties":{"addr:city":"Ybbs an der Donau","addr:housenumber":"1","addr:postcode":"3370","addr:street":"Ybbsflußstraße","ambulance_station:emergency_doctor":"yes","ambulance_station:patient_transport":"yes","brand":"Österreichisches Rotes Kreuz","emergency":"ambulance_station","name":"Rotes Kreuz Bezirksstelle Ybbs an der Donau","operator":"Österreichisches Rotes Kreuz","short_name":"ÖRK","brand:short":"ASB"}},{"type":"Feature","geometry":{"type":"Point","coordinates":[14.7712826,47.7977463]},"properties":{"addr:city":"Hollenstein an der Ybbs","addr:housenumber":"121","addr:postcode":"3343","ambulance_station:patient_transport":"yes","brand":"Österreichisches Rotes Kreuz","brand:short":"ÖRK","emergency":"ambulance_station","name":"Rotes Kreuz Ortsstelle Ortsstelle Hollenstein/Ybbs","operator":"Österreichisches Rotes Kreuz Niederösterreich","short_name":"ÖRK"}},{"type":"Feature","geometry":{"type":"Point","coordinates":[15.0386787,48.2695722]},"properties":{"addr:city":"St. Oswald","addr:housenumber":"2","addr:postcode":"3684","addr:street":"Sonnengasse","ambulance_station:patient_transport":"yes","brand":"Österreichisches Rotes Kreuz","emergency":"ambulance_station","name":"Rotes Kreuz Ortsstelle St. Oswald","operator":"Österreichisches Rotes Kreuz, Landesverband Niederösterreich","short_name":"ÖRK","brand:short":"ÖRK"}},{"type":"Feature","geometry":{"type":"Point","coordinates":[16.396485,48.7178334]},"properties":{"addr:city":"Laa an der Thaya","addr:housenumber":"14","addr:postcode":"2136","addr:street":"Simon-Scheiner-Straße","ambulance_station:patient_transport":"yes","brand":"Österreichisches Rotes Kreuz","emergency":"ambulance_station","name":"Rotes Kreuz Bezirksstelle Laa an der Thaya","operator":"Österreichisches Rotes Kreuz, Landesverband Niederösterreich","short_name":"ÖRK","brand:short":"ÖRK"}},{"type":"Feature","geometry":{"type":"Point","coordinates":[15.8979193,48.0238514]},"properties":{"addr:city":"Kaumberg","addr:housenumber":"49","addr:postcode":"2572","ambulance_station:patient_transport":"yes","brand":"Österreichisches Rotes Kreuz","emergency":"ambulance_station","name":"Rotes Kreuz Ortsstelle Kaumberg","operator":"Österreichisches Rotes Kreuz, Landesverband Niederösterreich","short_name":"ÖRK","brand:short":"ÖRK"}},{"type":"Feature","geometry":{"type":"Point","coordinates":[16.7280739,48.3452034]},"properties":{"addr:city":"Gänserndorf","addr:housenumber":"1","addr:postcode":"2230","addr:street":"Henri-Dunant-Straße","ambulance_station:emergency_doctor":"yes","ambulance_station:patient_transport":"yes","brand":"Österreichisches Rotes Kreuz","emergency":"ambulance_station","name":"Rotes Kreuz Bezirksstelle Gänserndorf Marchegg","operator":"Österreichisches Rotes Kreuz, Landesverband Niederösterreich","short_name":"ÖRK","brand:short":"ÖRK"}},{"type":"Feature","geometry":{"type":"Point","coordinates":[16.2482797,47.8183169]},"properties":{"addr:city":"Wiener Neustadt","addr:housenumber":"41","addr:postcode":"2700","addr:street":"Grazer Straße","ambulance_station:emergency_doctor":"yes","ambulance_station:patient_transport":"yes","brand":"Österreichisches Rotes Kreuz","brand:short":"ÖRK","emergency":"ambulance_station","name":"Rotes Kreuz Bezirksstelle Wiener Neustadt","operator":"Österreichisches Rotes Kreuz, Landesverband Niederösterreich","short_name":"ÖRK"}},{"type":"Feature","geometry":{"type":"Point","coordinates":[16.5203922,48.379228]},"properties":{"addr:city":"Wolkersdorf im Weinviertel","addr:housenumber":"1","addr:postcode":"2120","addr:street":"Kirschenallee","ambulance_station:patient_transport":"yes","brand":"Österreichisches Rotes Kreuz","brand:short":"ÖRK","emergency":"ambulance_station","name":"Rotes Kreuz Ortsstelle Wolkersdorf","operator":"Österreichisches Rotes Kreuz, Landesverband Niederösterreich","short_name":"ÖRK"}},{"type":"Feature","geometry":{"type":"Point","coordinates":[15.5993223,48.1009126]},"properties":{"addr:city":"Wilhelmsburg","addr:housenumber":"1","addr:postcode":"3150","addr:street":"Papierfabrik","ambulance_station:patient_transport":"yes","brand":"Arbeiter-Samariter-Bund Österreichs","emergency":"ambulance_station","name":"Samariterbund Wilhelmsburg","operator":"Arbeiter-Samariter-Bund Österreichs","short_name":"ASB","brand:short":"ASB"}},{"type":"Feature","geometry":{"type":"Point","coordinates":[16.4869216,48.1399737]},"properties":{"addr:city":"Schwechat","addr:housenumber":"27","addr:postcode":"2320","addr:street":"Bruck Hainburger-Straße","ambulance_station:emergency_doctor":"yes","ambulance_station:patient_transport":"yes","brand":"Österreichisches Rotes Kreuz","emergency":"ambulance_station","name":"Rotes Kreuz Bezirksstelle Schwechat","operator":"Rotes Kreuz Niederösterreich","short_name":"ÖRK","brand:short":"ÖRK"}},{"type":"Feature","geometry":{"type":"Point","coordinates":[16.5591606,48.2957718]},"properties":{"addr:city":"Deutsch-Wagram","addr:housenumber":"1","addr:postcode":"2232","addr:street":"Jakob Grünwald-Gasse","ambulance_station:patient_transport":"yes","brand":"Österreichisches Rotes Kreuz","emergency":"ambulance_station","name":"Rotes Kreuz Ortsstelle Deutsch-Wagram","operator":"Österreichisches Rotes Kreuz, Landesverband Niederösterreich","short_name":"ÖRK","brand:short":"ÖRK"}},{"type":"Feature","geometry":{"type":"Point","coordinates":[16.401088,47.9623965]},"properties":{"addr:city":"Ebreichsdorf","addr:housenumber":"9","addr:postcode":"2483","addr:street":"Gnadenbachweg","ambulance_station:patient_transport":"yes","brand":"Arbeiter-Samariter-Bund Österreichs","emergency":"ambulance_station","name":"Samariterbund Ebreichsdorf","operator":"Arbeiter-Samariter-Bund Österreichs","short_name":"ASB","brand:short":"ASB"}},{"type":"Feature","geometry":{"type":"Point","coordinates":[15.432217,48.0267241]},"properties":{"addr:city":"Kirchberg an der Pielach","addr:housenumber":"7","addr:postcode":"3204","addr:street":"Schulgasse","ambulance_station:patient_transport":"yes","brand":"Österreichisches Rotes Kreuz","emergency":"ambulance_station","name":"Rotes Kreuz Ortsstelle Kirchberg an der Pielach","operator":"Österreichisches Rotes Kreuz, Landesverband Niederösterreich","short_name":"ÖRK","brand:short":"ÖRK"}},{"type":"Feature","geometry":{"type":"Point","coordinates":[15.3468449,48.2277524]},"properties":{"addr:city":"Melk","addr:housenumber":"15","addr:postcode":"3390","addr:street":"Spielberger Straße","ambulance_station:emergency_doctor":"yes","ambulance_station:patient_transport":"yes","brand":"Österreichisches Rotes Kreuz","emergency":"ambulance_station","name":"Rotes Kreuz Bezirksstelle Melk","operator":"Österreichisches Rotes Kreuz, Landesverband Niederösterreich","short_name":"ÖRK","brand:short":"ÖRK"}},{"type":"Feature","geometry":{"type":"Point","coordinates":[15.5438181,48.1479529]},"properties":{"addr:city":"Ober-Grafendorf","addr:housenumber":"18","addr:postcode":"3200","addr:street":"Mariazeller Straße","ambulance_station:patient_transport":"yes","brand":"Österreichisches Rotes Kreuz","emergency":"ambulance_station","name":"Rotes Kreuz Ortsstelle Ober-Grafendorf","operator":"Österreichisches Rotes Kreuz, Landesverband Niederösterreich","short_name":"ÖRK","brand:short":"ÖRK"}},{"type":"Feature","geometry":{"type":"Point","coordinates":[16.0155796,48.2535974]},"properties":{"addr:city":"Sieghartskirchen","addr:housenumber":"10a","addr:postcode":"3443","addr:street":"Wassergasse","ambulance_station:patient_transport":"yes","emergency":"ambulance_station","name":"Rotes Kreuz Ortsstelle Sieghartskirchen","operator":"Österreichisches Rotes Kreuz, Landesverband Niederösterreich","short_name":"ÖRK","brand:short":"ÖRK"}},{"type":"Feature","geometry":{"type":"Point","coordinates":[14.5267613,48.1769047]},"properties":{"addr:city":"Sankt Valentin","addr:housenumber":"25","addr:postcode":"4300","addr:street":"Neubaustraße","ambulance_station:patient_transport":"yes","brand":"Österreichisches Rotes Kreuz","emergency":"ambulance_station","name":"Rotes Kreuz Bezirksstelle Sankt Valentin","operator":"Österreichisches Rotes Kreuz","short_name":"ÖRK","brand:short":"ÖRK"}},{"type":"Feature","geometry":{"type":"Point","coordinates":[16.2112802,47.7336129]},"properties":{"addr:city":"Bad Erlach","addr:housenumber":"1","addr:postcode":"2822","addr:street":"Linsberger Straße","ambulance_station:patient_transport":"yes","brand":"Österreichisches Rotes Kreuz","emergency":"ambulance_station","name":"Rotes Kreuz Ortsstelle Bad Erlach","operator":"Österreichisches Rotes Kreuz, Landesverband Niederösterreich","short_name":"ÖRK","brand:short":"ÖRK"}},{"type":"Feature","geometry":{"type":"Point","coordinates":[15.9222423,47.6629841]},"properties":{"addr:city":"Gloggnitz","addr:housenumber":"87","addr:postcode":"2640","addr:street":"Semmeringstraße","ambulance_station:patient_transport":"yes","brand":"Österreichisches Rotes Kreuz","emergency":"ambulance_station","name":"Rotes Kreuz Bezirksstelle Ortsstelle Gloggnitz","operator":"Österreichisches Rotes Kreuz","short_name":"ÖRK","brand:short":"ÖRK"}},{"type":"Feature","geometry":{"type":"Point","coordinates":[15.3298566,48.6968946]},"properties":{"addr:city":"Allentsteig","addr:housenumber":"16-20","addr:postcode":"3804","addr:street":"Spitalstraße","ambulance_station:patient_transport":"yes","brand":"Österreichisches Rotes Kreuz","emergency":"ambulance_station","name":"Rotes Kreuz Bezirksstelle Allentsteig","operator":"Österreichisches Rotes Kreuz","short_name":"ÖRK","brand:short":"ÖRK"}},{"type":"Feature","geometry":{"type":"Point","coordinates":[15.1607087,48.0087508]},"properties":{"addr:city":"Scheibbs","addr:housenumber":"3","addr:postcode":"3270","addr:street":"Rutesheimer Straße","ambulance_station:emergency_doctor":"yes","ambulance_station:patient_transport":"yes","brand":"Österreichisches Rotes Kreuz","emergency":"ambulance_station","name":"Österreichisches Rotes Kreuz","operator":"Österreichisches Rotes Kreuz","short_name":"ÖRK","brand:short":"ÖRK"}},{"type":"Feature","geometry":{"type":"Point","coordinates":[16.5486585,48.2059235]},"properties":{"addr:city":"Groß-Enzersdorf","addr:housenumber":"1","addr:postcode":"2301","addr:street":"Freiherr von Smola-Straße","ambulance_station:emergency_doctor":"yes","ambulance_station:patient_transport":"yes","brand":"Österreichisches Rotes Kreuz","emergency":"ambulance_station","name":"Rotes Kreuz Bezirksstelle Marchfeld","operator":"Österreichisches Rotes Kreuz","short_name":"ÖRK","brand:short":"ÖRK"}},{"type":"Feature","geometry":{"type":"Point","coordinates":[15.0480254,48.0712379]},"properties":{"addr:city":"Steinakirchen am Forst","addr:housenumber":"23","addr:postcode":"3261","addr:street":"Am Graben","ambulance_station:patient_transport":"yes","brand":"Österreichisches Rotes Kreuz","emergency":"ambulance_station","name":"Rotes Kreuz Ortsstelle Steinakirchen","operator":"Österreichisches Rotes Kreuz, Landesverband Niederösterreich","short_name":"ÖRK","brand:short":"ÖRK"}},{"type":"Feature","geometry":{"type":"Point","coordinates":[16.342372,48.0833676]},"properties":{"addr:city":"Biedermannsdorf","addr:housenumber":"5","addr:postcode":"2362","addr:street":"Johanna Kaltner-Platz","ambulance_station:patient_transport":"yes","brand":"Österreichisches Rotes Kreuz","emergency":"ambulance_station","name":"Rotes Kreuz Ortsstelle Biedermannsdorf","operator":"Österreichisches Rotes Kreuz, Landesverband Niederösterreich","short_name":"ÖRK","brand:short":"ÖRK"}},{"type":"Feature","geometry":{"type":"Point","coordinates":[15.4634617,48.0612325]},"properties":{"addr:city":"Rabenstein an der Pielach","addr:housenumber":"14","addr:postcode":"3203","addr:street":"Mariazeller Straße","ambulance_station:patient_transport":"yes","brand":"Arbeiter-Samariter-Bund Österreichs","emergency":"ambulance_station","name":"Samariterbund Rabenstein","operator":"Arbeiter-Samariterbund-Bund Österreichs","short_name":"ASB","brand:short":"ASB"}},{"type":"Feature","geometry":{"type":"Point","coordinates":[16.3170169,48.0464735]},"properties":{"addr:city":"Guntramsdorf","addr:housenumber":"3","addr:postcode":"2353","addr:street":"Am Tabor","ambulance_station:patient_transport":"yes","brand":"Österreichisches Rotes Kreuz","emergency":"ambulance_station","name":"Rotes Kreuz Ortsstelle Guntramsdorf","operator":"Österreichisches Rotes Kreuz, Landesverband Niederösterreich","short_name":"ÖRK","brand:short":"ÖRK"}},{"type":"Feature","geometry":{"type":"Point","coordinates":[14.8972166,48.7023589]},"properties":{"addr:city":"Weitra","addr:housenumber":"137","addr:postcode":"3970","addr:street":"Gmünder Straße","ambulance_station:patient_transport":"yes","brand":"Österreichisches Rotes Kreuz","brand:short":"ÖRK","emergency":"ambulance_station","name":"Rotes Kreuz Bezirksstelle Weitra","operator":"Österreichisches Rotes Kreuz, Landesverband Niederösterreich","short_name":"ÖRK"}},{"type":"Feature","geometry":{"type":"Point","coordinates":[15.7587073,48.1984182]},"properties":{"addr:city":"Böheimkirchen","addr:housenumber":"21","addr:postcode":"3071","addr:street":"Obere Hauptstraße","ambulance_station:patient_transport":"yes","brand":"Österreichisches Rotes Kreuz","emergency":"ambulance_station","name":"Rotes Kreuz Ortsstelle Böheimkirchen","operator":"Österreichisches Rotes Kreuz, Landesverband Niederösterreich","short_name":"ÖRK","brand:short":"ÖRK"}},{"type":"Feature","geometry":{"type":"Point","coordinates":[15.9311375,48.1527629]},"properties":{"addr:city":"Altlengbach","addr:housenumber":"7","addr:postcode":"3033","addr:street":"Hauptplatz","ambulance_station:emergency_doctor":"yes","ambulance_station:patient_transport":"yes","brand":"Arbeiter-Samariter-Bund Österreichs","emergency":"ambulance_station","name":"Samariterbund Altlengbach","operator":"Arbeiter-Samariter-Bund Österreichs","short_name":"ASB","brand:short":"ASB"}},{"type":"Feature","geometry":{"type":"Point","coordinates":[14.9773433,48.7667803]},"properties":{"addr:housenumber":"54","addr:postcode":"3950","addr:street":"Weitraer Straße","ambulance_station:emergency_doctor":"yes","ambulance_station:patient_transport":"yes","brand":"Österreichisches Rotes Kreuz","emergency":"ambulance_station","name":"Rotes Kreuz Bezirksstelle Gmünd","operator":"Österreichisches Rotes Kreuz, Landesverband Niederösterreich","short_name":"ÖRK","brand:short":"ÖRK"}},{"type":"Feature","geometry":{"type":"Point","coordinates":[14.979911,48.1264838]},"properties":{"addr:city":"Blindenmarkt","addr:housenumber":"65","addr:postcode":"3372","addr:street":"Hauptstraße","ambulance_station:patient_transport":"yes","brand":"Österreichisches Rotes Kreuz","emergency":"ambulance_station","name":"Rotes Kreuz Ortsstelle Blindenmarkt","operator":"Österreichisches Rotes Kreuz, Landesverband Niederösterreich","short_name":"ÖRK","brand:short":"ÖRK"}},{"type":"Feature","geometry":{"type":"Point","coordinates":[15.9111585,47.7884001]},"properties":{"addr:city":"Puchberg am Schneeberg","addr:housenumber":"14","addr:postcode":"2734","addr:street":"Schneebergstraße","ambulance_station:patient_transport":"yes","brand":"Österreichisches Rotes Kreuz","emergency":"ambulance_station","name":"Rotes Kreuz Ortsstelle Puchberg","operator":"Österreichisches Rotes Kreuz, Landesverband Niederösterreich","short_name":"ÖRK","brand:short":"ÖRK"}},{"type":"Feature","geometry":{"type":"Point","coordinates":[15.5982278,48.0144875]},"properties":{"addr:city":"Lilienfeld","addr:housenumber":"8","addr:postcode":"3180","addr:street":"Liese Prokop Straße","ambulance_station:emergency_doctor":"yes","ambulance_station:patient_transport":"yes","brand":"Österreichisches Rotes Kreuz","emergency":"ambulance_station","name":"Rotes Kreuz Bezirksstelle Lilienfeld - St. Aegyd","operator":"Österreichisches Rotes Kreuz, Landesverband Niederösterreich","short_name":"ÖRK","brand:short":"ÖRK"}},{"type":"Feature","geometry":{"type":"Point","coordinates":[15.7744782,48.0321782]},"properties":{"addr:city":"Hainfeld","addr:housenumber":"17","addr:postcode":"3170","addr:street":"Ramsauer Straße","ambulance_station:patient_transport":"yes","brand":"Österreichisches Rotes Kreuz","emergency":"ambulance_station","name":"Rotes Kreuz Bezirksstelle Hainfeld","operator":"Österreichisches Rotes Kreuz, Landesverband Niederösterreich","short_name":"ÖRK","brand:short":"ÖRK"}},{"type":"Feature","geometry":{"type":"Point","coordinates":[15.1987399,48.3160067]},"properties":{"addr:city":"Pöggstall","addr:housenumber":"5","addr:postcode":"3650","addr:street":"Rogendorferstraße","ambulance_station:emergency_doctor":"yes","ambulance_station:patient_transport":"yes","brand":"Österreichisches Rotes Kreuz","emergency":"ambulance_station","name":"Rotes Kreuz Bezirksstelle Ortsstelle Pöggstall","operator":"Österreichisches Rotes Kreuz, Landesverband Niederösterreich","short_name":"ÖRK","brand:short":"ÖRK"}},{"type":"Feature","geometry":{"type":"Point","coordinates":[16.2501983,47.8874552]},"properties":{"addr:city":"Sollenau","addr:housenumber":"2","addr:postcode":"2601","addr:street":"Gutensteiner Straße","ambulance_station:patient_transport":"yes","brand":"Österreichisches Rotes Kreuz","emergency":"ambulance_station","name":"Rotes Kreuz Bezirksstelle Sollenau-Felixdorf","operator":"Österreichisches Rotes Kreuz","short_name":"ÖRK","brand:short":"ÖRK"}},{"type":"Feature","geometry":{"type":"Point","coordinates":[15.9904475,48.1756722]},"properties":{"addr:city":"Eichgraben","addr:housenumber":"3","addr:postcode":"3032","addr:street":"Auhofstraße","ambulance_station:patient_transport":"yes","brand":"Arbeiter-Samariter-Bund Österreichs","emergency":"ambulance_station","name":"Samariterbund Eichgraben","operator":"Arbeiter-Samariter-Bund Österreichs","short_name":"ASB","brand:short":"ASB"}},{"type":"Feature","geometry":{"type":"Point","coordinates":[15.7386767,47.9816189]},"properties":{"addr:city":"Kleinzell","addr:housenumber":"46","addr:postcode":"3171","addr:street":"Hauptstraße","ambulance_station:patient_transport":"yes","brand":"Österreichisches Rotes Kreuz","brand:short":"ÖRK","emergency":"ambulance_station","name":"Rotes Kreuz Dienststelle Kleinzell","operator":"Österreichisches Rotes Kreuz, Landesverband Niederösterreich, Bezirksstelle Hainfeld","short_name":"ÖRK"}},{"type":"Feature","geometry":{"type":"Point","coordinates":[16.278472,47.4928094]},"properties":{"addr:city":"Kirchschlag in der Buckligen Welt","addr:housenumber":"23","addr:postcode":"2860","addr:street":"Hofwiese","ambulance_station:patient_transport":"yes","brand":"Österreichisches Rotes Kreuz","emergency":"ambulance_station","name":"Rotes Kreuz Bezirksstelle Ortsstelle Kirchschlag","operator":"Österreichisches Rotes Kreuz, Landesverband Niederösterreich","short_name":"ÖRK","brand:short":"ÖRK"}},{"type":"Feature","geometry":{"type":"Point","coordinates":[15.5086625,48.0974514]},"properties":{"addr:city":"Hofstetten-Grünau","addr:housenumber":"8","addr:postcode":"3202","addr:street":"Grünauerstraße","ambulance_station:patient_transport":"yes","brand":"Österreichisches Rotes Kreuz","emergency":"ambulance_station","name":"Rotes Kreuz Ortsstelle Hofstetten-Grünau","operator":"Rotes Kreuz","short_name":"ÖRK","brand:short":"ÖRK"}},{"type":"Feature","geometry":{"type":"Point","coordinates":[16.3981769,48.1109026]},"properties":{"addr:city":"Leopoldsdorf","addr:housenumber":"43","addr:postcode":"2333","addr:street":"Achauerstraße","ambulance_station:patient_transport":"yes","emergency":"ambulance_station","name":"Rotes Kreuz Dienststelle Leopoldsdorf","operator":"Österreichisches Rotes Kreuz","short_name":"ÖRK","brand:short":"ÖRK"}},{"type":"Feature","geometry":{"type":"Point","coordinates":[16.7200771,48.6440343]},"properties":{"addr:city":"Großkrut","addr:housenumber":"19","addr:postcode":"2143","addr:street":"Warendorfer Straße","ambulance_station:patient_transport":"yes","brand":"Österreichisches Rotes Kreuz","brand:short":"ÖRK","emergency":"ambulance_station","name":"Rotes Kreuz Ortsstelle Großkrut","operator":"Österreichisches Rotes Kreuz, Landesverband Niederösterreich","short_name":"ÖRK"}},{"type":"Feature","geometry":{"type":"Point","coordinates":[15.6189233,48.1991729]},"properties":{"addr:city":"St. Pölten","addr:housenumber":"43","addr:postcode":"3100","addr:street":"Dr.Theodor Körner-Straße","ambulance_station:patient_transport":"yes","brand":"Österreichisches Rotes Kreuz","emergency":"ambulance_station","name":"Rotes Kreuz Bezirksstelle Sankt Pölten","operator":"Österreichisches Rotes Kreuz","short_name":"ÖRK","brand:short":"ÖRK"}},{"type":"Feature","geometry":{"type":"Point","coordinates":[16.3670971,48.5278859]},"properties":{"addr:city":"Ernstbrunn","addr:housenumber":"17","addr:postcode":"2115","addr:street":"Mistelbacher Straße","ambulance_station:patient_transport":"yes","brand":"Österreichisches Rotes Kreuz","emergency":"ambulance_station","name":"Rotes Kreuz Ortsstelle Ernstbrunn","operator":"Österreichisches Rotes Kreuz, Landesverband Niederösterreich","short_name":"ÖRK","brand:short":"ÖRK"}},{"type":"Feature","geometry":{"type":"Point","coordinates":[16.0409686,47.9816667]},"properties":{"addr:city":"Weissenbach an der Triesting","addr:housenumber":"2","addr:postcode":"2564","addr:street":"Hollergasse","ambulance_station:patient_transport":"yes","brand":"Österreichisches Rotes Kreuz","emergency":"ambulance_station","name":"Rotes Kreuz Ortsstelle Weissenbach","operator":"Österreichisches Rotes Kreuz, Landesverband Niederösterreich","short_name":"ÖRK","brand:short":"ÖRK"}},{"type":"Feature","geometry":{"type":"Point","coordinates":[16.3962292,47.9001397]},"properties":{"addr:city":"Pottendorf","addr:housenumber":"5","addr:postcode":"2486","addr:street":"Badener Straße","ambulance_station:patient_transport":"yes","brand":"Österreichisches Rotes Kreuz","emergency":"ambulance_station","name":"Rotes Kreuz Dienststelle Landegg","operator":"Österreichisches Rotes Kreuz, Landesverband Niederösterreich","short_name":"ÖRK","brand:short":"ÖRK"}},{"type":"Feature","geometry":{"type":"Point","coordinates":[15.2852723,48.137828]},"properties":{"addr:city":"St. Leonhard am Forst","addr:housenumber":"2","addr:postcode":"3243","addr:street":"Gewerbestraße","ambulance_station:patient_transport":"yes","brand":"Österreichisches Rotes Kreuz","emergency":"ambulance_station","name":"Rotes Kreuz Ortsstelle St. Leonhard / Ruprechtshofen","operator":"Österreichisches Rotes Kreuz, Landesverband Niederösterreich","short_name":"ÖRK","brand:short":"ÖRK"}},{"type":"Feature","geometry":{"type":"Point","coordinates":[16.9095155,48.2803737]},"properties":{"addr:city":"Marchegg","addr:housenumber":"13","addr:postcode":"2293","addr:street":"Hauptplatz","ambulance_station:patient_transport":"yes","brand":"Österreichisches Rotes Kreuz","emergency":"ambulance_station","name":"Rotes Kreuz Bezirksstelle Gänserndorf-Marchegg","operator":"Österreichisches Rotes Kreuz, Landesverband Niederösterreich","short_name":"ÖRK","brand:short":"ÖRK"}},{"type":"Feature","geometry":{"type":"Point","coordinates":[16.0807826,48.7060399]},"properties":{"addr:city":"Haugsdorf","addr:housenumber":"1","addr:postcode":"2054","addr:street":"Siedlung","ambulance_station:patient_transport":"yes","brand":"Österreichisches Rotes Kreuz","emergency":"ambulance_station","name":"Rotes Kreuz Ortsstelle Haugsdorf","operator":"Österreichisches Rotes Kreuz, Landesverband Niederösterreich","short_name":"ÖRK","brand:short":"ÖRK"}},{"type":"Feature","geometry":{"type":"Point","coordinates":[15.685897,48.157983]},"properties":{"addr:city":"Pyhra","addr:housenumber":"1","addr:postcode":"3143","addr:street":"Badgasse","ambulance_station:patient_transport":"yes","brand":"Österreichisches Rotes Kreuz","emergency":"ambulance_station","name":"Rotes Kreuz Ortsstelle Pyhra","operator":"Österreichisches Rotes Kreuz, Landesverband Niederösterreich","short_name":"ÖRK","brand:short":"ÖRK"}},{"type":"Feature","geometry":{"type":"Point","coordinates":[16.7024733,48.1441136]},"properties":{"addr:city":"Orth an der Donau","addr:housenumber":"1","addr:postcode":"2304","addr:street":"Kirchenplatz","ambulance_station:patient_transport":"yes","emergency":"ambulance_station","name":"Johanniter-Unfall-Hilfe Dienststelle Orth an der Donau","operator":"Johanniter-Unfall-Hilfe","short_name":"JUH","brand:short":"JUH"}},{"type":"Feature","geometry":{"type":"Point","coordinates":[15.1335497,48.265922]},"properties":{"ambulance_station:patient_transport":"yes","brand":"Österreichisches Rotes Kreuz","emergency":"ambulance_station","name":"Rotes Kreuz Ortsstelle Münichreith","operator":"Österreichisches Rotes Kreuz, Landesverband Niederösterreich","short_name":"ÖRK","brand:short":"ÖRK"}},{"type":"Feature","geometry":{"type":"Point","coordinates":[16.3185901,47.9809428]},"properties":{"addr:city":"Oberwaltersdorf","addr:housenumber":"1b","addr:postcode":"2522","addr:street":"Florianistraße","ambulance_station:patient_transport":"yes","brand":"Österreichisches Rotes Kreuz","emergency":"ambulance_station","name":"Rotes Kreuz Ortsstelle Oberwaltersdorf","operator":"Österreichisches Rotes Kreuz","short_name":"ÖRK","brand:short":"ÖRK"}},{"type":"Feature","geometry":{"type":"Point","coordinates":[15.0611614,48.7924609]},"properties":{"addr:city":"Schrems","addr:housenumber":"2","addr:postcode":"3943","addr:street":"Dr.-Alfred-Besenböck-Straße","ambulance_station:patient_transport":"yes","brand":"Österreichisches Rotes Kreuz","emergency":"ambulance_station","name":"Rotes Kreuz Ortsstelle Schrems","operator":"Österreichisches Rotes Kreuz, Landesverband Niederösterreich","short_name":"ÖRK","brand:short":"ÖRK"}},{"type":"Feature","geometry":{"type":"Point","coordinates":[16.1889429,47.5253744]},"properties":{"addr:city":"Krumbach","addr:housenumber":"41","addr:postcode":"2851","addr:street":"Marktstraße","ambulance_station:patient_transport":"yes","brand":"Österreichisches Rotes Kreuz","emergency":"ambulance_station","name":"Rotes Kreuz Ortsstelle Krumbach","operator":"Österreichisches Rotes Kreuz, Landesverband Niederösterreich","short_name":"ÖRK","brand:short":"ÖRK"}},{"type":"Feature","geometry":{"type":"Point","coordinates":[16.0914861,47.5583703]},"properties":{"addr:city":"Aspang-Markt","addr:housenumber":"1a","addr:postcode":"2870","addr:street":"Wechselstraße","ambulance_station:emergency_doctor":"yes","ambulance_station:patient_transport":"yes","brand":"Österreichisches Rotes Kreuz","emergency":"ambulance_station","name":"Rotes Kreuz Ortsstelle Aspang","operator":"Österreichisches Rotes Kreuz, Landesverband Niederösterreich","short_name":"ÖRK","brand:short":"ÖRK"}},{"type":"Feature","geometry":{"type":"Point","coordinates":[16.437544,48.0843412]},"properties":{"addr:city":"Himberg","addr:housenumber":"9","addr:postcode":"2325","addr:street":"Wienerstraße","ambulance_station:patient_transport":"yes","brand":"Österreichisches Rotes Kreuz","emergency":"ambulance_station","name":"Rotes Kreuz Dienststelle Himberg","operator":"Rotes Kreuz Niederösterreich, Bezirksstelle Schwechat","short_name":"ÖRK","brand:short":"ÖRK"}},{"type":"Feature","geometry":{"type":"Point","coordinates":[15.0673939,48.2849409]},"properties":{"addr:city":"Yspertal","addr:housenumber":"6","addr:postcode":"3683","addr:street":"Maierhofstraße","ambulance_station:patient_transport":"yes","brand":"Österreichisches Rotes Kreuz","emergency":"ambulance_station","name":"Rotes Kreuz Ortsstelle Yspertal","operator":"Österreichisches Rotes Kreuz, Landesverband Niederösterreich","short_name":"ÖRK","brand:short":"ÖRK"}},{"type":"Feature","geometry":{"type":"Point","coordinates":[15.137055,48.1384618]},"properties":{"addr:city":"Wieselburg","addr:housenumber":"9","addr:postcode":"3250","addr:street":"Zur Autobahn","ambulance_station:patient_transport":"yes","brand":"Österreichisches Rotes Kreuz","emergency":"ambulance_station","name":"Rotes Kreuz Dienststelle Wieselburg","operator":"Österreichisches Rotes Kreuz","short_name":"ÖRK","brand:short":"ÖRK"}},{"type":"Feature","geometry":{"type":"Point","coordinates":[16.0983662,47.5664627]},"properties":{"addr:city":"Aspang-Markt","addr:housenumber":"28","addr:postcode":"2870","addr:street":"Andreas Hofer-Straße","ambulance_station:patient_transport":"yes","emergency":"ambulance_station","name":"Sozialmedizinischer Dienst Österreich - SMD Dienststelle Mönichkirchen/Aspang","operator":"Sozialmedizinischer Dienst Österreich GmbH","short_name":"SMD","brand:short":"SMD"}},{"type":"Feature","geometry":{"type":"Point","coordinates":[15.1883267,48.2050757]},"properties":{"addr:city":"Golling an der Erlauf","addr:housenumber":"6","addr:postcode":"3381","addr:street":"Fabriksstraße","ambulance_station:patient_transport":"yes","brand":"Arbeiter-Samariter-Bund Österreichs","emergency":"ambulance_station","name":"Samariterbund Pöchlarn - Neuda","operator":"Arbeiter-Samariter-Bund Österreichs","short_name":"ASB","brand:short":"ASB"}},{"type":"Feature","geometry":{"type":"Point","coordinates":[16.257605,47.944133]},"properties":{"addr:city":"Günselsdorf","addr:housenumber":"3","addr:postcode":"2525","addr:street":"Leobersdorferstraße","ambulance_station:patient_transport":"yes","brand":"Arbeiter-Samariter-Bund Österreichs","emergency":"ambulance_station","name":"Samariterbund Steinfelden-Schönau-Leobersdorf","operator":"Arbeiter-Samariter-Bund Österreichs","short_name":"ASB","brand:short":"ASB"}},{"type":"Feature","geometry":{"type":"Point","coordinates":[14.8828182,48.1274582]},"properties":{"addr:city":"Amstetten","addr:housenumber":"10","addr:postcode":"3300","addr:street":"Krankenhausstraße","ambulance_station:emergency_doctor":"yes","ambulance_station:patient_transport":"yes","brand":"Österreichisches Rotes Kreuz","emergency":"ambulance_station","name":"Rotes Kreuz Bezirksstelle Amstetten","operator":"Österreichisches Rotes Kreuz, Landesverband Niederösterreich","short_name":"ÖRK","brand:short":"ÖRK"}},{"type":"Feature","geometry":{"type":"Point","coordinates":[16.1359063,47.6663183]},"properties":{"addr:city":"Scheiblingkirchen-Thernberg","addr:housenumber":"99","addr:postcode":"2831","addr:street":"Altenheimstraße","ambulance_station:patient_transport":"yes","brand":"Österreichisches Rotes Kreuz","emergency":"ambulance_station","name":"Rotes Kreuz Ortsstelle Pittental","operator":"Österreichisches Rotes Kreuz, Landesverband Niederösterreich","short_name":"ÖRK","brand:short":"ÖRK"}},{"type":"Feature","geometry":{"type":"Point","coordinates":[16.5801375,48.0127373]},"properties":{"addr:city":"Götzendorf an der Leitha","addr:housenumber":"6","addr:postcode":"2434","addr:street":"Dr. Heidrichgasse","ambulance_station:patient_transport":"yes","brand":"Österreichisches Rotes Kreuz","emergency":"ambulance_station","name":"Rotes Kreuz Dienststelle Götzendorf","operator":"Rotes Kreuz Niederösterreich, Bezirksstelle Schwechat","short_name":"ÖRK","brand:short":"ÖRK"}},{"type":"Feature","geometry":{"type":"Point","coordinates":[16.1946238,48.135181]},"properties":{"addr:city":"Breitenfurt bei Wien","addr:housenumber":"1a","addr:postcode":"2384","addr:street":"Hirschentanzstraße","ambulance_station:patient_transport":"yes","brand":"Österreichisches Rotes Kreuz","emergency":"ambulance_station","name":"Rotes Kreuz Rettungsstelle Breitenfurt","operator":"Rotes Kreuz Brunn am Gebirge","short_name":"ÖRK","brand:short":"ÖRK"}},{"type":"Feature","geometry":{"type":"Point","coordinates":[15.4070828,48.1021803]},"properties":{"addr:city":"Kilb","addr:housenumber":"1","addr:postcode":"3233","addr:street":"Meierhofstraße","ambulance_station:patient_transport":"yes","brand":"Österreichisches Rotes Kreuz","brand:short":"ÖRK","emergency":"ambulance_station","name":"Rotes Kreuz Ortsstelle Kilb","operator":"Österreichisches Rotes Kreuz, Landesverband Niederösterreich","short_name":"ÖRK"}},{"type":"Feature","geometry":{"type":"Point","coordinates":[15.8964387,48.4327433]},"properties":{"addr:city":"Kirchberg am Wagram","addr:housenumber":"46","addr:postcode":"3470","addr:street":"Kremser Straße","ambulance_station:patient_transport":"yes","brand":"Österreichisches Rotes Kreuz","emergency":"ambulance_station","name":"Rotes Kreuz Ortsstelle Kirchberg am Wagram","operator":"Österreichisches Rotes Kreuz, Landesverband Niederösterreich","short_name":"ÖRK","brand:short":"ÖRK"}},{"type":"Feature","geometry":{"type":"Point","coordinates":[16.3744912,47.8741984]},"properties":{"addr:city":"Ebenfurth","addr:housenumber":"2a","addr:postcode":"2490","addr:street":"Rennbahnstraße","ambulance_station:patient_transport":"yes","brand":"Österreichisches Rotes Kreuz","brand:short":"ÖRK","emergency":"ambulance_station","name":"Rotes Kreuz Ortsstelle Ebenfurth","operator":"Österreichisches Rotes Kreuz, Landesverband Niederösterreich","short_name":"ÖRK"}},{"type":"Feature","geometry":{"type":"Point","coordinates":[16.0931166,48.5635649]},"properties":{"addr:city":"Hollabrunn","addr:housenumber":"21","addr:postcode":"2020","addr:street":"Robert Löffler Straße","ambulance_station:emergency_doctor":"yes","ambulance_station:patient_transport":"yes","brand":"Österreichisches Rotes Kreuz","emergency":"ambulance_station","name":"Rotes Kreuz Bezirksstelle Hollabrunn","operator":"Österreichisches Rotes Kreuz, Landesverband Niederösterreich","short_name":"ÖRK","brand:short":"ÖRK"}},{"type":"Feature","geometry":{"type":"Point","coordinates":[14.7728293,48.0321497]},"properties":{"addr:city":"Kematen an der Ybbs","addr:housenumber":"1","addr:postcode":"3331","addr:street":"29. Straße","ambulance_station:patient_transport":"yes","brand":"Österreichisches Rotes Kreuz","emergency":"ambulance_station","name":"Österreichisches Rotes Kreuz Dienststelle Kematen/Ybbs","operator":"Österreichisches Rotes Kreuz Niederösterreich","short_name":"ÖRK","brand:short":"ÖRK"}},{"type":"Feature","geometry":{"type":"Point","coordinates":[14.6173764,48.0412216]},"properties":{"addr:city":"St. Peter in der Au","addr:housenumber":"1","addr:postcode":"3352","addr:street":"Burgholz","ambulance_station:patient_transport":"yes","brand":"Österreichisches Rotes Kreuz","emergency":"ambulance_station","name":"Rotes Kreuz Bezirksstelle St.Peter/Au","operator":"Österreichisches Rotes Kreuz, Landesverband Niederösterreich","short_name":"ÖRK","brand:short":"ÖRK"}},{"type":"Feature","geometry":{"type":"Point","coordinates":[15.8210766,48.6460642]},"properties":{"addr:city":"Eggenburg","addr:housenumber":"5","addr:postcode":"3730","addr:street":"Pulkauerstraße","ambulance_station:patient_transport":"yes","brand":"Österreichisches Rotes Kreuz","emergency":"ambulance_station","name":"Rotes Kreuz Ortsstelle Eggenburg","operator":"Österreichisches Rotes Kreuz, Landesverband Niederösterreich","short_name":"ÖRK","brand:short":"ÖRK"}},{"type":"Feature","geometry":{"type":"Point","coordinates":[16.2842677,48.0813338]},"properties":{"addr:city":"Mödling","addr:housenumber":"20","addr:postcode":"2340","addr:street":"Neusiedler Straße","ambulance_station:patient_transport":"yes","brand":"Österreichisches Rotes Kreuz","emergency":"ambulance_station","name":"Rotes Kreuz Bezirksstelle Mödling","operator":"Österreichisches Rotes Kreuz, Landesverband Niederösterreich","short_name":"ÖRK","brand:short":"ÖRK"}},{"type":"Feature","geometry":{"type":"Point","coordinates":[16.0189805,47.7071961]},"properties":{"addr:city":"Ternitz","addr:housenumber":"1G","addr:postcode":"2630","addr:street":"Hans-Czettel-Platz","ambulance_station:patient_transport":"yes","brand":"Arbeiter-Samariter-Bund Österreichs","emergency":"ambulance_station","name":"Samariterbund Ternitz-Pottschach","operator":"Arbeiter-Samariter-Bund Österreichs","short_name":"ASB","brand:short":"ASB"}},{"type":"Feature","geometry":{"type":"Point","coordinates":[15.0910372,47.9277186]},"properties":{"addr:city":"Gaming","addr:housenumber":"10","addr:postcode":"3292","addr:street":"Tormäuerstraße","ambulance_station:patient_transport":"yes","brand":"Österreichisches Rotes Kreuz","emergency":"ambulance_station","name":"Rotes Kreuz Dienststelle Gaming","operator":"Österreichisches Rotes Kreuz","short_name":"ÖRK","brand:short":"ÖRK"}},{"type":"Feature","geometry":{"type":"Point","coordinates":[16.2207948,47.954073]},"properties":{"addr:city":"Kottingbrunn","addr:housenumber":"1","addr:postcode":"2542","addr:street":"Dammgasse","ambulance_station:patient_transport":"yes","brand":"Österreichisches Rotes Kreuz","emergency":"ambulance_station","name":"Rotes Kreuz Bezirksstelle Kottingbrunn","operator":"Österreichisches Rotes Kreuz, Landesverband Niederösterreich","short_name":"ÖRK","brand:short":"ÖRK"}},{"type":"Feature","geometry":{"type":"Point","coordinates":[15.7041051,47.8131524]},"properties":{"addr:city":"Schwarzau im Gebirge","addr:housenumber":"69","addr:postcode":"2662","ambulance_station:patient_transport":"yes","brand":"Österreichisches Rotes Kreuz","emergency":"ambulance_station","name":"Rotes Kreuz Ortsstelle Schwarzau im Gebirge","operator":"Österreichisches Rotes Kreuz, Landesverband Niederösterreich","short_name":"ÖRK","brand:short":"ÖRK"}},{"type":"Feature","geometry":{"type":"Point","coordinates":[16.2083625,48.3308241]},"properties":{"addr:city":"St. Andrä-Wördern","addr:housenumber":"3","addr:postcode":"3423","addr:street":"Bahngasse","ambulance_station:patient_transport":"yes","brand":"Österreichisches Rotes Kreuz","emergency":"ambulance_station","name":"Rotes Kreuz Dienststelle St. Andrä-Wördern","operator":"Österreichisches Rotes Kreuz, Landesverband Niederösterreich","short_name":"ÖRK","brand:short":"ÖRK"}},{"type":"Feature","geometry":{"type":"Point","coordinates":[16.343015,48.1202608]},"properties":{"addr:city":"Vösendorf","addr:housenumber":"1a","addr:postcode":"2331","addr:street":"Am Schlossplatz","ambulance_station:patient_transport":"yes","brand":"Österreichisches Rotes Kreuz","emergency":"ambulance_station","name":"Rotes Kreuz Ortsstelle Vösendorf","operator":"Österreichisches Rotes Kreuz, Landesverband Niederösterreich","short_name":"ÖRK","brand:short":"ÖRK"}},{"type":"Feature","geometry":{"type":"Point","coordinates":[15.6608064,48.0461555]},"properties":{"addr:city":"St. Veit an der Gölsen","addr:housenumber":"1","addr:postcode":"3161","addr:street":"Bauhofstraße","ambulance_station:patient_transport":"yes","brand":"Arbeiter-Samariter-Bund Österreichs","emergency":"ambulance_station","name":"Samariterbund St.Veit an der Gölsen","operator":"Arbeiter-Samariter-Bund Österreichs","short_name":"ASB","brand:short":"ASB"}},{"type":"Feature","geometry":{"type":"Point","coordinates":[14.9553779,48.5655623]},"properties":{"addr:city":"Groß Gerungs","addr:housenumber":"107","addr:postcode":"3920","addr:street":"Kreuzberg","ambulance_station:emergency_doctor":"yes","ambulance_station:patient_transport":"yes","brand":"Arbeiter-Samariter-Bund Österreichs","emergency":"ambulance_station","name":"Samariterbund Groß Gerungs","operator":"Arbeiter-Samariter-Bund Österreichs","short_name":"ASB","brand:short":"ASB"}},{"type":"Feature","geometry":{"type":"Point","coordinates":[15.9331302,48.5283972]},"properties":{"addr:city":"Ziersdorf","addr:housenumber":"28","addr:postcode":"3710","addr:street":"Erlenaugasse","ambulance_station:patient_transport":"yes","brand":"Österreichisches Rotes Kreuz","emergency":"ambulance_station","name":"Rotes Kreuz Bezirksstelle Ziersdorf","operator":"Österreichisches Rotes Kreuz, Landesverband Niederösterreich","short_name":"ÖRK","brand:short":"ÖRK"}},{"type":"Feature","geometry":{"type":"Point","coordinates":[15.4008934,48.3602402]},"properties":{"addr:city":"Spitz","addr:housenumber":"22","addr:postcode":"3620","addr:street":"Auf der Wehr","ambulance_station:patient_transport":"yes","brand":"Österreichisches Rotes Kreuz","emergency":"ambulance_station","name":"Rotes Kreuz Ortsstelle Spitz","operator":"Österreichisches Rotes Kreuz","short_name":"ÖRK","brand:short":"ÖRK"}},{"type":"Feature","geometry":{"type":"Point","coordinates":[16.2878388,47.6139182]},"properties":{"addr:city":"Wiesmath","addr:housenumber":"26","addr:postcode":"2811","addr:street":"Hauptstraße","ambulance_station:patient_transport":"yes","brand":"Österreichisches Rotes Kreuz","emergency":"ambulance_station","name":"Rotes Kreuz Ortsstelle Wiesmath","operator":"Österreichisches Rotes Kreuz, Landesverband Niederösterreich","short_name":"ÖRK","brand:short":"ÖRK"}},{"type":"Feature","geometry":{"type":"Point","coordinates":[16.0551151,47.8187773]},"properties":{"addr:city":"Hohe Wand","addr:housenumber":"273","addr:postcode":"2724","addr:street":"Ortsstraße","ambulance_station:patient_transport":"yes","brand":"Österreichisches Rotes Kreuz","emergency":"ambulance_station","name":"Rotes Kreuz Ortsstelle Maiersdorf","operator":"Österreichisches Rotes Kreuz, Landesverband Niederösterreich","short_name":"ÖRK","brand:short":"ÖRK"}},{"type":"Feature","geometry":{"type":"Point","coordinates":[16.2484267,47.8193015]},"properties":{"addr:city":"Wiener Neustadt","addr:housenumber":"31-33","addr:postcode":"2700","addr:street":"Grazer Straße","ambulance_station:patient_transport":"yes","brand":"Arbeiter-Samariter-Bund Österreichs","emergency":"ambulance_station","name":"Samariterbund LV Wiener Neustadt","operator":"Arbeiter-Samariter-Bund Österreichs","short_name":"ASB","brand:short":"ASB"}},{"type":"Feature","geometry":{"type":"Point","coordinates":[14.8866138,48.5742948]},"properties":{"addr:city":"Langschlag","addr:housenumber":"114","addr:postcode":"3921","addr:street":"Franz Diebl Straße","ambulance_station:patient_transport":"yes","brand":"Österreichisches Rotes Kreuz","emergency":"ambulance_station","name":"Rotes Kreuz Ortsstelle Langschlag","operator":"Österreichisches Rotes Kreuz, Landesverband Niederösterreich","short_name":"ÖRK","brand:short":"ÖRK"}},{"type":"Feature","geometry":{"type":"Point","coordinates":[15.7414307,48.0461465]},"properties":{"addr:city":"Rohrbach an der Gölsen","addr:housenumber":"2","addr:postcode":"3163","addr:street":"Lindenstraße","ambulance_station:patient_transport":"yes","brand":"Österreichisches Rotes Kreuz","emergency":"ambulance_station","name":"Rotes Kreuz Ortsstelle Rohrbach an der Gölsen","operator":"Österreichisches Rotes Kreuz, Landesverband Niederösterreich","short_name":"ÖRK","brand:short":"ÖRK"}},{"type":"Feature","geometry":{"type":"Point","coordinates":[16.0950093,47.7250514]},"properties":{"addr:city":"Neunkirchen","addr:housenumber":"4","addr:postcode":"2620","addr:street":"Rotkreuz-Straße","ambulance_station:emergency_doctor":"yes","ambulance_station:patient_transport":"yes","brand":"Österreichisches Rotes Kreuz","emergency":"ambulance_station","name":"Rotes Kreuz Bezirksstelle Neunkirchen","operator":"Österreichisches Rotes Kreuz","short_name":"ÖRK","brand:short":"ÖRK"}},{"type":"Feature","geometry":{"type":"Point","coordinates":[16.5807068,48.5665109]},"properties":{"addr:city":"Mistelbach","addr:postcode":"2130","addr:street":"Liechtensteinstraße","ambulance_station:emergency_doctor":"yes","ambulance_station:patient_transport":"yes","brand":"Österreichisches Rotes Kreuz","emergency":"ambulance_station","name":"Rotes Kreuz Bezirksstelle Ortsstelle Mistelbach","operator":"Österreichisches Rotes Kreuz, Landesverband Niederösterreich","short_name":"ÖRK","brand:short":"ÖRK"}},{"type":"Feature","geometry":{"type":"Point","coordinates":[14.5751833,48.1123479]},"properties":{"addr:city":"Haag","addr:housenumber":"9","addr:postcode":"3350","addr:street":"Elisabethstraße","ambulance_station:patient_transport":"yes","brand":"Österreichisches Rotes Kreuz","emergency":"ambulance_station","name":"Rotes Kreuz Bezirksstelle Haag","operator":"Österreiches Rotes Kreuz, Landesverband Niederösterreich","short_name":"ÖRK","brand:short":"ÖRK"}},{"type":"Feature","geometry":{"type":"Point","coordinates":[15.4901577,48.515998]},"properties":{"addr:city":"Gföhl","addr:housenumber":"6","addr:postcode":"3542","addr:street":"Oberes Bayerland","ambulance_station:patient_transport":"yes","brand":"Österreichisches Rotes Kreuz","brand:short":"ÖRK","emergency":"ambulance_station","name":"Rotes Kreuz Ortsstelle Gföhl","operator":"Österreichisches Rotes Kreuz, Landesverband Niederösterreich","short_name":"ÖRK"}},{"type":"Feature","geometry":{"type":"Point","coordinates":[15.123848,48.868117]},"properties":{"addr:city":"Heidenreichstein","addr:housenumber":"13","addr:postcode":"3860","addr:street":"Litschauer Straße","ambulance_station:patient_transport":"yes","brand":"Österreichisches Rotes Kreuz","emergency":"ambulance_station","name":"Rotes Kreuz Ortsstelle Heidenreichstein","operator":"Österreichisches Rotes Kreuz, Landesverband Niederösterreich","short_name":"ÖRK","brand:short":"ÖRK"}},{"type":"Feature","geometry":{"type":"Point","coordinates":[15.3760555,47.8721384]},"properties":{"addr:city":"Annaberg","addr:housenumber":"129","addr:postcode":"3222","ambulance_station:patient_transport":"yes","brand":"Österreichisches Rotes Kreuz","emergency":"ambulance_station","name":"Rotes Kreuz Dienststelle Annaberg","operator":"Österreichisches Rotes Kreuz, Landesverband Niederösterreich","short_name":"ÖRK","brand:short":"ÖRK"}},{"type":"Feature","geometry":{"type":"Point","coordinates":[15.3248778,48.0491693]},"properties":{"addr:city":"Texing","addr:housenumber":"1","addr:postcode":"3242","addr:street":"Dorfplatz","ambulance_station:patient_transport":"yes","brand":"Österreichisches Rotes Kreuz","emergency":"ambulance_station","name":"Rotes Kreuz Ortsstelle Texing","operator":"Österreichisches Rotes Kreuz, Landesverband Niederösterreich","short_name":"ÖRK","brand:short":"ÖRK"}},{"type":"Feature","geometry":{"type":"Point","coordinates":[14.9556677,48.4944305]},"properties":{"addr:city":"Arbesbach","addr:housenumber":"35","addr:postcode":"3925","ambulance_station:patient_transport":"yes","brand":"Österreichisches Rotes Kreuz","emergency":"ambulance_station","name":"Rotes Kreuz Ortsstelle Arbesbach","operator":"Österreichisches Rotes Kreuz, Landesverband Niederösterreich","short_name":"ÖRK","brand:short":"ÖRK"}},{"type":"Feature","geometry":{"type":"Point","coordinates":[15.1544824,48.375026]},"properties":{"addr:city":"Martinsberg","addr:housenumber":"4","addr:postcode":"3664","addr:street":"Bahnstraße","ambulance_station:patient_transport":"yes","brand":"Österreichisches Rotes Kreuz","emergency":"ambulance_station","name":"Rotes Kreuz Ortsstelle Martinsberg","operator":"Österreichisches Rotes Kreuz, Landesverband Niederösterreich","short_name":"ÖRK","brand:short":"ÖRK"}},{"type":"Feature","geometry":{"type":"Point","coordinates":[15.7553972,48.2581172]},"properties":{"addr:city":"Kapelln","addr:housenumber":"5","addr:postcode":"3141","addr:street":"Hauptstraße","ambulance_station:patient_transport":"yes","brand":"Österreichisches Rotes Kreuz","emergency":"ambulance_station","name":"Rotes Kreuz Dienststelle Kapelln","operator":"Österreichisches Rotes Kreuz","short_name":"ÖRK","brand:short":"ÖRK"}},{"type":"Feature","geometry":{"type":"Point","coordinates":[16.630617,48.6659602]},"properties":{"addr:city":"Poysdorf","addr:housenumber":"82","addr:postcode":"2170","addr:street":"Auf der Schanz","ambulance_station:patient_transport":"yes","brand":"Österreichisches Rotes Kreuz","brand:short":"ÖRK","emergency":"ambulance_station","name":"Rotes Kreuz Ortsstelle Poysdorf","operator":"Österreichisches Rotes Kreuz, Landesverband Niederösterreich","short_name":"ÖRK"}},{"type":"Feature","geometry":{"type":"Point","coordinates":[16.071135,48.0620457]},"properties":{"addr:city":"Alland","addr:housenumber":"719","addr:postcode":"2534","addr:street":"Klausenstraße","ambulance_station:patient_transport":"yes","brand":"Österreichisches Rotes Kreuz","emergency":"ambulance_station","name":"Rotes Kreuz Dienststelle Alland","operator":"Österreichisches Rotes Kreuz, Landesverband Niederösterreich","short_name":"ÖRK","brand:short":"ÖRK"}},{"type":"Feature","geometry":{"type":"Point","coordinates":[15.5117296,48.201084]},"properties":{"addr:city":"Prinzersdorf","addr:housenumber":"23","addr:postcode":"3385","addr:street":"Linzerstraße","ambulance_station:patient_transport":"yes","brand":"Österreichisches Rotes Kreuz","brand:short":"ÖRK","emergency":"ambulance_station","name":"Rotes Kreuz Ortsstelle Prinzersdorf","operator":"Österreichisches Rotes Kreuz, Landesverband Niederösterreich","short_name":"ÖRK"}},{"type":"Feature","geometry":{"type":"Point","coordinates":[15.6605171,48.667817]},"properties":{"addr:city":"Horn","addr:housenumber":"10b","addr:postcode":"3580","addr:street":"Spitalgasse","ambulance_station:emergency_doctor":"yes","ambulance_station:patient_transport":"yes","brand":"Österreichisches Rotes Kreuz","emergency":"ambulance_station","name":"Rotes Kreuz Bezirksstelle Horn","operator":"Österreichisches Rotes Kreuz, Landesverband Niederösterreich","short_name":"ÖRK","brand:short":"ÖRK"}},{"type":"Feature","geometry":{"type":"Point","coordinates":[16.2072016,48.0557396]},"properties":{"addr:city":"Gaaden","addr:housenumber":"29","addr:postcode":"2531","addr:street":"Hauptstraße","ambulance_station:patient_transport":"yes","brand":"Arbeiter-Samariter-Bund Österreichs","emergency":"ambulance_station","name":"Samariterbund Gaaden-Wienerwald","operator":"Arbeiter-Samariter-Bund Österreichs","short_name":"ASB","brand:short":"ASB"}},{"type":"Feature","geometry":{"type":"Point","coordinates":[15.6087711,48.0414412]},"properties":{"addr:city":"Traisen","addr:housenumber":"78a","addr:postcode":"3160","addr:street":"Mariazeller Straße","ambulance_station:patient_transport":"yes","brand":"Arbeiter-Samariter-Bund Österreichs","emergency":"ambulance_station","name":"Samariterbund Traisen","operator":"Arbeiter-Samariter-Bund Österreichs","short_name":"ASB","brand:short":"ASB"}},{"type":"Feature","geometry":{"type":"Point","coordinates":[15.3223368,47.980505]},"properties":{"addr:city":"Frankenfels","addr:housenumber":"44","addr:postcode":"3213","addr:street":"Rosenbühelrotte","ambulance_station:patient_transport":"yes","brand":"Arbeiter-Samariter-Bund Österreichs","emergency":"ambulance_station","name":"Samariterbund Frankenfels - Schwarzenbach","operator":"Arbeiter-Samariter-Bund Österreichs","short_name":"ASB","brand:short":"ASB"}},{"type":"Feature","geometry":{"type":"Point","coordinates":[15.3893411,48.2044551]},"properties":{"addr:city":"Loosdorf","addr:housenumber":"60","addr:postcode":"3382","addr:street":"Linzer Straße","ambulance_station:patient_transport":"yes","brand":"Arbeiter-Samariter-Bund Österreichs","emergency":"ambulance_station","name":"Samariterbund Loosdorf","operator":"Arbeiter-Samariter-Bund Österreichs","short_name":"ASB","brand:short":"ASB"}},{"type":"Feature","geometry":{"type":"Point","coordinates":[16.8803649,48.1828984]},"properties":{"addr:city":"Engelhartstetten","addr:housenumber":"3","addr:postcode":"2292","addr:street":"Friedhofallee","ambulance_station:patient_transport":"yes","brand":"Österreichisches Rotes Kreuz","brand:short":"ÖRK","emergency":"ambulance_station","name":"Rotes Kreuz Dienststelle Engelhartstetten","operator":"Rotes Kreuz Bezirksstelle Gänserndorf-Marchegg","short_name":"ÖRK"}},{"type":"Feature","geometry":{"type":"Point","coordinates":[15.5644941,48.2586378]},"properties":{"addr:city":"Karlstetten","addr:housenumber":"5","addr:postcode":"3121","addr:street":"Wachaustraße","ambulance_station:patient_transport":"yes","brand":"Österreichisches Rotes Kreuz","emergency":"ambulance_station","name":"Rotes Kreuz Ortsstelle Karlstetten-Neidling","operator":"Österreichisches Rotes Kreuz, Landesverband Niederösterreich","short_name":"ÖRK","brand:short":"ÖRK"}},{"type":"Feature","geometry":{"type":"Point","coordinates":[15.7448824,48.3511749]},"properties":{"addr:city":"Traismauer","addr:housenumber":"16","addr:postcode":"3133","addr:street":"Gartenring","ambulance_station:patient_transport":"yes","brand":"Arbeiter-Samariter-Bund Österreichs","emergency":"ambulance_station","name":"Samariterbund Traismauer","operator":"Arbeiter-Samariter-Bund Österreichs","short_name":"ASB","brand:short":"ASB"}},{"type":"Feature","geometry":{"type":"Point","coordinates":[15.5915701,48.3201619]},"properties":{"addr:city":"Oberwölbling","addr:housenumber":"15","addr:postcode":"3124","addr:street":"Oberer Markt","ambulance_station:patient_transport":"yes","brand":"Österreichisches Rotes Kreuz","emergency":"ambulance_station","name":"Rotes Kreuz Ortsstelle Oberwölbling","operator":"Österreichisches Rotes Kreuz, Landesverband Niederösterreich","short_name":"ÖRK","brand:short":"ÖRK"}},{"type":"Feature","geometry":{"type":"Point","coordinates":[15.7360405,47.8953114]},"properties":{"addr:city":"Rohr im Gebirge","addr:housenumber":"24","addr:postcode":"2663","ambulance_station:patient_transport":"yes","brand":"Österreichisches Rotes Kreuz","emergency":"ambulance_station","name":"Rotes Kreuz Ortsstelle Rohr im Gebirge","operator":"Österreichisches Rotes Kreuz, Landesverband Niederösterreich","short_name":"ÖRK","brand:short":"ÖRK"}},{"type":"Feature","geometry":{"type":"Point","coordinates":[15.4905613,47.9301713]},"properties":{"addr:city":"Türnitz","addr:housenumber":"27","addr:postcode":"3184","addr:street":"Markt","ambulance_station:patient_transport":"yes","brand":"Österreichisches Rotes Kreuz","emergency":"ambulance_station","name":"Rotes Kreuz Ortsstelle Türnitz","operator":"Österreichisches Rotes Kreuz, Landesverband Niederösterreich","short_name":"ÖRK","brand:short":"ÖRK"}},{"type":"Feature","geometry":{"type":"Point","coordinates":[16.822648,48.2260605]},"properties":{"addr:city":"Lassee","addr:housenumber":"3","addr:postcode":"2291","addr:street":"Stift Melk-Gasse","ambulance_station:patient_transport":"yes","brand":"Österreichisches Rotes Kreuz","brand:short":"ÖRK","emergency":"ambulance_station","name":"Rotes Kreuz Dienststelle Lassee","operator":"Rotes Kreuz Bezirksstelle Gänserndorf-Marchegg","short_name":"ÖRK"}},{"type":"Feature","geometry":{"type":"Point","coordinates":[16.4769292,47.9388674]},"properties":{"addr:city":"Deutsch Brodersdorf","addr:housenumber":"2","addr:postcode":"2443","addr:street":"Burgenlandstraße","ambulance_station:patient_transport":"yes","brand":"Österreichisches Rotes Kreuz","emergency":"ambulance_station","name":"Rotes Kreuz Dienststelle Deutsch Brodersdorf","operator":"Österreichisches Rotes Kreuz, Landesverband Niederösterreich","short_name":"ÖRK","brand:short":"ÖRK"}},{"type":"Feature","geometry":{"type":"Point","coordinates":[15.473545,48.3037218]},"properties":{"addr:city":"Gansbach","addr:housenumber":"3","addr:postcode":"3122","addr:street":"Göttweigergasse","ambulance_station:patient_transport":"yes","brand":"Arbeiter-Samariter-Bund Österreichs","emergency":"ambulance_station","name":"Samariterbund Dunkelsteinerwald","operator":"Arbeiter-Samariter-Bund Österreichs","short_name":"ASB","brand:short":"ASB"}},{"type":"Feature","geometry":{"type":"Point","coordinates":[16.9049876,48.606558]},"properties":{"addr:city":"Hohenau an der March","addr:housenumber":"1","addr:postcode":"2273","addr:street":"Rathausplatz","ambulance_station:patient_transport":"yes","brand":"Österreichisches Rotes Kreuz","brand:short":"ÖRK","emergency":"ambulance_station","name":"Rotes Kreuz Ortsstelle Hohenau an der March","operator":"Rotes Kreuz Landesverband Niederösterreich","short_name":"ÖRK"}},{"type":"Feature","geometry":{"type":"Point","coordinates":[15.9514805,48.7546199]},"properties":{"addr:city":"Retz","addr:housenumber":"1","addr:postcode":"2070","addr:street":"Jahnstraße","ambulance_station:emergency_doctor":"yes","ambulance_station:patient_transport":"yes","brand":"Österreichisches Rotes Kreuz","emergency":"ambulance_station","name":"Rotes Kreuz Bezirksstelle Retz","operator":"Österreichisches Rotes Kreuz, Landesverband Niederösterreich","short_name":"ÖRK","brand:short":"ÖRK"}},{"type":"Feature","geometry":{"type":"Point","coordinates":[15.66961,48.7993928]},"properties":{"addr:city":"Geras","addr:housenumber":"23","addr:postcode":"2093","addr:street":"Am Naturpark","ambulance_station:patient_transport":"yes","brand":"Österreichisches Rotes Kreuz","emergency":"ambulance_station","name":"Rotes Kreuz Ortsstelle Geras","operator":"Österreichisches Rotes Kreuz, Landesverband Niederösterreich","short_name":"ÖRK","brand:short":"ÖRK"}},{"type":"Feature","geometry":{"type":"Point","coordinates":[16.6502273,48.7580363]},"properties":{"addr:city":"Drasenhofen","addr:postcode":"2165","addr:street":"Bachgasse","ambulance_station:patient_transport":"yes","brand":"Österreichisches Rotes Kreuz","emergency":"ambulance_station","name":"Rotes Kreuz Ortsstelle Drasenhofen","operator":"Österreichisches Rotes Kreuz, Landesverband Niederösterreich","short_name":"ÖRK","brand:short":"ÖRK"}},{"type":"Feature","geometry":{"type":"Point","coordinates":[16.2604174,47.5893964]},"properties":{"addr:city":"Hollenthon","addr:housenumber":"1","addr:postcode":"2812","addr:street":"Florianigasse","ambulance_station:patient_transport":"yes","brand":"Österreichisches Rotes Kreuz","emergency":"ambulance_station","name":"Rotes Kreuz Ortsstelle Hollenthon-Lichtenegg","operator":"Österreichisches Rotes Kreuz, Landesverband Niederösterreich","short_name":"ÖRK","brand:short":"ÖRK"}}]}