{
  "type": "FeatureCollection",
  "generator": "overpass-turbo",
  "copyright": "The data included in this document is from www.openstreetmap.org. The data is made available under ODbL.",
  "timestamp": "2025-11-06T07:23:43Z",
  "features": [
    {
      "type": "Feature",
      "properties": {
        "@id": "way/51070160",
        "addr:city": "Salzburg",
        "addr:housename": "Rotes Kreuz Zentrale",
        "addr:housenumber": "32",
        "addr:postcode": "5020",
        "addr:street": "Sterneckstraße",
        "ambulance_station:patient_transport": "yes",
        "brand": "Österreichisches Rotes Kreuz",
        "brand:short": "ÖRK",
        "brand:wikidata": "Q168276",
        "brand:wikipedia": "de:Österreichisches Rotes Kreuz",
        "building": "yes",
        "construction_date": "2014-01-01;1996-01-01",
        "emergency": "ambulance_station",
        "int_name": "Red Cross Salzburg",
        "name": "Rotes Kreuz Bezirksstelle Salzburg Stadt Landesverband Salzburg",
        "operator": "Österreichisches Rotes Kreuz",
        "short_name": "ÖRK",
        "website": "https://www.roteskreuz.at/salzburg",
        "@geometry": "center"
      },
      "geometry": {
        "type": "Point",
        "coordinates": [
          13.0572764,
          47.8087121
        ]
      },
      "id": "way/51070160"
    },
    {
      "type": "Feature",
      "properties": {
        "@id": "way/82600629",
        "addr:city": "Abtenau",
        "addr:housenumber": "227",
        "addr:postcode": "5441",
        "addr:street": "Markt",
        "alt_name": "Rotes Kreuz Österreich Bezirksstelle Lammertal",
        "ambulance_station:patient_transport": "yes",
        "brand": "Österreichisches Rotes Kreuz",
        "brand:wikidata": "Q168276",
        "brand:wikipedia": "de:Österreichisches Rotes Kreuz",
        "building": "yes",
        "contact:email": "bezirksstelle.abtenau@s.roteskreuz.at",
        "emergency": "ambulance_station",
        "name": "Rotes Kreuz Bezirksstelle Abtenau",
        "operator": "Österreichisches Rotes Kreuz, Landesverband Salzburg",
        "short_name": "ÖRK",
        "@geometry": "center"
      },
      "geometry": {
        "type": "Point",
        "coordinates": [
          13.3474248,
          47.5652709
        ]
      },
      "id": "way/82600629"
    },
    {
      "type": "Feature",
      "properties": {
        "@id": "way/93089209",
        "addr:city": "Bad Hofgastein",
        "addr:country": "AT",
        "addr:housenumber": "1",
        "addr:postcode": "5630",
        "addr:street": "Zittrauergasse",
        "ambulance_station:emergency_doctor": "yes",
        "ambulance_station:patient_transport": "yes",
        "brand": "Österreichisches Rotes Kreuz",
        "brand:wikidata": "Q168276",
        "brand:wikipedia": "de:Österreichisches Rotes Kreuz",
        "building": "yes",
        "emergency": "ambulance_station",
        "name": "Rotes Kreuz Bezirksstelle Gastein",
        "operator": "Österreichisches Rotes Kreuz, Landesverband Salzburg",
        "operator:wikidata": "Q105577291",
        "short_name": "ÖRK",
        "website": "https://www.roteskreuz.at/salzburg/gastein/bezirksstelle-gastein",
        "@geometry": "center"
      },
      "geometry": {
        "type": "Point",
        "coordinates": [
          13.1135288,
          47.1492843
        ]
      },
      "id": "way/93089209"
    },
    {
      "type": "Feature",
      "properties": {
        "@id": "way/99237999",
        "addr:city": "Sankt Johann im Pongau",
        "addr:country": "AT",
        "addr:housenumber": "17",
        "addr:postcode": "5600",
        "addr:street": "Reinbachsiedlung",
        "ambulance_station:patient_transport": "yes",
        "brand": "Österreichisches Rotes Kreuz",
        "brand:wikidata": "Q168276",
        "brand:wikipedia": "de:Österreichisches Rotes Kreuz",
        "building": "yes",
        "construction_date": "2018-01-01;1989-01-01",
        "emergency": "ambulance_station",
        "name": "Rotes Kreuz Bezirksstelle St. Johann",
        "operator": "Österreichisches Rotes Kreuz",
        "short_name": "ÖRK",
        "website": "https://www.roteskreuz.at/salzburg/pongau/st-johann-im-pongau",
        "@geometry": "center"
      },
      "geometry": {
        "type": "Point",
        "coordinates": [
          13.1905453,
          47.3415325
        ]
      },
      "id": "way/99237999"
    },
    {
      "type": "Feature",
      "properties": {
        "@id": "way/100984307",
        "addr:city": "Radstadt",
        "addr:housenumber": "13",
        "addr:postcode": "5550",
        "addr:street": "Tauernstraße",
        "ambulance_station:emergency_doctor": "yes",
        "ambulance_station:patient_transport": "yes",
        "brand": "Österreichisches Rotes Kreuz",
        "brand:wikidata": "Q168276",
        "brand:wikipedia": "de:Österreichisches Rotes Kreuz",
        "building": "yes",
        "building:levels": "3",
        "construction_date": "2007-01-01",
        "description": "Notfall-Rettungsdienst",
        "email": "bezirksstelle.radstadt@s.roteskreuz.at",
        "emergency": "ambulance_station",
        "name": "Rotes Kreuz Bezirksstelle Radstadt",
        "operator": "Österreichisches Rotes Kreuz, Landesverband Salzburg",
        "operator:wikidata": "Q105577291",
        "operator:wikipedia": "de:Österreichisches Rotes Kreuz",
        "phone": "+4364524244",
        "short_name": "ÖRK",
        "website": "https://www.roteskreuz.at/salzburg/radstadt/bezirksstelle-radstadt",
        "@geometry": "center"
      },
      "geometry": {
        "type": "Point",
        "coordinates": [
          13.473994,
          47.3821582
        ]
      },
      "id": "way/100984307"
    },
    {
      "type": "Feature",
      "properties": {
        "@id": "way/132357175",
        "addr:city": "St. Martin bei Lofer",
        "addr:country": "AT",
        "addr:housenumber": "45",
        "addr:postcode": "5092",
        "addr:street": "Dorf",
        "ambulance_station:patient_transport": "yes",
        "brand": "Österreichisches Rotes Kreuz",
        "brand:wikidata": "Q168276",
        "brand:wikipedia": "de:Österreichisches Rotes Kreuz",
        "building": "yes",
        "construction_date": "2004-01-01;1972-01-01",
        "emergency": "ambulance_station",
        "name": "Rotes Kreuz Dienststelle St. Martin bei Lofer",
        "operator": "Österreichisches Rotes Kreuz",
        "short_name": "ÖRK",
        "@geometry": "center"
      },
      "geometry": {
        "type": "Point",
        "coordinates": [
          12.7046418,
          47.5679707
        ]
      },
      "id": "way/132357175"
    },
    {
      "type": "Feature",
      "properties": {
        "@id": "way/158982798",
        "addr:city": "Hallein",
        "addr:country": "AT",
        "addr:housenumber": "2",
        "addr:postcode": "5400",
        "addr:street": "Wiestal Landesstraße",
        "alt_name": "Rotes Kreuz Österreich Bezirksstelle Tennengau",
        "ambulance_station:patient_transport": "yes",
        "brand": "Österreichisches Rotes Kreuz",
        "brand:wikidata": "Q168276",
        "brand:wikipedia": "de:Österreichisches Rotes Kreuz",
        "building": "yes",
        "emergency": "ambulance_station",
        "name": "Rotes Kreuz Bezirksstelle Hallein",
        "operator": "Österreichisches Rotes Kreuz",
        "short_name": "ÖRK",
        "website": "https://www.roteskreuz.at/salzburg/tennengau/tennengau",
        "@geometry": "center"
      },
      "geometry": {
        "type": "Point",
        "coordinates": [
          13.1022378,
          47.6851501
        ]
      },
      "id": "way/158982798"
    },
    {
      "type": "Feature",
      "properties": {
        "@id": "way/164106904",
        "addr:city": "Mattsee",
        "addr:country": "AT",
        "addr:housenumber": "15",
        "addr:postcode": "5163",
        "addr:street": "Fischinger Straße",
        "ambulance_station:patient_transport": "yes",
        "brand": "Österreichisches Rotes Kreuz",
        "brand:wikidata": "Q168276",
        "brand:wikipedia": "de:Österreichisches Rotes Kreuz",
        "building": "yes",
        "emergency": "ambulance_station",
        "name": "Rotes Kreuz Dienststelle Mattsee",
        "operator": "Österreichisches Rotes Kreuz, Landesverband Salzburg",
        "short_name": "ÖRK",
        "@geometry": "center"
      },
      "geometry": {
        "type": "Point",
        "coordinates": [
          13.099862,
          47.9721019
        ]
      },
      "id": "way/164106904"
    },
    {
      "type": "Feature",
      "properties": {
        "@id": "way/196639503",
        "addr:city": "Zell am See",
        "addr:country": "AT",
        "addr:housenumber": "14",
        "addr:postcode": "5700",
        "addr:street": "Paracelsusstraße",
        "ambulance_station:emergency_doctor": "yes",
        "ambulance_station:patient_transport": "yes",
        "brand": "Österreichisches Rotes Kreuz",
        "brand:wikidata": "Q168276",
        "brand:wikipedia": "de:Österreichisches Rotes Kreuz",
        "building": "yes",
        "construction_date": "2005-01-01",
        "email": "bezirksstelle.pinzgau@s.roteskreuz.at",
        "emergency": "ambulance_station",
        "name": "Rotes Kreuz Bezirksstelle Zell am See",
        "operator": "Österreichisches Rotes Kreuz, Landesverband Salzburg",
        "operator:wikidata": "Q105577291",
        "phone": "+43 6542 787",
        "short_name": "ÖRK",
        "website": "https://www.roteskreuz.at/salzburg/pinzgau/zell-am-see",
        "@geometry": "center"
      },
      "geometry": {
        "type": "Point",
        "coordinates": [
          12.8159249,
          47.3395965
        ]
      },
      "id": "way/196639503"
    },
    {
      "type": "Feature",
      "properties": {
        "@id": "way/233753716",
        "addr:city": "Saalbach",
        "addr:housenumber": "783",
        "addr:postcode": "5753",
        "addr:street": "Forstwiesenweg",
        "ambulance_station:patient_transport": "yes",
        "brand": "Österreichisches Rotes Kreuz",
        "brand:wikidata": "Q168276",
        "brand:wikipedia": "de:Österreichisches Rotes Kreuz",
        "building": "yes",
        "construction_date": "2012-01-01;1978-01-01",
        "emergency": "ambulance_station",
        "name": "Rotes Kreuz Dienststelle Saalbach",
        "operator": "Österreichisches Rotes Kreuz, Landesverband Salzburg",
        "operator:wikidata": "Q105577291",
        "short_name": "ÖRK",
        "website": "https://www.roteskreuz.at/salzburg/pinzgau/saalbach",
        "@geometry": "center"
      },
      "geometry": {
        "type": "Point",
        "coordinates": [
          12.6477315,
          47.3887276
        ]
      },
      "id": "way/233753716"
    },
    {
      "type": "Feature",
      "properties": {
        "@id": "way/256422005",
        "addr:city": "Bischofshofen",
        "addr:country": "AT",
        "addr:housenumber": "56c",
        "addr:postcode": "5500",
        "addr:street": "Gasteiner Straße",
        "ambulance_station:patient_transport": "yes",
        "brand": "Österreichisches Rotes Kreuz",
        "brand:wikidata": "Q168276",
        "brand:wikipedia": "de:Österreichisches Rotes Kreuz",
        "building": "yes",
        "construction_date": "2011-01-01;1974-01-01",
        "emergency": "ambulance_station",
        "name": "Rotes Kreuz Dienststelle Bischofshofen",
        "opening_hours": "24/7",
        "operator": "Österreichisches Rotes Kreuz, Landesverband Salzburg",
        "operator:wikidata": "Q105577291",
        "operator:wikipedia": "de:Österreichisches Rotes Kreuz",
        "short_name": "ÖRK",
        "website": "https://www.roteskreuz.at/salzburg/pongau/bischofshofen",
        "@geometry": "center"
      },
      "geometry": {
        "type": "Point",
        "coordinates": [
          13.2158013,
          47.408687
        ]
      },
      "id": "way/256422005"
    },
    {
      "type": "Feature",
      "properties": {
        "@id": "way/288569010",
        "addr:city": "Maishofen",
        "addr:country": "AT",
        "addr:housenumber": "43",
        "addr:postcode": "5751",
        "addr:street": "Zellerstraße",
        "ambulance_station:patient_transport": "yes",
        "at_bev:addr_date": "2017-10-01",
        "building": "yes",
        "contact:phone": "+43 6542 57966",
        "emergency": "ambulance_station",
        "name": "Grünes Kreuz Zell am See",
        "operator": "Grünes Kreuz",
        "website": "https://www.krankentransporte.at/",
        "wikidata": "Q306624",
        "@geometry": "center"
      },
      "geometry": {
        "type": "Point",
        "coordinates": [
          12.7992324,
          47.3434421
        ]
      },
      "id": "way/288569010"
    },
    {
      "type": "Feature",
      "properties": {
        "@id": "way/289442271",
        "addr:city": "Hof bei Salzburg",
        "addr:country": "AT",
        "addr:housenumber": "10",
        "addr:place": "Baderluck",
        "addr:postcode": "5322",
        "ambulance_station:patient_transport": "yes",
        "at_bev:addr_date": "2017-10-01",
        "brand": "Österreichisches Rotes Kreuz",
        "brand:short": "ÖRK",
        "brand:wikidata": "Q168276",
        "brand:wikipedia": "de:Österreichisches Rotes Kreuz",
        "building": "yes",
        "emergency": "ambulance_station",
        "name": "Rotes Kreuz Dienststelle Hof",
        "operator": "Österreichisches Rotes Kreuz, Landesverband Salzburg",
        "short_name": "ÖRK",
        "@geometry": "center"
      },
      "geometry": {
        "type": "Point",
        "coordinates": [
          13.2372886,
          47.8113223
        ]
      },
      "id": "way/289442271"
    },
    {
      "type": "Feature",
      "properties": {
        "@id": "way/622325893",
        "ambulance_station:patient_transport": "yes",
        "brand": "Österreichisches Rotes Kreuz",
        "brand:short": "ÖRK",
        "brand:wikidata": "Q168276",
        "brand:wikipedia": "de:Österreichisches Rotes Kreuz",
        "building": "yes",
        "construction_date": "2018-05-01;1970-01-01",
        "emergency": "ambulance_station",
        "loc_name": "Dienststelle Straßwalchen",
        "name": "Rotes Kreuz Dienststelle Straßwalchen",
        "operator": "Österreichisches Rotes Kreuz, Landesverband Salzburg",
        "operator:wikidata": "Q105577291",
        "short_name": "ÖRK",
        "@geometry": "center"
      },
      "geometry": {
        "type": "Point",
        "coordinates": [
          13.2446697,
          47.9765089
        ]
      },
      "id": "way/622325893"
    },
    {
      "type": "Feature",
      "properties": {
        "@id": "way/871768242",
        "addr:city": "Saalfelden am Steinernen Meer",
        "addr:housenumber": "20",
        "addr:postcode": "5760",
        "addr:street": "Zellerstraße",
        "ambulance_station:patient_transport": "yes",
        "brand": "Österreichisches Rotes Kreuz",
        "brand:wikidata": "Q168276",
        "brand:wikipedia": "de:Österreichisches Rotes Kreuz",
        "building": "yes",
        "emergency": "ambulance_station",
        "name": "Rotes Kreuz Dienststelle Saalfelden",
        "operator": "Österreichisches Rotes Kreuz, Landesverband Salzburg",
        "operator:wikidata": "Q105577291",
        "short_name": "ÖRK",
        "@geometry": "center"
      },
      "geometry": {
        "type": "Point",
        "coordinates": [
          12.8335665,
          47.4250191
        ]
      },
      "id": "way/871768242"
    },
    {
      "type": "Feature",
      "properties": {
        "@id": "node/920294841",
        "addr:city": "Strobl",
        "addr:housenumber": "3",
        "addr:postcode": "5350",
        "addr:street": "Alte Bundesstraße",
        "ambulance_station:patient_transport": "yes",
        "brand": "Österreichisches Rotes Kreuz",
        "brand:short": "ÖRK",
        "brand:wikidata": "Q168276",
        "brand:wikipedia": "de:Österreichisches Rotes Kreuz",
        "construction_date": "2001-11-01;1978-01-01",
        "emergency": "ambulance_station",
        "name": "Rotes Kreuz Dienststelle Strobl",
        "operator": "Österreichisches Rotes Kreuz, Landesverband Salzburg",
        "operator:wikidata": "Q105577291",
        "short_name": "ÖRK",
        "website": "https://www.roteskreuz.at/salzburg/flachgau/strobl"
      },
      "geometry": {
        "type": "Point",
        "coordinates": [
          13.4954926,
          47.7135625
        ]
      },
      "id": "node/920294841"
    },
    {
      "type": "Feature",
      "properties": {
        "@id": "way/977862567",
        "addr:city": "Sankt Michael im Lungau",
        "addr:country": "AT",
        "addr:housenumber": "223",
        "addr:postcode": "5582",
        "addr:street": "Gerlgasse",
        "ambulance_station:patient_transport": "yes",
        "at_bev:addr_date": "2018-04-02",
        "brand": "Österreichisches Rotes Kreuz",
        "brand:wikidata": "Q168276",
        "brand:wikipedia": "de:Österreichisches Rotes Kreuz",
        "building": "fire_station",
        "construction_date": "2016-01-01;1970-01-01",
        "emergency": "ambulance_station",
        "name": "Rotes Kreuz Dienststelle St. Michael",
        "operator": "Österreichisches Rotes Kreuz, Landesverband Salzburg",
        "operator:wikidata": "Q105577291",
        "short_name": "ÖRK",
        "@geometry": "center"
      },
      "geometry": {
        "type": "Point",
        "coordinates": [
          13.6545222,
          47.0982841
        ]
      },
      "id": "way/977862567"
    },
    {
      "type": "Feature",
      "properties": {
        "@id": "way/1184279317",
        "addr:city": "Tamsweg",
        "addr:country": "AT",
        "addr:housenumber": "1",
        "addr:postcode": "5580",
        "addr:street": "Josef-Ehrenreich-Straße",
        "ambulance_station:emergency_doctor": "yes",
        "ambulance_station:patient_transport": "yes",
        "at_bev:addr_date": "2018-04-02",
        "brand": "Österreichisches Rotes Kreuz",
        "brand:short": "ÖRK",
        "brand:wikidata": "Q168276",
        "brand:wikipedia": "de:Österreichisches Rotes Kreuz",
        "building": "yes",
        "emergency": "ambulance_station",
        "name": "Rotes Kreuz Bezirksstelle Tamsweg",
        "operator": "Österreichisches Rotes Kreuz, Landesverband Salzburg",
        "operator:wikidata": "Q105577291",
        "short_name": "ÖRK",
        "website": "https://www.roteskreuz.at/salzburg/lungau/tamsweg",
        "@geometry": "center"
      },
      "geometry": {
        "type": "Point",
        "coordinates": [
          13.810363,
          47.1309417
        ]
      },
      "id": "way/1184279317"
    },
    {
      "type": "Feature",
      "properties": {
        "@id": "way/1184279318",
        "addr:city": "Seekirchen am Wallersee",
        "addr:country": "AT",
        "addr:housenumber": "33",
        "addr:postcode": "5201",
        "addr:street": "Mühlbachstraße",
        "ambulance_station:patient_transport": "yes",
        "brand": "Österreichisches Rotes Kreuz",
        "brand:wikidata": "Q168276",
        "brand:wikipedia": "de:Österreichisches Rotes Kreuz",
        "building": "yes",
        "email": "seekirchen@s.roteskreuz.at",
        "emergency": "ambulance_station",
        "name": "Rotes Kreuz Dienststelle Seekirchen-Eugendorf",
        "opening_hours": "Mo-Su open \"24h\"",
        "operator": "Österreichisches Rotes Kreuz, Landesverband Salzburg",
        "phone": "+43 6212 2144",
        "short_name": "ÖRK",
        "website": "https://www.roteskreuz.at/salzburg/flachgau/seekirchen-eugendorf",
        "@geometry": "center"
      },
      "geometry": {
        "type": "Point",
        "coordinates": [
          13.1186126,
          47.895855
        ]
      },
      "id": "way/1184279318"
    },
    {
      "type": "Feature",
      "properties": {
        "@id": "node/2656302165",
        "addr:city": "Mauterndorf",
        "addr:housenumber": "370",
        "addr:postcode": "5570",
        "addr:street": "Markt",
        "ambulance_station:patient_transport": "yes",
        "brand": "Österreichisches Rotes Kreuz",
        "brand:wikidata": "Q168276",
        "brand:wikipedia": "de:Österreichisches Rotes Kreuz",
        "check_date": "2025-07-05",
        "emergency": "ambulance_station",
        "name": "Rotes Kreuz Dienststelle Mauterndorf",
        "operator": "Österreichisches Rotes Kreuz, Landesverband Salzburg",
        "short_name": "ÖRK"
      },
      "geometry": {
        "type": "Point",
        "coordinates": [
          13.6821174,
          47.1339507
        ]
      },
      "id": "node/2656302165"
    },
    {
      "type": "Feature",
      "properties": {
        "@id": "node/3941676337",
        "addr:city": "Lamprechtshausen",
        "addr:country": "AT",
        "addr:housenumber": "1",
        "addr:postcode": "5112",
        "addr:street": "Schulstraße",
        "ambulance_station:patient_transport": "yes",
        "brand": "Österreichisches Rotes Kreuz",
        "brand:wikidata": "Q168276",
        "brand:wikipedia": "de:Österreichisches Rotes Kreuz",
        "emergency": "ambulance_station",
        "name": "Rotes Kreuz Dienststelle Lamprechtshausen",
        "operator": "Österreichisches Rotes Kreuz, Landesverband Salzburg",
        "phone": "+43 6274 6626",
        "short_name": "ÖRK",
        "website": "https://www.roteskreuz.at/salzburg/flachgau/lamprechtshausen"
      },
      "geometry": {
        "type": "Point",
        "coordinates": [
          12.9567458,
          47.9925977
        ]
      },
      "id": "node/3941676337"
    },
    {
      "type": "Feature",
      "properties": {
        "@id": "node/4200886488",
        "addr:city": "Golling an der Salzach",
        "addr:country": "AT",
        "addr:housenumber": "252",
        "addr:postcode": "5440",
        "addr:street": "Markt",
        "ambulance_station:patient_transport": "yes",
        "brand": "Österreichisches Rotes Kreuz",
        "brand:wikidata": "Q168276",
        "brand:wikipedia": "de:Österreichisches Rotes Kreuz",
        "emergency": "ambulance_station",
        "name": "Rotes Kreuz Dienststelle Golling",
        "operator": "Österreichisches Rotes Kreuz, Landesverband Salzburg",
        "short_name": "ÖRK",
        "website": "https://www.roteskreuz.at/salzburg/tennengau/golling"
      },
      "geometry": {
        "type": "Point",
        "coordinates": [
          13.1670814,
          47.5965881
        ]
      },
      "id": "node/4200886488"
    },
    {
      "type": "Feature",
      "properties": {
        "@id": "node/5745981355",
        "addr:city": "Werfen",
        "addr:country": "AT",
        "addr:housenumber": "8",
        "addr:postcode": "5450",
        "addr:street": "Markt",
        "ambulance_station:patient_transport": "yes",
        "at_bev:addr_date": "2017-10-01",
        "brand": "Österreichisches Rotes Kreuz",
        "brand:wikidata": "Q168276",
        "brand:wikipedia": "de:Österreichisches Rotes Kreuz",
        "emergency": "ambulance_station",
        "name": "Rotes Kreuz Dienststelle Werfen",
        "operator": "Österreichisches Rotes Kreuz, Landesverband Salzburg",
        "operator:wikidata": "Q105577291",
        "short_name": "ÖRK"
      },
      "geometry": {
        "type": "Point",
        "coordinates": [
          13.1869465,
          47.47895
        ]
      },
      "id": "node/5745981355"
    },
    {
      "type": "Feature",
      "properties": {
        "@id": "node/8474809442",
        "addr:city": "Salzburg",
        "addr:housenumber": "18A",
        "addr:postcode": "5020",
        "addr:street": "Michael-Walz-Gasse",
        "ambulance_station:patient_transport": "yes",
        "brand": "Arbeiter-Samariter-Bund Österreichs",
        "brand:wikidata": "Q627072",
        "emergency": "ambulance_station",
        "name": "Samariterbund Salzburg",
        "operator": "Arbeiter-Samariter-Bund Österreichs",
        "website": "https://www.samariterbund.eu/"
      },
      "geometry": {
        "type": "Point",
        "coordinates": [
          13.0101813,
          47.8012831
        ]
      },
      "id": "node/8474809442"
    },
    {
      "type": "Feature",
      "properties": {
        "@id": "node/9150227381",
        "addr:city": "Schwarzach im Pongau",
        "addr:housenumber": "10",
        "addr:postcode": "5620",
        "addr:street": "Baderstraße",
        "ambulance_station:emergency_doctor": "yes",
        "ambulance_station:patient_transport": "yes",
        "brand": "Österreichisches Rotes Kreuz",
        "brand:wikidata": "Q168276",
        "brand:wikipedia": "de:Österreichisches Rotes Kreuz",
        "construction_date": "2020-11-01;1984-01-01",
        "emergency": "ambulance_station",
        "name": "Rotes Kreuz Dienststelle Schwarzach",
        "operator": "Österreichisches Rotes Kreuz",
        "operator:wikidata": "Q168276",
        "operator:wikipedia": "de:Österreichisches Rotes Kreuz",
        "short_name": "ÖRK",
        "website": "https://www.roteskreuz.at/salzburg/pongau/schwarzach"
      },
      "geometry": {
        "type": "Point",
        "coordinates": [
          13.1564359,
          47.3211679
        ]
      },
      "id": "node/9150227381"
    },
    {
      "type": "Feature",
      "properties": {
        "@id": "node/9426807127",
        "addr:city": "Wald im Pinzgau",
        "addr:housenumber": "80",
        "addr:postcode": "5742",
        "addr:street": "Wald",
        "ambulance_station:patient_transport": "yes",
        "brand": "Österreichisches Rotes Kreuz",
        "brand:short": "ÖRK",
        "brand:wikidata": "Q168276",
        "brand:wikipedia": "de:Österreichisches Rotes Kreuz",
        "emergency": "ambulance_station",
        "name": "Rotes Kreuz Dienststelle Wald im Pinzgau",
        "operator": "Österreichisches Rotes Kreuz, Landesverband Salzburg",
        "short_name": "ÖRK"
      },
      "geometry": {
        "type": "Point",
        "coordinates": [
          12.2284034,
          47.2460746
        ]
      },
      "id": "node/9426807127"
    },
    {
      "type": "Feature",
      "properties": {
        "@id": "node/12488290390",
        "addr:city": "Rauris",
        "addr:country": "AT",
        "addr:housenumber": "8",
        "addr:postcode": "5661",
        "addr:street": "Wiesenweg",
        "ambulance_station:patient_transport": "yes",
        "at_bev:addr_date": "2022-04-01",
        "brand": "Österreichisches Rotes Kreuz",
        "brand:wikidata": "Q168276",
        "brand:wikipedia": "de:Österreichisches Rotes Kreuz",
        "building": "yes",
        "construction_date": "2025-01-01",
        "emergency": "ambulance_station",
        "name": "Rotes Kreuz Dienstelle Rauris",
        "operator": "Österreichisches Rotes Kreuz, Landesverband Salzburg",
        "operator:wikidata": "Q105577291",
        "short_name": "ÖRK"
      },
      "geometry": {
        "type": "Point",
        "coordinates": [
          12.9934039,
          47.2270528
        ]
      },
      "id": "node/12488290390"
    },
    {
      "type": "Feature",
      "properties": {
        "@id": "node/12488350490",
        "addr:city": "Mittersill",
        "addr:country": "AT",
        "addr:housenumber": "8",
        "addr:postcode": "5730",
        "addr:street": "Felberstraße",
        "ambulance_station:emergency_doctor": "yes",
        "ambulance_station:patient_transport": "yes",
        "at_bev:addr_date": "2017-10-01",
        "brand": "Österreichisches Rotes Kreuz",
        "brand:wikidata": "Q168276",
        "brand:wikipedia": "de:Österreichisches Rotes Kreuz",
        "building": "yes",
        "construction_date": "2024-12-01;1965-01-01",
        "emergency": "ambulance_station",
        "name": "Rotes Kreuz Dienststelle Mittersill",
        "operator": "Österreichisches Rotes Kreuz, Landesverband Salzburg",
        "operator:wikidata": "Q105577291",
        "short_name": "ÖRK",
        "website": "https://www.roteskreuz.at/salzburg/pinzgau/mittersill"
      },
      "geometry": {
        "type": "Point",
        "coordinates": [
          12.4841857,
          47.2808811
        ]
      },
      "id": "node/12488350490"
    }
  ]
}