{"type":"FeatureCollection","features":[{"type":"Feature","geometry":{"type":"Point","coordinates":[15.4553721,47.0547921]},"properties":{"addr:city":"Graz","addr:housenumber":"151","addr:postcode":"8010","addr:street":"Münzgrabenstraße","ambulance_station:emergency_doctor":"yes","ambulance_station:patient_transport":"yes","brand":"Österreichisches Rotes Kreuz","brand:short":"ÖRK","emergency":"ambulance_station","name":"Rotes Kreuz Bezirksstelle Graz Stadt","operator":"Österreichisches Rotes Kreuz","short_name":"ÖRK"}},{"type":"Feature","geometry":{"type":"Point","coordinates":[15.5672744,47.545116]},"properties":{"addr:city":"Krieglach","addr:housenumber":"49","addr:postcode":"8670","addr:street":"Alplstraße","ambulance_station:patient_transport":"yes","emergency":"ambulance_station","name":"Rotes Kreuz Ortstelle Krieglach","operator":"Österreichisches Rotes Kreuz","short_name":"ÖRK","brand":"Österreichisches Rotes Kreuz","brand:short":"ÖRK"}},{"type":"Feature","geometry":{"type":"Point","coordinates":[14.8228411,47.2152323]},"properties":{"addr:city":"Knittelfeld","addr:housenumber":"4a - 6","addr:postcode":"8720","addr:street":"Gaaler Straße","ambulance_station:patient_transport":"yes","emergency":"ambulance_station","name":"Rotes Kreuz Bezirksstelle Knittelfeld","operator":"Österreichisches Rotes Kreuz","brand":"Österreichisches Rotes Kreuz","brand:short":"ÖRK","short_name":"ÖRK"}},{"type":"Feature","geometry":{"type":"Point","coordinates":[15.5564615,46.7693003]},"properties":{"addr:city":"Wagna","addr:housenumber":"12","addr:postcode":"8435","addr:street":"Metlika Straße","ambulance_station:emergency_doctor":"yes","ambulance_station:patient_transport":"yes","brand":"Österreichisches Rotes Kreuz","emergency":"ambulance_station","name":"Rotes Kreuz Bezirksstelle Leibnitz","operator":"Österreichisches Rotes Kreuz","short_name":"ÖRK","brand:short":"ÖRK"}},{"type":"Feature","geometry":{"type":"Point","coordinates":[15.9652053,47.2731672]},"properties":{"addr:city":"Hartberg","addr:housenumber":"1","addr:postcode":"8230","addr:street":"Rotkreuzplatz","ambulance_station:emergency_doctor":"yes","ambulance_station:patient_transport":"yes","brand":"Österreichisches Rotes Kreuz","emergency":"ambulance_station","name":"Rotes Kreuz Bezirksstelle Ortsstelle Hartberg","operator":"Österreichisches Rotes Kreuz","short_name":"ÖRK","brand:short":"ÖRK"}},{"type":"Feature","geometry":{"type":"Point","coordinates":[15.7616828,46.7955244]},"properties":{"addr:city":"Sankt Peter am Ottersbach","addr:housenumber":"257","addr:postcode":"8093","addr:street":"Hauptstraße","ambulance_station:patient_transport":"yes","emergency":"ambulance_station","name":"Rotes Kreuz Ortsstelle Sankt Peter am Ottersbach","operator":"Österreichisches Rotes Kreuz","brand":"Österreichisches Rotes Kreuz","brand:short":"ÖRK","short_name":"ÖRK"}},{"type":"Feature","geometry":{"type":"Point","coordinates":[15.2645083,47.4234314]},"properties":{"addr:city":"Bruck an der Mur","addr:housenumber":"9","addr:postcode":"8600","addr:street":"Tragösser Straße","ambulance_station:emergency_doctor":"yes","ambulance_station:patient_transport":"yes","brand":"Österreichisches Rotes Kreuz","emergency":"ambulance_station","name":"Rotes Kreuz Bezirksstelle Ortsstelle Bruck-Mürzzuschlag","operator":"Österreichisches Rotes Kreuz","short_name":"ÖRK","brand:short":"ÖRK"}},{"type":"Feature","geometry":{"type":"Point","coordinates":[15.0849645,47.3778052]},"properties":{"addr:city":"Leoben","addr:housenumber":"1","addr:postcode":"8700","addr:street":"Rot Kreuz-Platz","ambulance_station:emergency_doctor":"yes","ambulance_station:patient_transport":"yes","brand":"Österreichisches Rotes Kreuz","brand:short":"ÖRK","emergency":"ambulance_station","name":"Rotes Kreuz Bezirksstelle Ortsstelle Leoben","operator":"Österreichisches Rotes Kreuz","short_name":"ÖRK"}},{"type":"Feature","geometry":{"type":"Point","coordinates":[14.1021555,47.5316883]},"properties":{"addr:city":"Stainach","addr:housenumber":"332","addr:postcode":"8950","addr:street":"Salzburgerstraße","ambulance_station:patient_transport":"yes","brand":"Österreichisches Rotes Kreuz","brand:short":"ÖRK","emergency":"ambulance_station","name":"Rotes Kreuz Ortsstelle Stainach","operator":"Österreichisches Rotes Kreuz Landesverband Stainach","short_name":"ÖRK"}},{"type":"Feature","geometry":{"type":"Point","coordinates":[15.3276164,47.273615]},"properties":{"addr:city":"Frohnleiten","addr:housenumber":"4","addr:postcode":"8130","addr:street":"Brucker Straße","ambulance_station:patient_transport":"yes","emergency":"ambulance_station","name":"Rotes Kreuz Ortsstelle Frohnleiten","operator":"Österreichisches Rotes Kreuz","brand":"Österreichisches Rotes Kreuz","brand:short":"ÖRK","short_name":"ÖRK"}},{"type":"Feature","geometry":{"type":"Point","coordinates":[15.609318,47.0548895]},"properties":{"addr:city":"Nestelbach bei Graz","addr:housenumber":"51","addr:postcode":"8302","ambulance_station:patient_transport":"yes","brand":"Österreichisches Rotes Kreuz","brand:short":"ÖRK","emergency":"ambulance_station","name":"Rotes Kreuz Ortsstelle Nestelbach","operator":"Österreichisches Rotes Kreuz","short_name":"ÖRK"}},{"type":"Feature","geometry":{"type":"Point","coordinates":[15.3343238,47.1357759]},"properties":{"addr:city":"Gratkorn","addr:housenumber":"21","addr:postcode":"8101","addr:street":"Brucker Straße","ambulance_station:patient_transport":"yes","brand":"Österreichisches Rotes Kreuz","emergency":"ambulance_station","name":"Rotes Kreuz Ortsstelle Gratkorn","operator":"Österreichisches Rotes Kreuz","brand:short":"ÖRK","short_name":"ÖRK"}},{"type":"Feature","geometry":{"type":"Point","coordinates":[15.4816408,46.9622598]},"properties":{"addr:city":"Kalsdorf bei Graz","addr:housenumber":"28","addr:postcode":"8401","addr:street":"Dorfstraße","ambulance_station:patient_transport":"yes","brand":"Österreichisches Rotes Kreuz","emergency":"ambulance_station","name":"Rotes Kreuz Ortsstelle Kalsdorf","operator":"Österreichisches Rotes Kreuz","short_name":"ÖRK","brand:short":"ÖRK"}},{"type":"Feature","geometry":{"type":"Point","coordinates":[15.1392981,47.0532797]},"properties":{"addr:city":"Voitsberg","addr:housenumber":"1","addr:postcode":"8570","addr:street":"Rot-Kreuz-Gasse","ambulance_station:emergency_doctor":"yes","ambulance_station:patient_transport":"yes","brand":"Österreichisches Rotes Kreuz","emergency":"ambulance_station","name":"Rotes Kreuz Bezirksstelle Ortsstelle Voitsberg-Köflach","operator":"Österreichisches Rotes Kreuz","short_name":"ÖRK","brand:short":"ÖRK"}},{"type":"Feature","geometry":{"type":"Point","coordinates":[15.2288915,46.8118098]},"properties":{"addr:city":"Deutschlandsberg","addr:housenumber":"31","addr:postcode":"8530","addr:street":"Radlpaßstraße","ambulance_station:emergency_doctor":"yes","ambulance_station:patient_transport":"yes","brand":"Österreichisches Rotes Kreuz","emergency":"ambulance_station","name":"Rotes Kreuz Bezirksstelle Dienststelle Deutschlandsberg","operator":"Österreichisches Rotes Kreuz","short_name":"ÖRK","brand:short":"ÖRK"}},{"type":"Feature","geometry":{"type":"Point","coordinates":[15.333705,46.9423395]},"properties":{"addr:city":"Lannach","addr:housenumber":"7","addr:postcode":"8502","addr:street":"Schwarzwiesenstraße","ambulance_station:patient_transport":"yes","brand":"Österreichisches Rotes Kreuz","emergency":"ambulance_station","name":"Rotes Kreuz Ortsstelle Lannach - St. Josef/Wstmk.","operator":"Österreichisches Rotes Kreuz","short_name":"ÖRK","brand:short":"ÖRK"}},{"type":"Feature","geometry":{"type":"Point","coordinates":[15.2889147,47.437559]},"properties":{"addr:city":"Kapfenberg","addr:housenumber":"3","addr:postcode":"8605","addr:street":"Schinitzhof","ambulance_station:patient_transport":"yes","brand":"Österreichisches Rotes Kreuz","emergency":"ambulance_station","name":"Rotes Kreuz Ortstelle Kapfenberg","operator":"Österreichisches Rotes Kreuz","short_name":"ÖRK","brand:short":"ÖRK"}},{"type":"Feature","geometry":{"type":"Point","coordinates":[15.4261127,47.0688789]},"properties":{"addr:city":"Graz","addr:housenumber":"4","addr:postcode":"8020","addr:street":"Prankergasse","ambulance_station:patient_transport":"yes","emergency":"ambulance_station","name":"Malteser Hospitaldienst Austria","operator":"Malteser Hospitaldienst Austria","brand":"Malteser Hospitaldienst Austria","brand:short":"MHD","short_name":"MHD"}},{"type":"Feature","geometry":{"type":"Point","coordinates":[15.3380855,47.114115]},"properties":{"addr:city":"Gratwein-Straßengel","addr:housenumber":"13","addr:postcode":"8111","addr:street":"Grazer Straße","ambulance_station:patient_transport":"yes","brand":"Österreichisches Rotes Kreuz","emergency":"ambulance_station","name":"Rotes Kreuz Ortsstelle Gratwein-Straßengel","operator":"Österreichisches Rotes Kreuz","short_name":"ÖRK","brand:short":"ÖRK"}},{"type":"Feature","geometry":{"type":"Point","coordinates":[15.6917034,47.2747885]},"properties":{"addr:city":"Anger","addr:housenumber":"12","addr:postcode":"8184","addr:street":"Roseggerstraße","ambulance_station:patient_transport":"yes","brand":"Österreichisches Rotes Kreuz","emergency":"ambulance_station","name":"Rotes Kreuz Ortstelle Anger","operator":"Österreichisches Rotes Kreuz","brand:short":"ÖRK","short_name":"ÖRK"}},{"type":"Feature","geometry":{"type":"Point","coordinates":[14.7445112,47.195385]},"properties":{"addr:city":"Zeltweg","addr:housenumber":"18b","addr:postcode":"8740","addr:street":"Bundesstraße","ambulance_station:emergency_doctor":"yes","ambulance_station:patient_transport":"yes","brand":"Österreichisches Rotes Kreuz","emergency":"ambulance_station","name":"Rotes Kreuz Stützpunkt Zeltweg","operator":"Österreichisches Rotes Kreuz","short_name":"ÖRK","brand:short":"ÖRK"}},{"type":"Feature","geometry":{"type":"Point","coordinates":[15.4520896,47.5108611]},"properties":{"addr:city":"Kindberg","addr:housenumber":"10","addr:postcode":"8650","addr:street":"Wiener Straße","ambulance_station:patient_transport":"yes","brand":"Österreichisches Rotes Kreuz","emergency":"ambulance_station","name":"Rotes Kreuz Ortsstelle Kindberg","operator":"Österreichisches Rotes Kreuz","brand:short":"ÖRK","short_name":"ÖRK"}},{"type":"Feature","geometry":{"type":"Point","coordinates":[15.2510615,46.6895928]},"properties":{"addr:city":"Eibiswald","addr:housenumber":"271","addr:postcode":"8552","ambulance_station:patient_transport":"yes","brand":"Österreichisches Rotes Kreuz","emergency":"ambulance_station","name":"Rotes Kreuz Ortstelle Eibiswald","operator":"Österreichisches Rotes Kreuz","short_name":"ÖRK","brand:short":"ÖRK"}},{"type":"Feature","geometry":{"type":"Point","coordinates":[14.3665404,47.5261103]},"properties":{"addr:city":"Rottenmann","addr:housenumber":"109c","addr:postcode":"8786","addr:street":"Hauptstraße","ambulance_station:emergency_doctor":"yes","ambulance_station:patient_transport":"yes","brand":"Österreichisches Rotes Kreuz","brand:short":"ÖRK","emergency":"ambulance_station","name":"Rotes Kreuz Ortstelle Rottenmann","operator":"Österreichisches Rotes Kreuz","short_name":"ÖRK"}},{"type":"Feature","geometry":{"type":"Point","coordinates":[14.6426784,47.1705124]},"properties":{"addr:city":"Judenburg","addr:housenumber":"102","addr:postcode":"8750","addr:street":"Burggasse","ambulance_station:patient_transport":"yes","brand":"Österreichisches Rotes Kreuz","emergency":"ambulance_station","name":"Rotes Kreuz Bezirksstelle Ortsstelle Judenburg","operator":"Österreichisches Rotes Kreuz, Landesverband Steiermark","short_name":"ÖRK","brand:short":"ÖRK"}},{"type":"Feature","geometry":{"type":"Point","coordinates":[15.7711791,46.7083108]},"properties":{"addr:city":"Mureck","addr:housenumber":"3","addr:postcode":"8480","addr:street":"Bahnhofstraße","ambulance_station:patient_transport":"yes","brand":"Österreichisches Rotes Kreuz","emergency":"ambulance_station","name":"Rotes Kreuz Ortstelle Mureck","operator":"Österreichisches Rotes Kreuz","short_name":"ÖRK","brand:short":"ÖRK"}},{"type":"Feature","geometry":{"type":"Point","coordinates":[15.6902343,47.3499809]},"properties":{"addr:city":"Birkfeld","addr:housenumber":"1","addr:postcode":"8190","addr:street":"Sportplatz-Siedlung","ambulance_station:patient_transport":"yes","brand":"Österreichisches Rotes Kreuz","emergency":"ambulance_station","name":"Rotes Kreuz Ortsstelle Birkfeld","operator":"Österreichisches Rotes Kreuz","brand:short":"ÖRK","short_name":"ÖRK"}},{"type":"Feature","geometry":{"type":"Point","coordinates":[15.2541017,46.9297117]},"properties":{"addr:city":"Sankt Stefan ob Stainz","addr:housenumber":"132","addr:postcode":"8511","addr:street":"Sankt Stefan ob Stainz","ambulance_station:patient_transport":"yes","emergency":"ambulance_station","name":"Grünes Kreuz Steiermark Ortsstelle St. Stefan ob Stainz","operator":"Grünes Kreuz Steiermark","brand":"Grünes Kreuz","brand:short":"GK","short_name":"GK"}},{"type":"Feature","geometry":{"type":"Point","coordinates":[15.2545254,46.9294654]},"properties":{"addr:city":"Sankt Stefan ob Stainz","addr:housenumber":"16","addr:postcode":"8511","ambulance_station:patient_transport":"yes","brand":"Österreichisches Rotes Kreuz","brand:short":"ÖRK","emergency":"ambulance_station","name":"Rotes Kreuz Ortstelle St. Stefan/Stainz","operator":"Österreichisches Rotes Kreuz","short_name":"ÖRK"}},{"type":"Feature","geometry":{"type":"Point","coordinates":[15.6355426,47.2127124]},"properties":{"addr:city":"Weiz","addr:housenumber":"79","addr:postcode":"8160","addr:street":"Franz-Pichler-Straße","ambulance_station:emergency_doctor":"yes","ambulance_station:patient_transport":"yes","brand":"Österreichisches Rotes Kreuz","emergency":"ambulance_station","name":"Rotes Kreuz Bezirksstelle Weiz","operator":"Österreichisches Rotes Kreuz","short_name":"ÖRK","brand:short":"ÖRK"}},{"type":"Feature","geometry":{"type":"Point","coordinates":[15.878956,46.9525841]},"properties":{"addr:city":"Feldbach","addr:housenumber":"57","addr:postcode":"8330","addr:street":"Schillerstraße","ambulance_station:emergency_doctor":"yes","ambulance_station:patient_transport":"yes","brand":"Österreichisches Rotes Kreuz","emergency":"ambulance_station","name":"Rotes Kreuz Bezirksstelle Feldbach","operator":"Österreichisches Rotes Kreuz","short_name":"ÖRK","brand:short":"ÖRK"}},{"type":"Feature","geometry":{"type":"Point","coordinates":[13.9470017,47.554839]},"properties":{"addr:city":"Bad Mitterndorf","addr:housenumber":"77","addr:postcode":"8983","ambulance_station:patient_transport":"yes","brand":"Österreichisches Rotes Kreuz","emergency":"ambulance_station","name":"Rotes Kreuz Ortsstelle Bad Mitterndorf","operator":"Österreichisches Rotes Kreuz","short_name":"ÖRK","brand:short":"ÖRK"}},{"type":"Feature","geometry":{"type":"Point","coordinates":[14.6748166,47.2102709]},"properties":{"addr:city":"Fohnsdorf","addr:housenumber":"8","addr:postcode":"8753","addr:street":"Winterbachgasse","ambulance_station:patient_transport":"yes","brand":"Österreichisches Rotes Kreuz","emergency":"ambulance_station","name":"Rotes Kreuz Ortsstelle Fohnsdorf","operator":"Österreichisches Rotes Kreuz","short_name":"ÖRK","brand:short":"ÖRK"}},{"type":"Feature","geometry":{"type":"Point","coordinates":[16.0871158,47.0465571]},"properties":{"addr:city":"Fürstenfeld","addr:housenumber":"4","addr:postcode":"8280","addr:street":"Felberweg","ambulance_station:emergency_doctor":"yes","ambulance_station:patient_transport":"yes","brand":"Österreichisches Rotes Kreuz","emergency":"ambulance_station","name":"Rotes Kreuz Bezirksstelle Fürstenfeld","operator":"Österreichisches Rotes Kreuz","short_name":"ÖRK","brand:short":"ÖRK"}},{"type":"Feature","geometry":{"type":"Point","coordinates":[14.2813865,47.2015129]},"properties":{"addr:city":"Oberwölz","addr:housenumber":"117","addr:postcode":"8832","ambulance_station:patient_transport":"yes","brand":"Österreichisches Rotes Kreuz","emergency":"ambulance_station","name":"Rotes Kreuz Ortsstelle Oberwölz","operator":"Österreichisches Rotes Kreuz, Landesverband Niederösterreich","short_name":"ÖRK","brand:short":"ÖRK"}},{"type":"Feature","geometry":{"type":"Point","coordinates":[15.4062666,47.0122722]},"properties":{"addr:housenumber":"10","addr:postcode":"8054","addr:street":"Haushamer Straße","ambulance_station:patient_transport":"yes","brand":"Österreichisches Rotes Kreuz","emergency":"ambulance_station","name":"Rotes Kreuz Ortsstelle Seiersberg","operator":"Österreichisches Rotes Kreuz","short_name":"ÖRK","brand:short":"ÖRK"}},{"type":"Feature","geometry":{"type":"Point","coordinates":[13.8996981,47.4484803]},"properties":{"addr:city":"Gröbming","addr:housenumber":"897","addr:postcode":"8962","addr:street":"Horstigstraße","ambulance_station:patient_transport":"yes","emergency":"ambulance_station","name":"Rotes Kreuz Ortsstelle Gröbming","operator":"Österreichisches Rotes Kreuz Landesverband Steiermark","brand":"Österreichisches Rotes Kreuz","brand:short":"ÖRK","short_name":"ÖRK"}},{"type":"Feature","geometry":{"type":"Point","coordinates":[15.2362521,47.2251726]},"properties":{"addr:city":"Übelbach","addr:housenumber":"90","addr:postcode":"8124","addr:street":"Bahnhofstraße","ambulance_station:patient_transport":"yes","brand":"Österreichisches Rotes Kreuz","emergency":"ambulance_station","name":"Rotes Kreuz Ortsstelle Übelbach","operator":"Österreichisches Rotes Kreuz","short_name":"ÖRK","brand:short":"ÖRK"}},{"type":"Feature","geometry":{"type":"Point","coordinates":[15.4690378,46.6661941]},"properties":{"addr:city":"Leutschach an der Weinstraße","addr:housenumber":"15","addr:postcode":"8463","addr:street":"Marburger Straße","ambulance_station:patient_transport":"yes","brand":"Österreichisches Rotes Kreuz","emergency":"ambulance_station","name":"Rotes Kreuz Ortsstelle Leutschach","operator":"Österreichisches Rotes Kreuz","short_name":"ÖRK","brand:short":"ÖRK"}},{"type":"Feature","geometry":{"type":"Point","coordinates":[15.4091151,46.853773]},"properties":{"addr:city":"Preding","addr:housenumber":"17","addr:postcode":"8504","addr:street":"Südweg","ambulance_station:patient_transport":"yes","emergency":"ambulance_station","name":"Grünes Kreuz Regionalstelle Preding","operator":"Grünes Kreuz","brand":"Grünes Kreuz","brand:short":"GK","short_name":"GK"}},{"type":"Feature","geometry":{"type":"Point","coordinates":[15.7081225,47.108406]},"properties":{"addr:city":"Gleisdorf","addr:housenumber":"1","addr:postcode":"8200","addr:street":"Rot-Kreuz-Weg","ambulance_station:patient_transport":"yes","brand":"Österreichisches Rotes Kreuz","emergency":"ambulance_station","name":"Rotes Kreuz Ortsstelle Gleisdorf","operator":"Österreichisches Rotes Kreuz","short_name":"ÖRK","brand:short":"ÖRK"}},{"type":"Feature","geometry":{"type":"Point","coordinates":[13.7736147,47.6108132]},"properties":{"addr:city":"Bad Aussee","addr:housenumber":"341","addr:postcode":"8990","addr:street":"Marktleite","ambulance_station:emergency_doctor":"yes","ambulance_station:patient_transport":"yes","brand":"Österreichisches Rotes Kreuz","emergency":"ambulance_station","name":"Rotes Kreuz Ortsstelle Ausseerland","operator":"Österreichisches Rotes Kreuz, Landesverband Steiermark","short_name":"ÖRK","brand:short":"ÖRK"}},{"type":"Feature","geometry":{"type":"Point","coordinates":[15.5184615,46.8846226]},"properties":{"addr:city":"Wildon","addr:housenumber":"1","addr:postcode":"8410","addr:street":"Alte Reichsstraße","ambulance_station:patient_transport":"yes","brand":"Österreichisches Rotes Kreuz","emergency":"ambulance_station","name":"Rotes Kreuz Ortstelle Wildon","operator":"Österreichisches Rotes Kreuz","brand:short":"ÖRK","short_name":"ÖRK"}},{"type":"Feature","geometry":{"type":"Point","coordinates":[15.5544493,46.7174043]},"properties":{"addr:city":"Gamlitz","addr:housenumber":"94","addr:postcode":"8462","addr:street":"Eckberger Weinstraße","ambulance_station:patient_transport":"yes","brand":"Österreichisches Rotes Kreuz","emergency":"ambulance_station","name":"Rotes Kreuz Ortstelle Gamlitz","operator":"Österreichisches Rotes Kreuz","brand:short":"ÖRK","short_name":"ÖRK"}},{"type":"Feature","geometry":{"type":"Point","coordinates":[15.829295,46.8703901]},"properties":{"addr:city":"Gnas","addr:housenumber":"132","addr:postcode":"8342","ambulance_station:patient_transport":"yes","brand":"Österreichisches Rotes Kreuz","emergency":"ambulance_station","name":"Rotes Kreuz Ortsstelle Gnas","operator":"Österreichisches Rotes Kreuz","short_name":"ÖRK","brand:short":"ÖRK"}},{"type":"Feature","geometry":{"type":"Point","coordinates":[15.9021377,46.8638305]},"properties":{"addr:city":"Bad Gleichenberg","addr:housenumber":"5","addr:postcode":"8344","addr:street":"Gnaser Straße 5","ambulance_station:patient_transport":"yes","brand":"Österreichisches Rotes Kreuz","emergency":"ambulance_station","name":"Rotes Kreuz Ortsstelle Bad Gleichenberg","operator":"Österreichisches Rotes Kreuz","brand:short":"ÖRK","short_name":"ÖRK"}},{"type":"Feature","geometry":{"type":"Point","coordinates":[15.3392343,47.5567543]},"properties":{"addr:city":"Turnau","addr:housenumber":"220","addr:postcode":"8625","ambulance_station:patient_transport":"yes","brand":"Österreichisches Rotes Kreuz","emergency":"ambulance_station","name":"Rotes Kreuz Ortstelle Turnau","operator":"Österreichisches Rotes Kreuz","short_name":"ÖRK","brand:short":"ÖRK"}},{"type":"Feature","geometry":{"type":"Point","coordinates":[14.8280177,47.3989043]},"properties":{"addr:city":"Mautern in Steiermark","addr:housenumber":"1","addr:postcode":"8774","addr:street":"Rot Kreuz-Gasse","ambulance_station:patient_transport":"yes","brand":"Österreichisches Rotes Kreuz","brand:short":"ÖRK","emergency":"ambulance_station","name":"Rotes Kreuz Ortsstelle Mautern","operator":"Österreichisches Rotes Kreuz","short_name":"ÖRK"}},{"type":"Feature","geometry":{"type":"Point","coordinates":[13.6880463,47.3964016]},"properties":{"addr:city":"Schladming","addr:housenumber":"660","addr:postcode":"8970","addr:street":"Sportplatzgasse","ambulance_station:emergency_doctor":"yes","ambulance_station:patient_transport":"yes","brand":"Österreichisches Rotes Kreuz","brand:short":"ÖRK","emergency":"ambulance_station","name":"Rotes Kreuz Ortsstelle Schladming","operator":"Österreichisches Rotes Kreuz Landesverband Steiermark","short_name":"ÖRK"}},{"type":"Feature","geometry":{"type":"Point","coordinates":[14.6934215,47.0698033]},"properties":{"addr:city":"Obdach","addr:housenumber":"4","addr:postcode":"8742","addr:street":"Zeiner Platz","ambulance_station:patient_transport":"yes","brand":"Österreichisches Rotes Kreuz","emergency":"ambulance_station","name":"Rotes Kreuz Ortstelle Obdach","operator":"Österreichisches Rotes Kreuz","brand:short":"ÖRK","short_name":"ÖRK"}},{"type":"Feature","geometry":{"type":"Point","coordinates":[15.5173199,47.2809101]},"properties":{"addr:city":"Passail","addr:housenumber":"18","addr:postcode":"8162","addr:street":"Weizer Straße","ambulance_station:patient_transport":"yes","brand":"Österreichisches Rotes Kreuz","emergency":"ambulance_station","name":"Rotes Kreuz Ortstelle Passail","operator":"Österreichisches Rotes Kreuz","brand:short":"ÖRK","short_name":"ÖRK"}},{"type":"Feature","geometry":{"type":"Point","coordinates":[14.2598989,47.562133]},"properties":{"addr:city":"Liezen","addr:housenumber":"16","addr:postcode":"8940","addr:street":"Niederfeldstraße","ambulance_station:patient_transport":"yes","brand":"Österreichisches Rotes Kreuz","emergency":"ambulance_station","name":"Rotes Kreuz Bezirksstelle Ortsstelle Liezen","operator":"Österreichisches Rotes Kreuz Landesverband Steiermark","short_name":"ÖRK","brand:short":"ÖRK"}},{"type":"Feature","geometry":{"type":"Point","coordinates":[14.162369,47.1135405]},"properties":{"addr:city":"Murau","addr:housenumber":"16","addr:postcode":"8850","addr:street":"Märzenkeller","ambulance_station:emergency_doctor":"yes","ambulance_station:patient_transport":"yes","brand":"Österreichisches Rotes Kreuz","emergency":"ambulance_station","name":"Rotes Kreuz Bezirksstelle Murau","operator":"Österreichisches Rotes Kreuz","short_name":"ÖRK","brand:short":"ÖRK"}},{"type":"Feature","geometry":{"type":"Point","coordinates":[15.8442254,47.0520717]},"properties":{"addr:city":"Markt Hartmannsdorf","addr:housenumber":"356","addr:postcode":"8311","addr:street":"Heizwerkstraße","ambulance_station:patient_transport":"yes","brand":"Österreichisches Rotes Kreuz","emergency":"ambulance_station","name":"Rotes Kreuz Ortsstelle Markt Hartmannsdorf","operator":"Österreichisches Rotes Kreuz","short_name":"ÖRK","brand:short":"ÖRK"}},{"type":"Feature","geometry":{"type":"Point","coordinates":[15.396644,47.0376254]},"properties":{"addr:city":"Graz","addr:housenumber":"384","addr:postcode":"8054","addr:street":"Straßganger Straße","ambulance_station:patient_transport":"yes","brand":"Österreichisches Rotes Kreuz","brand:short":"ÖRK","emergency":"ambulance_station","name":"Rotes Kreuz Rettungsleitstelle Steiermark Stützpunkt Graz-West","operator":"Österreichisches Rotes Kreuz Landesverband Steiermark","short_name":"ÖRK"}},{"type":"Feature","geometry":{"type":"Point","coordinates":[15.6649991,46.9279964]},"properties":{"addr:city":"Kirchbach-Zerlach","addr:housenumber":"243","addr:postcode":"8082","ambulance_station:patient_transport":"yes","brand":"Österreichisches Rotes Kreuz","emergency":"ambulance_station","name":"Rotes Kreuz Ortsstelle Kirchbach","operator":"Österreichisches Rotes Kreuz","short_name":"ÖRK","brand:short":"ÖRK"}},{"type":"Feature","geometry":{"type":"Point","coordinates":[14.4307612,47.0690541]},"properties":{"addr:city":"Neumarkt in der Steiermark","addr:housenumber":"22","addr:postcode":"8820","addr:street":"Freimoosstraße","ambulance_station:patient_transport":"yes","brand":"Österreichisches Rotes Kreuz","emergency":"ambulance_station","name":"Rotes Kreuz Ortsstelle Neumarkt in der Steiermark","operator":"Österreichisches Rotes Kreuz, Landesverband Steiermark","short_name":"ÖRK","brand:short":"ÖRK"}},{"type":"Feature","geometry":{"type":"Point","coordinates":[14.4859645,47.4888196]},"properties":{"addr:city":"Trieben","addr:housenumber":"2","addr:postcode":"8784","addr:street":"Sonnbergstraße","ambulance_station:patient_transport":"yes","emergency":"ambulance_station","name":"Rotes Kreuz Ortstelle Trieben","operator":"Österreichisches Rotes Kreuz","brand":"Österreichisches Rotes Kreuz","brand:short":"ÖRK","short_name":"ÖRK"}},{"type":"Feature","geometry":{"type":"Point","coordinates":[16.0057742,46.9367187]},"properties":{"addr:city":"Fehring","addr:housenumber":"13","addr:postcode":"8350","addr:street":"Grazerstraße","ambulance_station:patient_transport":"yes","brand":"Österreichisches Rotes Kreuz","emergency":"ambulance_station","name":"Rotes Kreuz Ortsstelle Fehring","operator":"Österreichisches Rotes Kreuz","short_name":"ÖRK","brand:short":"ÖRK"}},{"type":"Feature","geometry":{"type":"Point","coordinates":[15.0098103,47.4274624]},"properties":{"addr:city":"Trofaiach","addr:housenumber":"13","addr:postcode":"8793","addr:street":"Roßmarkt","ambulance_station:patient_transport":"yes","brand":"Österreichisches Rotes Kreuz","emergency":"ambulance_station","name":"Rotes Kreuz Ortsstelle Trofaiach","operator":"Österreichisches Rotes Kreuz","short_name":"ÖRK","brand:short":"ÖRK"}},{"type":"Feature","geometry":{"type":"Point","coordinates":[15.8057408,47.2400794]},"properties":{"addr:city":"Stubenberg","addr:housenumber":"239","addr:postcode":"8223","ambulance_station:patient_transport":"yes","brand":"Österreichisches Rotes Kreuz","brand:short":"ÖRK","emergency":"ambulance_station","name":"Rotes Kreuz Ortstelle Stubenberg","operator":"Österreichisches Rotes Kreuz","short_name":"ÖRK"}},{"type":"Feature","geometry":{"type":"Point","coordinates":[15.2332352,47.5236875]},"properties":{"addr:city":"Thörl","addr:housenumber":"164","addr:postcode":"8621","ambulance_station:patient_transport":"yes","brand":"Österreichisches Rotes Kreuz","emergency":"ambulance_station","name":"Rotes Kreuz Ortstelle Thörl","operator":"Österreichisches Rotes Kreuz","short_name":"ÖRK","brand:short":"ÖRK"}},{"type":"Feature","geometry":{"type":"Point","coordinates":[15.6684935,47.6032384]},"properties":{"addr:city":"Mürzzuschlag","addr:housenumber":"34","addr:postcode":"8680","addr:street":"Grazer Straße","ambulance_station:emergency_doctor":"yes","ambulance_station:patient_transport":"yes","brand":"Österreichisches Rotes Kreuz","emergency":"ambulance_station","name":"Rotes Kreuz Bezirksstelle Mürzzuschlag","operator":"Österreichisches Rotes Kreuz","short_name":"ÖRK","brand:short":"ÖRK"}},{"type":"Feature","geometry":{"type":"Point","coordinates":[15.2684485,46.8932683]},"properties":{"addr:city":"Stainz","addr:housenumber":"5","addr:postcode":"8510","addr:street":"Friedhofweg","ambulance_station:patient_transport":"yes","brand":"Österreichisches Rotes Kreuz","emergency":"ambulance_station","name":"Rotes Kreuz Ortstelle Stainz","operator":"Österreichisches Rotes Kreuz","short_name":"ÖRK","brand:short":"ÖRK"}},{"type":"Feature","geometry":{"type":"Point","coordinates":[15.9309876,47.0865726]},"properties":{"addr:city":"Ilz","addr:housenumber":"258","addr:postcode":"8262","ambulance_station:patient_transport":"yes","emergency":"ambulance_station","name":"Rotes Kreuz Ortsstelle Ilz","operator":"Österreichisches Rotes Kreuz","brand":"Österreichisches Rotes Kreuz","brand:short":"ÖRK","short_name":"ÖRK"}},{"type":"Feature","geometry":{"type":"Point","coordinates":[15.7113302,46.9070619]},"properties":{"addr:city":"Sankt Stefan im Rosental","addr:housenumber":"38","addr:postcode":"8083","addr:street":"Schulstraße","ambulance_station:patient_transport":"yes","brand":"Österreichisches Rotes Kreuz","emergency":"ambulance_station","name":"Rotes Kreuz Ortstelle Sankt Stefan im Rosental","operator":"Österreichisches Rotes Kreuz","brand:short":"ÖRK","short_name":"ÖRK"}},{"type":"Feature","geometry":{"type":"Point","coordinates":[15.7213424,47.4849378]},"properties":{"addr:city":"Ratten","addr:housenumber":"51","addr:postcode":"8673","addr:street":"Kirchenviertel","ambulance_station:patient_transport":"yes","brand":"Österreichisches Rotes Kreuz","emergency":"ambulance_station","name":"Rotes Kreuz Ortsstelle Ratten","operator":"Österreichisches Rotes Kreuz","short_name":"ÖRK","brand:short":"ÖRK"}},{"type":"Feature","geometry":{"type":"Point","coordinates":[15.8656863,46.8084594]},"properties":{"addr:city":"Straden","addr:housenumber":"160","addr:postcode":"8345","addr:street":"Kronnersdorf","ambulance_station:patient_transport":"yes","brand":"Österreichisches Rotes Kreuz","emergency":"ambulance_station","name":"Rotes Kreuz Außenstelle Straden","operator":"Österreichisches Rotes Kreuz","short_name":"ÖRK","brand:short":"ÖRK"}},{"type":"Feature","geometry":{"type":"Point","coordinates":[15.8082071,47.1763347]},"properties":{"addr:city":"Pischelsdorf am Kulm","addr:housenumber":"500","addr:postcode":"8212","addr:street":"Pischelsdorf","ambulance_station:patient_transport":"yes","brand":"Österreichisches Rotes Kreuz","emergency":"ambulance_station","name":"Rotes Kreuz Ortsstelle Pischelsdorf","operator":"Österreichisches Rotes Kreuz","short_name":"ÖRK","brand:short":"ÖRK"}},{"type":"Feature","geometry":{"type":"Point","coordinates":[15.3467981,46.963957]},"properties":{"addr:city":"Lieboch","addr:housenumber":"7","addr:postcode":"8501","addr:street":"H. Thalhammer-Straße","ambulance_station:patient_transport":"yes","emergency":"ambulance_station","name":"Grünes Kreuz Regionalstelle Lieboch","operator":"Verein des Grünen Kreuzes Krankentransport- und Unfalldienst Steiermark","brand":"Grünes Kreuz","brand:short":"GK","short_name":"GK"}},{"type":"Feature","geometry":{"type":"Point","coordinates":[15.5869673,46.9541312]},"properties":{"addr:city":"Heiligenkreuz am Waasen","addr:housenumber":"2","addr:postcode":"8081","addr:street":"Leibnitzer Straße","ambulance_station:patient_transport":"yes","brand":"Österreichisches Rotes Kreuz","emergency":"ambulance_station","name":"Rotes Kreuz Ortsstelle Heiligenkreuz am Waasen","operator":"Österreichisches Rotes Kreuz","brand:short":"ÖRK","short_name":"ÖRK"}},{"type":"Feature","geometry":{"type":"Point","coordinates":[15.4393441,47.3899748]},"properties":{"addr:city":"Breitenau am Hochlantsch","addr:housenumber":"31","addr:postcode":"8614","addr:street":"Magnesitstraße","ambulance_station:patient_transport":"yes","brand":"Österreichisches Rotes Kreuz","emergency":"ambulance_station","name":"Rotes Kreuz Ortsstelle  Breitenau am Hochlantsch","operator":"Österreichisches Rotes Kreuz, Landesverband Steiermark","short_name":"ÖRK","brand:short":"ÖRK"}},{"type":"Feature","geometry":{"type":"Point","coordinates":[16.0123608,47.1689353]},"properties":{"addr:city":"Bad Waltersdorf","addr:housenumber":"321","addr:postcode":"8271","ambulance_station:patient_transport":"yes","brand":"Österreichisches Rotes Kreuz","emergency":"ambulance_station","name":"Rotes Kreuz Ortsstelle Bad Waltersdorf","operator":"Österreichisches Rotes Kreuz, Landesverband Steiermark","short_name":"ÖRK","brand:short":"ÖRK","ambulance_station:emergency_doctor":null}},{"type":"Feature","geometry":{"type":"Point","coordinates":[15.2664129,46.7161649]},"properties":{"addr:city":"Wies","addr:housenumber":"11","addr:postcode":"8551","addr:street":"Altenmarkter Straße","ambulance_station:patient_transport":"yes","emergency":"ambulance_station","name":"Grünes Kreuz Regionalstelle Wies","operator":"Grünes Kreuz Steiermark","brand":"Grünes Kreuz","brand:short":"GK","short_name":"RK"}},{"type":"Feature","geometry":{"type":"Point","coordinates":[16.0391224,47.066291]},"properties":{"addr:city":"Fürstenfeld","addr:housenumber":"171b","addr:postcode":"8280","addr:street":"Altenmarkt","ambulance_station:patient_transport":"yes","emergency":"ambulance_station","name":"Grünes Kreuz Regionalstelle Fürstenfeld","operator":"Grünes Kreuz Steiermark","brand":"Grünes Kreuz","brand:short":"GK","short_name":"RK"}},{"type":"Feature","geometry":{"type":"Point","coordinates":[15.3678743,46.7550873]},"properties":{"addr:city":"Gleinstätten","addr:housenumber":"27","addr:postcode":"8443","addr:street":"Gleinstätten","ambulance_station:patient_transport":"yes","emergency":"ambulance_station","name":"Grünes Kreuz Regionalstelle Gleinstätten","operator":"Grünes Kreuz Steiermark","brand":"Grünes Kreuz","brand:short":"GK","short_name":"RK"}},{"type":"Feature","geometry":{"type":"Point","coordinates":[15.396434,46.6779863]},"properties":{"addr:city":"Arnfels","addr:housenumber":"234","addr:postcode":"8454","addr:street":"Eibiswalder Straße","ambulance_station:patient_transport":"yes","brand":"Österreichisches Rotes Kreuz","emergency":"ambulance_station","name":"Rotes Kreuz Ortsstelle Arnfels","operator":"Österreichisches Rotes Kreuz, Landesverband Steiermark","short_name":"ÖRK","brand:short":"ÖRK"}},{"type":"Feature","geometry":{"type":"Point","coordinates":[14.8873001,47.5426075]},"properties":{"addr:city":"Eisenerz","addr:housenumber":"1","addr:postcode":"8790","addr:street":"Radmeisterstraße","ambulance_station:patient_transport":"yes","brand":"Österreichisches Rotes Kreuz","emergency":"ambulance_station","name":"Rotes Kreuz Ortsstelle Eisenerz","operator":"Österreichisches Rotes Kreuz","short_name":"ÖRK","brand:short":"ÖRK"}},{"type":"Feature","geometry":{"type":"Point","coordinates":[16.1009553,47.1708491]},"properties":{"addr:city":"Neudau","addr:housenumber":"2","addr:postcode":"8292","addr:street":"Alte Bahnhofstraße","ambulance_station:patient_transport":"yes","brand":"Österreichisches Rotes Kreuz","emergency":"ambulance_station","name":"Rotes Kreuz Ortsstelle Neudau","operator":"Österreichisches Rotes Kreuz","brand:short":"ÖRK","short_name":"ÖRK"}},{"type":"Feature","geometry":{"type":"Point","coordinates":[15.3646898,47.4730627]},"properties":{"addr:city":"Sankt Marein im Mürztal","addr:housenumber":"1a","addr:postcode":"8641","addr:street":"Hauptstraße","ambulance_station:patient_transport":"yes","brand":"Österreichisches Rotes Kreuz","emergency":"ambulance_station","name":"Rotes Kreuz Ortsstelle St. Marein / St. Lorenzen","operator":"Österreichisches Rotes Kreuz, Landesverband Steiermark","short_name":"ÖRK","brand:short":"ÖRK"}},{"type":"Feature","geometry":{"type":"Point","coordinates":[15.304927,47.7890097]},"properties":{"addr:city":"Mariazell","addr:housenumber":"6","addr:postcode":"8630","addr:street":"Spitalgasse","ambulance_station:patient_transport":"yes","brand":"Österreichisches Rotes Kreuz","emergency":"ambulance_station","name":"Rotes Kreuz Ortsstelle Mariazellerland","operator":"Österreichisches Rotes Kreuz","short_name":"ÖRK","brand:short":"ÖRK"}},{"type":"Feature","geometry":{"type":"Point","coordinates":[14.6504383,47.7240886]},"properties":{"addr:city":"Altenmarkt bei Sankt Gallen","addr:housenumber":"202","addr:postcode":"8934","addr:street":"Altenmarkt","ambulance_station:patient_transport":"yes","brand":"Österreichisches Rotes Kreuz","emergency":"ambulance_station","name":"Rotes Kreuz Ortsstelle Altenmarkt-Großreifling Standort Altenmarkt","operator":"Österreichisches Rotes Kreuz","short_name":"ÖRK","brand:short":"ÖRK"}},{"type":"Feature","geometry":{"type":"Point","coordinates":[15.9942911,46.6903967]},"properties":{"addr:city":"Bad Radkersburg","addr:housenumber":"17","addr:postcode":"8490","addr:street":"Dr. Schwaiger-Straße","ambulance_station:emergency_doctor":"yes","ambulance_station:patient_transport":"yes","brand":"Österreichisches Rotes Kreuz","emergency":"ambulance_station","name":"Rotes Kreuz Bezirksstelle Bad Radkersburg","operator":"Österreichisches Rotes Kreuz","short_name":"ÖRK","brand:short":"ÖRK"}},{"type":"Feature","geometry":{"type":"Point","coordinates":[14.7163882,47.6653031]},"properties":{"addr:city":"Altenmarkt bei St. Gallen","addr:housenumber":"202","addr:postcode":"8934","addr:street":"Altenmarkt","ambulance_station:patient_transport":"yes","brand":"Österreichisches Rotes Kreuz","emergency":"ambulance_station","name":"Rotes Kreuz Ortsstelle Großreifling","operator":"Österreichisches Rotes Kreuz","short_name":"ÖRK","brand:short":"ÖRK"}},{"type":"Feature","geometry":{"type":"Point","coordinates":[15.5330172,47.1608078]},"properties":{"addr:city":"Kumberg","addr:housenumber":"7","addr:postcode":"8062","addr:street":"Meierhöfenstraße","ambulance_station:patient_transport":"yes","brand":"Österreichisches Rotes Kreuz","emergency":"ambulance_station","name":"Rotes Kreuz Ortsstelle Kumberg","operator":"Österreichisches Rotes Kreuz","short_name":"ÖRK","brand:short":"ÖRK"}},{"type":"Feature","geometry":{"type":"Point","coordinates":[15.8791099,47.4057825]},"properties":{"addr:city":"Vorau","addr:housenumber":"412","addr:postcode":"8230","addr:street":"Vorau","ambulance_station:emergency_doctor":"yes","ambulance_station:patient_transport":"yes","brand":"Österreichisches Rotes Kreuz","emergency":"ambulance_station","name":"Rotes Kreuz Ortstelle Vorau","operator":"Österreichisches Rotes Kreuz","short_name":"ÖRK","brand:short":"ÖRK"}},{"type":"Feature","geometry":{"type":"Point","coordinates":[15.7675113,46.9860295]},"properties":{"addr:city":"Kirchberg an der Raab","addr:housenumber":"212","addr:postcode":"8324","ambulance_station:patient_transport":"yes","brand":"Österreichisches Rotes Kreuz","emergency":"ambulance_station","name":"Rotes Kreuz Ortstelle Kirchberg an der Raab","operator":"Österreichisches Rotes Kreuz","short_name":"ÖRK","brand:short":"ÖRK"}},{"type":"Feature","geometry":{"type":"Point","coordinates":[15.8343894,47.2997597]},"properties":{"addr:city":"Pöllau","addr:housenumber":"336","addr:postcode":"8225","addr:street":"Stiegengasse","ambulance_station:patient_transport":"yes","emergency":"ambulance_station","name":"Grünes Kreuz Regionalstelle Pöllauertal","operator":"Verein Grünes Kreuz Steiermark","brand":"Grünes Kreuz","brand:short":"GK","short_name":"GK"}},{"type":"Feature","geometry":{"type":"Point","coordinates":[14.9870734,47.6628303]},"properties":{"addr:city":"Wildalpen","addr:housenumber":"91","addr:postcode":"8924","addr:street":"Wildalpen","ambulance_station:patient_transport":"yes","brand":"Österreichisches Rotes Kreuz","emergency":"ambulance_station","name":"Rotes Kreuz Ortsstelle Wildalpen","operator":"Österreichisches Rotes Kreuz, Landesverband Steiermark","short_name":"ÖRK","brand:short":"ÖRK"}},{"type":"Feature","geometry":{"type":"Point","coordinates":[14.4572649,47.5731153]},"properties":{"addr:city":"Admont","addr:housenumber":"600","addr:postcode":"8911","addr:street":"Aignerstraße","ambulance_station:patient_transport":"yes","emergency":"ambulance_station","name":"Freiwillige Feuerwehr Admont Abteilung Rettungsdienst","operator":"Freiwillige Feuerwehr Admont","brand":"Freiwillige Feuerwehr Admont","brand:short":"FFA","short_name":"FFA"}},{"type":"Feature","geometry":{"type":"Point","coordinates":[15.8361342,47.3019178]},"properties":{"addr:city":"Pöllau","addr:housenumber":"569","addr:postcode":"8225","addr:street":"Froschauergasse","ambulance_station:patient_transport":"yes","brand":"Österreichisches Rotes Kreuz","emergency":"ambulance_station","name":"Rotes Kreuz Pöllau","operator":"Österreichisches Rotes Kreuz","short_name":"ÖRK","brand:short":"ÖRK"}},{"type":"Feature","geometry":{"type":"Point","coordinates":[15.6200687,47.5680425]},"properties":{"addr:city":"Langenwang","addr:housenumber":"13","addr:postcode":"8665","addr:street":"Grazer Straße","ambulance_station:patient_transport":"yes","brand":"Arbeiter-Samariter-Bund Österreichs","emergency":"ambulance_station","name":"Samariterbund Mürzzuschlag","operator":"Arbeiter-Samariter-Bund Österreichs","brand:short":"ASB","short_name":"ASB"}},{"type":"Feature","geometry":{"type":"Point","coordinates":[16.0597131,47.4304872]},"properties":{"addr:city":"Friedberg","addr:housenumber":"1","addr:postcode":"8240","addr:street":"Getreideweg","ambulance_station:patient_transport":"yes","brand":"Österreichisches Rotes Kreuz","emergency":"ambulance_station","name":"Rotes Kreuz Ortsstelle Friedberg","operator":"Österreichisches Rotes Kreuz, Landesverband Steiermark","short_name":"ÖRK","brand:short":"ÖRK"}}]}