{"type":"FeatureCollection","features":[{"type":"Feature","geometry":{"type":"Point","coordinates":[11.0690017,47.3032078]},"properties":{"addr:city":"Telfs","addr:housenumber":"9","addr:postcode":"6410","addr:street":"Marktplatz","alt_name":"ÖRK-Wache Telfs","ambulance_station:emergency_doctor":"yes","ambulance_station:patient_transport":"yes","brand":"Österreichisches Rotes Kreuz","brand:short":"ÖRK","emergency":"ambulance_station","name":"Rotes Kreuz Bezirksstelle Telfs","operator":"Rettungsdienst Tirol gGmbH","short_name":"ÖRK"}},{"type":"Feature","geometry":{"type":"Point","coordinates":[11.3771361,47.2548212]},"properties":{"addr:city":"Innsbruck","addr:housenumber":"149","addr:postcode":"6020","addr:street":"Innrain","alt_name":"Ortsstelle Innsbruck Stadt des Österreicheichischen Roten Kreuzes","ambulance_station:patient_transport":"yes","brand":"Österreichisches Rotes Kreuz","brand:short":"ÖRK","emergency":"ambulance_station","name":"Rotes Kreuz Bezirksstelle Innsbruck","operator":"Rettungsdienst Tirol gGmbH","short_name":"ÖRK"}},{"type":"Feature","geometry":{"type":"Point","coordinates":[12.3319356,46.9171853]},"properties":{"addr:city":"St. Jakob in Defereggen","addr:housenumber":"134","addr:postcode":"9963","ambulance_station:patient_transport":"yes","brand":"Österreichisches Rotes Kreuz","emergency":"ambulance_station","name":"Rotes Kreuz Ortsstelle St Jakob/Defereggen","operator":"Rettungsdienst Tirol gGmbH","short_name":"ÖRK","brand:short":"ÖRK"}},{"type":"Feature","geometry":{"type":"Point","coordinates":[10.7276637,47.4807706]},"properties":{"addr:city":"Reutte","addr:housenumber":"37","addr:postcode":"6600","addr:street":"Innsbrucker Straße","ambulance_station:patient_transport":"yes","brand":"Österreichisches Rotes Kreuz","emergency":"ambulance_station","name":"Rotes Kreuz Bezirksstelle Reutte","operator":"Rettungsdienst Tirol gGmbH","short_name":"ÖRK","brand:short":"ÖRK"}},{"type":"Feature","geometry":{"type":"Point","coordinates":[11.4376095,47.2670592]},"properties":{"addr:city":"Innsbruck","addr:housenumber":"49","addr:postcode":"6020","addr:street":"Valiergasse","ambulance_station:patient_transport":"yes","brand":"Arbeiter-Samariter-Bund Österreichs","emergency":"ambulance_station","name":"Samariterbund Tirol Dienststelle Innsbruck","operator":"Rettungsdienst Tirol gGmbH","brand:short":"ASB","short_name":"ASB"}},{"type":"Feature","geometry":{"type":"Point","coordinates":[11.8801066,47.4442486]},"properties":{"addr:city":"Kramsach","addr:housenumber":"7","addr:postcode":"6233","ambulance_station:emergency_doctor":"yes","ambulance_station:patient_transport":"yes","brand":"Österreichisches Rotes Kreuz","emergency":"ambulance_station","name":"Rotes Kreuz Ortsstelle Kramsach","operator":"Rettungsdienst Tirol gGmbH","short_name":"ÖRK","brand:short":"ÖRK"}},{"type":"Feature","geometry":{"type":"Point","coordinates":[12.1674512,47.5783282]},"properties":{"addr:city":"Kufstein","addr:housenumber":"4","addr:postcode":"6330","addr:street":"Weissachstraße","ambulance_station:patient_transport":"yes","brand":"Österreichisches Rotes Kreuz","emergency":"ambulance_station","name":"Rotes Kreuz Bezirksstelle Kufstein","operator":"Rettungsdienst Tirol gGmbH","short_name":"ÖRK","brand:short":"ÖRK"}},{"type":"Feature","geometry":{"type":"Point","coordinates":[10.9572866,47.2870693]},"properties":{"addr:city":"Mötz","addr:housenumber":"80","addr:postcode":"6423","addr:street":"Oberfeld","ambulance_station:patient_transport":"yes","brand":"Österreichisches Rotes Kreuz","emergency":"ambulance_station","name":"Rotes Kreuz Ortsstelle Mötz","operator":"Rettungsdienst Tirol gGmbH","short_name":"ÖRK","brand:short":"ÖRK"}},{"type":"Feature","geometry":{"type":"Point","coordinates":[11.7081793,47.3541055]},"properties":{"addr:city":"Schwaz","addr:housenumber":"25","addr:postcode":"6130","addr:street":"Münchner Straße","ambulance_station:emergency_doctor":"yes","ambulance_station:patient_transport":"yes","brand":"Österreichisches Rotes Kreuz","brand:short":"ÖRK","emergency":"ambulance_station","name":"Rotes Kreuz Bezirksstelle Schwaz","operator":"Rettungsdienst Tirol gGmbH","short_name":"ÖRK"}},{"type":"Feature","geometry":{"type":"Point","coordinates":[11.5090929,47.2854693]},"properties":{"addr:city":"Hall in Tirol","addr:housenumber":"20","addr:postcode":"6060","addr:street":"Bruckergasse","ambulance_station:emergency_doctor":"yes","ambulance_station:patient_transport":"yes","brand":"Österreichisches Rotes Kreuz","brand:short":"ÖRK","emergency":"ambulance_station","name":"Rotes Kreuz Bezirksstelle Hall","operator":"Rettungsdienst Tirol gGmbH","short_name":"ÖRK"}},{"type":"Feature","geometry":{"type":"Point","coordinates":[12.2690914,47.5208266]},"properties":{"addr:city":"Ellmau","addr:housenumber":"14","addr:postcode":"6352","addr:street":"Oberachen","ambulance_station:patient_transport":"yes","brand":"Österreichisches Rotes Kreuz","emergency":"ambulance_station","name":"Rotes Kreuz Ortsstelle Söllandl","operator":"Rettungsdienst Tirol gGmbH","short_name":"ÖRK","brand:short":"ÖRK"}},{"type":"Feature","geometry":{"type":"Point","coordinates":[12.423245,46.7471737]},"properties":{"addr:city":"Sillian","addr:housenumber":"185h","addr:postcode":"9920","addr:street":"Sillian","ambulance_station:patient_transport":"yes","brand":"Österreichisches Rotes Kreuz","emergency":"ambulance_station","name":"Rotes Kreuz Ortsstelle Silian","operator":"Rettungsdienst Tirol gGmbH","short_name":"ÖRK","brand:short":"ÖRK"}},{"type":"Feature","geometry":{"type":"Point","coordinates":[11.4004955,47.1860266]},"properties":{"addr:city":"Schönberg im Stubaital","addr:housenumber":"1","addr:postcode":"6141","addr:street":"Brennerautobahn","ambulance_station:emergency_doctor":"yes","ambulance_station:patient_transport":"yes","brand":"Österreichisches Rotes Kreuz","emergency":"ambulance_station","name":"Rotes Kreuz Bezirksstelle Innsbruck-Land","operator":"Rettungsdienst Tirol gGmbH","short_name":"ÖRK","brand:short":"ÖRK"}},{"type":"Feature","geometry":{"type":"Point","coordinates":[11.3513154,47.1487378]},"properties":{"addr:city":"Fulpmes","addr:housenumber":"7a","addr:postcode":"6166","addr:street":"Knappenweg","ambulance_station:patient_transport":"yes","brand":"Österreichisches Rotes Kreuz","brand:short":"ÖRK","emergency":"ambulance_station","name":"Rotes Kreuz Ortsstelle Stubai","operator":"Rettungsdienst Tirol gGmbH","short_name":"ÖRK"}},{"type":"Feature","geometry":{"type":"Point","coordinates":[11.4730362,47.0839137]},"properties":{"addr:city":"Steinach am Brenner","addr:housenumber":"15","addr:postcode":"6150","addr:street":"Harland","ambulance_station:patient_transport":"yes","brand":"Österreichisches Rotes Kreuz","emergency":"ambulance_station","name":"Rotes Kreuz Ortsstelle Wipptal","operator":"Rettungsdienst Tirol gGmbH","short_name":"ÖRK","brand:short":"ÖRK"}},{"type":"Feature","geometry":{"type":"Point","coordinates":[12.0887547,47.4943107]},"properties":{"addr:city":"Kirchbichl","addr:housenumber":"20","addr:postcode":"6322","addr:street":"Lofererstraße","ambulance_station:patient_transport":"yes","brand":"Arbeiter-Samariter-Bund Österreichs","emergency":"ambulance_station","name":"Samariterbund Tirol Dienststelle Kirchbichl","operator":"Rettungsdienst Tirol gGmbH","brand:short":"ASB","short_name":"ASB"}},{"type":"Feature","geometry":{"type":"Point","coordinates":[12.7660338,46.8344253]},"properties":{"addr:city":"Lienz","addr:housenumber":"3a","addr:postcode":"9900","addr:street":"Emanuel von Hibler-Straße","ambulance_station:emergency_doctor":"yes","ambulance_station:patient_transport":"yes","brand":"Österreichisches Rotes Kreuz","emergency":"ambulance_station","name":"Rotes Kreuz Bezirksstelle Osttriol","operator":"Rettungsdienst Tirol gGmbH","short_name":"ÖRK","brand:short":"ÖRK"}},{"type":"Feature","geometry":{"type":"Point","coordinates":[10.5893354,47.1667252]},"properties":{"addr:city":"Zams","addr:housenumber":"133","addr:postcode":"6511","addr:street":"Hauptstraße","ambulance_station:patient_transport":"yes","brand":"Österreichisches Rotes Kreuz","emergency":"ambulance_station","name":"Rotes Kreuz Bezirksstelle Landeck","operator":"Rettungsdienst Tirol gGmbH","short_name":"ÖRK","brand:short":"ÖRK"}},{"type":"Feature","geometry":{"type":"Point","coordinates":[10.8402161,47.3074013]},"properties":{"addr:city":"Nassereith","addr:housenumber":"181b","addr:postcode":"6465","addr:street":"Ingenieur-Kastner-Straße","alt_name":"RK Nassereith","ambulance_station:patient_transport":"yes","brand":"Österreichisches Rotes Kreuz","emergency":"ambulance_station","name":"Rotes Kreuz Ortsstelle Nassereith","operator":"Rettungsdienst Tirol gGmbH","short_name":"ÖRK","brand:short":"ÖRK"}},{"type":"Feature","geometry":{"type":"Point","coordinates":[10.8459563,47.0664124]},"properties":{"addr:city":"St. Leonhard im Pitztal","addr:housenumber":"209","addr:postcode":"6481","addr:street":"St. Leonhard im Pitztal","ambulance_station:patient_transport":"yes","brand":"Österreichisches Rotes Kreuz","emergency":"ambulance_station","name":"Rotes Kreuz Ortsstelle St Leonhard/Pitztal","operator":"Rettungsdienst Tirol gGmbH","short_name":"ÖRK","brand:short":"ÖRK"}},{"type":"Feature","geometry":{"type":"Point","coordinates":[10.5015119,46.8909924]},"properties":{"addr:city":"Nauders","addr:housenumber":"221","addr:postcode":"6543","ambulance_station:patient_transport":"yes","brand":"Österreichisches Rotes Kreuz","emergency":"ambulance_station","name":"Rotes Kreuz Ortsstelle Nauders","operator":"Rettungsdienst Tirol gGmbH","short_name":"ÖRK","brand:short":"ÖRK"}},{"type":"Feature","geometry":{"type":"Point","coordinates":[10.7420281,47.2346464]},"properties":{"addr:city":"Imst","addr:housenumber":"16","addr:postcode":"6460","addr:street":"Meraner Straße","ambulance_station:emergency_doctor":"yes","ambulance_station:patient_transport":"yes","brand":"Österreichisches Rotes Kreuz","brand:short":"ÖRK","emergency":"ambulance_station","name":"Rotes Kreuz Bezirksstelle Imst","operator":"Rettungsdienst Tirol gGmbH","short_name":"ÖRK"}},{"type":"Feature","geometry":{"type":"Point","coordinates":[10.6632223,47.068046]},"properties":{"addr:city":"Prutz","addr:housenumber":"60","addr:postcode":"6522","addr:street":"Dorfstraße","ambulance_station:patient_transport":"yes","brand":"Österreichisches Rotes Kreuz","emergency":"ambulance_station","name":"Rotes Kreuz Ortsstelle Prutz","operator":"Rettungsdienst Tirol gGmbH","short_name":"ÖRK","brand:short":"ÖRK"}},{"type":"Feature","geometry":{"type":"Point","coordinates":[12.2119181,47.435479]},"properties":{"addr:city":"Westendorf","addr:housenumber":"30","addr:postcode":"6363","addr:street":"Mühltal","ambulance_station:patient_transport":"yes","brand":"Österreichisches Rotes Kreuz","emergency":"ambulance_station","name":"Rotes Kreuz Ortsstelle Brixental","operator":"Rettungsdienst Tirol gGmbH","short_name":"ÖRK","brand:short":"ÖRK"}},{"type":"Feature","geometry":{"type":"Point","coordinates":[10.916378,47.3977673]},"properties":{"addr:city":"Ehrwald","addr:housenumber":"24a","addr:postcode":"6632","addr:street":"Innsbruckerstraße","ambulance_station:patient_transport":"yes","emergency":"ambulance_station","name":"Rotes Kreuz Ortsstelle Ehrwald","operator":"Rettungsdienst Tirol gGmbH","short_name":"ÖRK","brand:short":"ÖRK","brand":"Österreichisches Rotes Kreuz"}},{"type":"Feature","geometry":{"type":"Point","coordinates":[12.0761265,47.4874411]},"properties":{"addr:city":"Wörgl","addr:housenumber":"50-52","addr:postcode":"6300","addr:street":"Brixentaler Straße","ambulance_station:patient_transport":"yes","brand":"Österreichisches Rotes Kreuz","emergency":"ambulance_station","name":"Rotes Kreuz Ortsstelle Wörgl","operator":"Rettungsdienst Tirol gGmbH","short_name":"ÖRK","brand:short":"ÖRK"}},{"type":"Feature","geometry":{"type":"Point","coordinates":[10.4371252,47.2907593]},"properties":{"addr:city":"Elbigenalp","addr:housenumber":"55b","addr:postcode":"6652","ambulance_station:patient_transport":"yes","brand":"Österreichisches Rotes Kreuz","emergency":"ambulance_station","name":"Rotes Kreuz Ortsstelle Elbigenalp","operator":"Rettungsdienst Tirol gGmbH","short_name":"ÖRK","brand:short":"ÖRK"}},{"type":"Feature","geometry":{"type":"Point","coordinates":[12.3180065,47.4409762]},"properties":{"addr:city":"Kirchberg in Tirol","addr:housenumber":"2","addr:postcode":"6365","addr:street":"Binderfeld","ambulance_station:patient_transport":"yes","brand":"Österreichisches Rotes Kreuz","emergency":"ambulance_station","name":"Rotes Kreuz Ortsstelle Kirchberg","operator":"Rettungsdienst Tirol gGmbH","short_name":"ÖRK","brand:short":"ÖRK"}},{"type":"Feature","geometry":{"type":"Point","coordinates":[10.2914447,47.0134485]},"properties":{"addr:city":"Ischgl","addr:housenumber":"4","addr:postcode":"6561","addr:street":"Eggerweg","ambulance_station:patient_transport":"yes","brand":"Österreichisches Rotes Kreuz","emergency":"ambulance_station","name":"Rotes Kreuz Ortsstelle Ischgl","operator":"Rettungsdienst Tirol gGmbH","short_name":"ÖRK","brand:short":"ÖRK"}},{"type":"Feature","geometry":{"type":"Point","coordinates":[12.3719892,47.4521618]},"properties":{"addr:city":"Kitzbühel","addr:housenumber":"12","addr:postcode":"6370","addr:street":"Kirchberger Straße","ambulance_station:patient_transport":"yes","brand":"Österreichisches Rotes Kreuz","emergency":"ambulance_station","name":"Rotes Kreuz Bezirksstelle Kitzbühel","operator":"Rettungsdienst Tirol gGmbH","short_name":"ÖRK","brand:short":"ÖRK"}},{"type":"Feature","geometry":{"type":"Point","coordinates":[12.5382334,47.4798245]},"properties":{"addr:city":"Fieberbrunn","addr:housenumber":"3a","addr:postcode":"6391","addr:street":"Spielbergstraße","ambulance_station:patient_transport":"yes","brand":"Österreichisches Rotes Kreuz","emergency":"ambulance_station","name":"Rotes Kreuz Ortsstelle Pillerseetal","operator":"Rettungsdienst Tirol gGmbH","short_name":"ÖRK","brand:short":"ÖRK"}},{"type":"Feature","geometry":{"type":"Point","coordinates":[12.0342779,47.2247935]},"properties":{"addr:city":"Gerlos","addr:housenumber":"138","addr:postcode":"6281","ambulance_station:patient_transport":"yes","brand":"Österreichisches Rotes Kreuz","emergency":"ambulance_station","name":"Rotes Kreuz Ortsstelle Gerlos","operator":"Rettungsdienst Tirol gGmbH","short_name":"ÖRK","brand:short":"ÖRK"}},{"type":"Feature","geometry":{"type":"Point","coordinates":[11.8589862,47.1674173]},"properties":{"addr:city":"Mayrhofen","addr:housenumber":"600","addr:postcode":"6290","addr:street":"Dornaustraße","ambulance_station:emergency_doctor":"yes","ambulance_station:patient_transport":"yes","brand":"Österreichisches Rotes Kreuz","emergency":"ambulance_station","name":"Rotes Kreuz Ortsstelle Mayrhofen","operator":"Rettungsdienst Tirol gGmbH","short_name":"ÖRK","brand:short":"ÖRK"}},{"type":"Feature","geometry":{"type":"Point","coordinates":[11.1797379,47.3332741]},"properties":{"addr:city":"Seefeld in Tirol","addr:housenumber":"770","addr:postcode":"6100","addr:street":"Leutascher Straße","ambulance_station:patient_transport":"yes","brand":"Österreichisches Rotes Kreuz","brand:short":"ÖRK","emergency":"ambulance_station","name":"Rotes Kreuz Ortsstelle Seefeld in Tirol","operator":"Rettungsdienst Tirol gGmbH","short_name":"ÖRK"}},{"type":"Feature","geometry":{"type":"Point","coordinates":[11.4397511,47.2773368]},"properties":{"addr:city":"Innsbruck","addr:housenumber":"48","addr:postcode":"6020","addr:street":"Josef-Wilberger-Straße","ambulance_station:patient_transport":"yes","brand":"Johanniter-Unfall-Hilfe","emergency":"ambulance_station","name":"Johanniter-Unfall-Hilfe Tirol Innsbruck","operator":"Rettungsdienst Tirol gGmbH","brand:short":"JUH","short_name":"JUH"}},{"type":"Feature","geometry":{"type":"Point","coordinates":[11.7639287,47.4140165]},"properties":{"addr:city":"Eben am Achensee","addr:postcode":"6212","addr:street":"Ebener Straße","ambulance_station:patient_transport":"yes","brand":"Österreichisches Rotes Kreuz","brand:short":"ÖRK","emergency":"ambulance_station","name":"Ausweichquartier Rotes Kreuz Ortsstelle Achensee","operator":"Rettungsdienst Tirol gGmbH","short_name":"ÖRK"}},{"type":"Feature","geometry":{"type":"Point","coordinates":[11.5915671,47.2896431]},"properties":{"addr:city":"Wattens","addr:housenumber":"1","addr:postcode":"6112","addr:street":"Weisstraße","ambulance_station:patient_transport":"yes","brand":"Österreichisches Rotes Kreuz","brand:short":"ÖRK","emergency":"ambulance_station","name":"Rotes Kreuz Ortsstelle Wattens","operator":"Rettungsdienst Tirol gGmbH","short_name":"ÖRK"}},{"type":"Feature","geometry":{"type":"Point","coordinates":[11.3975129,47.2576448]},"properties":{"addr:city":"Innsbruck","addr:housenumber":"41","addr:postcode":"6020","addr:street":"Leopoldstraße","ambulance_station:patient_transport":"yes","emergency":"ambulance_station","name":"Malteser Hospitaldienst Austria Innsbruck","operator":"Rettungsdienst Tirol gGmbH","brand:short":"MHD","brand":"Malteser Hospitaldienst Austria","short_name":"MHD"}},{"type":"Feature","geometry":{"type":"Point","coordinates":[10.2711293,47.1321815]},"properties":{"addr:city":"St. Anton am Arlberg","addr:housenumber":"1","addr:postcode":"6580","addr:street":"Auweg","ambulance_station:patient_transport":"yes","brand":"Österreichisches Rotes Kreuz","emergency":"ambulance_station","name":"Rotes Kreuz Ortsstelle St. Anton am Arlberg","operator":"Rettungsdienst Tirol gGmbH","short_name":"ÖRK","brand:short":"ÖRK"}},{"type":"Feature","geometry":{"type":"Point","coordinates":[11.2658116,47.2524292]},"properties":{"addr:city":"Kematen in Tirol","addr:housenumber":"3","addr:postcode":"6175","addr:street":"Sellrainer Straße","ambulance_station:patient_transport":"yes","brand":"Österreichisches Rotes Kreuz","emergency":"ambulance_station","name":"Rotes Kreuz Ortsstelle Kematen in Tirol","operator":"Rettungsdienst Tirol gGmbH","short_name":"ÖRK","brand:short":"ÖRK"}},{"type":"Feature","geometry":{"type":"Point","coordinates":[10.5196987,47.4997398]},"properties":{"addr:city":"Tannheim","addr:housenumber":"5","addr:postcode":"6675","addr:street":"Sennweg","ambulance_station:patient_transport":"yes","brand":"Österreichisches Rotes Kreuz","emergency":"ambulance_station","name":"Rotes Kreuz Ortsstelle Tannheim","operator":"Rettungsdienst Tirol gGmbH","short_name":"ÖRK","brand:short":"ÖRK"}},{"type":"Feature","geometry":{"type":"Point","coordinates":[12.3998126,47.6710513]},"properties":{"addr:city":"Kössen","addr:housenumber":"23","addr:postcode":"6345","addr:street":"Klobensteiner Straße","ambulance_station:patient_transport":"yes","brand":"Österreichisches Rotes Kreuz","emergency":"ambulance_station","name":"Rotes Kreuz Ortsstelle Kössen","operator":"Rettungsdienst Tirol gGmbH","short_name":"ÖRK","brand:short":"ÖRK"}},{"type":"Feature","geometry":{"type":"Point","coordinates":[12.5349317,46.999024]},"properties":{"addr:city":"Matrei in Osttirol","addr:housenumber":"18a","addr:postcode":"9971","addr:street":"Virgener Straße","ambulance_station:emergency_doctor":"yes","ambulance_station:patient_transport":"yes","brand":"Österreichisches Rotes Kreuz","brand:short":"ÖRK","emergency":"ambulance_station","name":"Rotes Kreuz Ortsstelle Matrei/Osttirol","operator":"Rettungsdienst Tirol gGmbH","short_name":"ÖRK"}},{"type":"Feature","geometry":{"type":"Point","coordinates":[11.0272794,46.8706855]},"properties":{"addr:city":"Obergurgl","addr:housenumber":"118","addr:postcode":"6456","addr:street":"Gurglerstraße","ambulance_station:patient_transport":"yes","brand":"Österreichisches Rotes Kreuz","emergency":"ambulance_station","name":"Rotes Kreuz Ortsstelle Obergurgl","operator":"Rettungsdienst Tirol gGmbH","short_name":"ÖRK","brand:short":"ÖRK"}},{"type":"Feature","geometry":{"type":"Point","coordinates":[11.7082234,47.3541559]},"properties":{"addr:city":"Schwaz","addr:housenumber":"25","addr:postcode":"6130","addr:street":"Münchner Straße","ambulance_station:patient_transport":"yes","brand":"Arbeiter-Samariter-Bund Österreichs","emergency":"ambulance_station","name":"Samariterbund Tirol Dienststelle Schwaz","operator":"Rettungsdienst Tirol gGmbH","brand:short":"ASB","short_name":"ASB"}},{"type":"Feature","geometry":{"type":"Point","coordinates":[10.9653064,47.0760922]},"properties":{"addr:city":"Längenfeld","addr:housenumber":"232","addr:postcode":"6444","addr:street":"Unterlängenfeld","ambulance_station:patient_transport":"yes","brand":"Österreichisches Rotes Kreuz","emergency":"ambulance_station","name":"Rotes Kreuz Ortsstelle Längenfeld","operator":"Rettungsdienst Tirol gGmbH","short_name":"ÖRK","brand:short":"ÖRK"}},{"type":"Feature","geometry":{"type":"Point","coordinates":[11.3498073,47.2622574]},"properties":{"addr:city":"Innsbruck","addr:housenumber":"97","addr:postcode":"6020","addr:street":"Kranebitter Allee","ambulance_station:patient_transport":"yes","brand":"Österreichisches Rotes Kreuz","brand:short":"ÖRK","emergency":"ambulance_station","name":"Rotes Kreuz Ortsstelle Innsbruck West","operator":"Rettungsdienst Tirol gGmbH","short_name":"ÖRK"}},{"type":"Feature","geometry":{"type":"Point","coordinates":[11.7499408,47.1613408]},"properties":{"addr:city":"Tux","addr:housenumber":"45","addr:postcode":"6293","addr:street":"Vorderlanersbach","ambulance_station:patient_transport":"yes","brand":"Österreichisches Rotes Kreuz","emergency":"ambulance_station","name":"Rotes Kreuz Ortsstelle Tux","operator":"Rettungsdienst Tirol gGmbH","short_name":"ÖRK","brand:short":"ÖRK"}},{"type":"Feature","geometry":{"type":"Point","coordinates":[11.0122989,46.9549048]},"properties":{"addr:city":"Sölden","addr:housenumber":"151","addr:postcode":"6450","addr:street":"Dorfstraße","ambulance_station:patient_transport":"yes","brand":"Österreichisches Rotes Kreuz","brand:short":"ÖRK","emergency":"ambulance_station","name":"Rotes Kreuz Ortsstelle Sölden","operator":"Rettungsdienst Tirol gGmbH","short_name":"ÖRK"}},{"type":"Feature","geometry":{"type":"Point","coordinates":[11.8162963,47.3981884]},"properties":{"addr:city":"Strass im Zillertal","addr:housenumber":"193a","addr:postcode":"6261","ambulance_station:patient_transport":"yes","brand":"Österreichisches Rotes Kreuz","emergency":"ambulance_station","name":"Rotes Kreuz Ortsstelle Strass/Zillertal","operator":"Rettungsdienst Tirol gGmbH","short_name":"ÖRK","brand:short":"ÖRK"}},{"type":"Feature","geometry":{"type":"Point","coordinates":[12.4235865,47.5248912]},"properties":{"addr:city":"St. Johann in Tirol","addr:housenumber":"14","addr:postcode":"6380","addr:street":"Salzburgerstraße","ambulance_station:patient_transport":"yes","brand":"Österreichisches Rotes Kreuz","emergency":"ambulance_station","name":"Rotes Kreuz Ortsstelle St. Joahnn in Tirol","operator":"Rettungsdienst Tirol gGmbH","short_name":"ÖRK","brand:short":"ÖRK"}},{"type":"Feature","geometry":{"type":"Point","coordinates":[11.8770283,47.2912964]},"properties":{"addr:city":"Kaltenbach","addr:housenumber":"9","addr:postcode":"6272","addr:street":"Kaltenbacher Landstraße","ambulance_station:patient_transport":"yes","brand":"Österreichisches Rotes Kreuz","emergency":"ambulance_station","name":"Rotes Kreuz Ortsstelle Kaltenbach","operator":"Rettungsdienst Tirol gGmbH","short_name":"ÖRK","brand:short":"ÖRK"}}]}