{
  "type": "FeatureCollection",
  "generator": "overpass-turbo",
  "copyright": "The data included in this document is from www.openstreetmap.org. The data is made available under ODbL.",
  "timestamp": "2025-11-06T07:24:45Z",
  "features": [
    {
      "type": "Feature",
      "properties": {
        "@id": "way/29278798",
        "addr:city": "Wien",
        "addr:country": "AT",
        "addr:housenumber": "2",
        "addr:postcode": "1220",
        "addr:street": "Wallenberggasse",
        "ambulance_station:patient_transport": "yes",
        "building": "yes",
        "emergency": "ambulance_station",
        "name": "Samariterbund Floridsdorf-Donaustadt",
        "operator": "Arbeiter-Samariter-Bund Österreichs",
        "operator:wikidata": "Q627072",
        "operator:wikipedia": "de:Arbeiter-Samariter-Bund Österreichs",
        "source": "wien.gv.at",
        "website": "https://samariter.at/",
        "@geometry": "center"
      },
      "geometry": {
        "type": "Point",
        "coordinates": [
          16.407402,
          48.2363122
        ]
      },
      "id": "way/29278798"
    },
    {
      "type": "Feature",
      "properties": {
        "@id": "way/31022047",
        "addr:city": "Wien",
        "addr:country": "AT",
        "addr:housenumber": "22",
        "addr:postcode": "1210",
        "addr:street": "Ignaz-Köck-Straße",
        "ambulance_station:patient_transport": "yes",
        "brand:wikidata": "Q74351380",
        "building": "office",
        "building:levels": "3",
        "emergency": "ambulance_station",
        "name": "Johanniter Center Nord",
        "operator": "Die Johanniter",
        "operator:wikidata": "Q74351380",
        "roof:levels": "0",
        "roof:shape": "flat",
        "@geometry": "center"
      },
      "geometry": {
        "type": "Point",
        "coordinates": [
          16.4032048,
          48.271557
        ]
      },
      "id": "way/31022047"
    },
    {
      "type": "Feature",
      "properties": {
        "@id": "way/31990166",
        "addr:city": "Wien",
        "addr:housenumber": "7",
        "addr:postcode": "1030",
        "addr:street": "Arsenalstraße",
        "ambulance_station:patient_transport": "yes",
        "building": "yes",
        "building:levels": "2",
        "emergency": "ambulance_station",
        "height": "6",
        "name": "Wiener Berufsrettung Rettungsstation Arsenal",
        "operator": "Wiener Berufsrettung",
        "operator:wikidata": "Q74346929",
        "operator:wikipedia": "de:Berufsrettung Wien",
        "roof:levels": "0",
        "roof:shape": "flat",
        "@geometry": "center"
      },
      "geometry": {
        "type": "Point",
        "coordinates": [
          16.3943417,
          48.1766686
        ]
      },
      "id": "way/31990166"
    },
    {
      "type": "Feature",
      "properties": {
        "@id": "way/40877863",
        "addr:city": "Wien",
        "addr:country": "AT",
        "addr:housenumber": "4",
        "addr:postcode": "1210",
        "addr:street": "Josef-Brazdovics-Straße",
        "ambulance_station:patient_transport": "yes",
        "building": "yes",
        "emergency": "ambulance_station",
        "name": "Wiener Berufsrettung Rettungsstation Leopoldau",
        "operator": "Wiener Berufsrettung",
        "operator:wikidata": "Q74346929",
        "@geometry": "center"
      },
      "geometry": {
        "type": "Point",
        "coordinates": [
          16.4299816,
          48.264131
        ]
      },
      "id": "way/40877863"
    },
    {
      "type": "Feature",
      "properties": {
        "@id": "way/90391089",
        "addr:city": "Wien",
        "addr:housenumber": "1",
        "addr:postcode": "1220",
        "addr:street": "Wiedgasse",
        "ambulance_station:patient_transport": "yes",
        "brand": "Arbeiter-Samariter-Bund Österreichs",
        "brand:wikidata": "Q627072",
        "building": "yes",
        "building:levels": "1",
        "emergency": "ambulance_station",
        "name": "Samariterbund Stadlau",
        "operator": "Arbeiter-Samariter-Bund Österreichs",
        "roof:shape": "skillion",
        "@geometry": "center"
      },
      "geometry": {
        "type": "Point",
        "coordinates": [
          16.45043,
          48.2218202
        ]
      },
      "id": "way/90391089"
    },
    {
      "type": "Feature",
      "properties": {
        "@id": "way/90991378",
        "addr:city": "Wien",
        "addr:country": "AT",
        "addr:housenumber": "21",
        "addr:postcode": "1100",
        "addr:street": "Grenzackerstraße",
        "ambulance_station:emergency_doctor": "yes",
        "ambulance_station:patient_transport": "yes",
        "building": "hospital",
        "emergency": "ambulance_station",
        "name": "Wiener Berufsrettung Rettungsstation Favoriten",
        "operator": "Wiener Berufsrettung",
        "operator:wikidata": "Q74346929",
        "@geometry": "center"
      },
      "geometry": {
        "type": "Point",
        "coordinates": [
          16.3746667,
          48.1636529
        ]
      },
      "id": "way/90991378"
    },
    {
      "type": "Feature",
      "properties": {
        "@id": "way/141392512",
        "addr:city": "Wien",
        "addr:housenumber": "1",
        "addr:postcode": "1030",
        "addr:street": "Radetzkystraße",
        "ambulance_station:patient_transport": "yes",
        "building": "civic",
        "building:levels": "3",
        "building:part": "yes",
        "description": "Rettungszentrale der Wiener Berufsrettung MA70.",
        "emergency": "ambulance_station",
        "name": "Wiener Berufsrettung Rettungszentrale",
        "operator": "Wiener Berufsrettung",
        "operator:wikidata": "Q74346929",
        "roof:levels": "1",
        "roof:shape": "gabled",
        "website": "https://www.wien.gv.at/gesundheit/einrichtungen/rettung/",
        "@geometry": "center"
      },
      "geometry": {
        "type": "Point",
        "coordinates": [
          16.3864322,
          48.2115386
        ]
      },
      "id": "way/141392512"
    },
    {
      "type": "Feature",
      "properties": {
        "@id": "way/158204801",
        "addr:city": "Wien",
        "addr:country": "AT",
        "addr:housenumber": "8",
        "addr:postcode": "1220",
        "addr:street": "Wimpffengasse",
        "ambulance_station:patient_transport": "yes",
        "building": "yes",
        "check_date": "2025-10-20",
        "emergency": "ambulance_station",
        "name": "Wiener Berufsrettung Rettungsstation Aspern",
        "operator": "Wiener Berufsrettung",
        "operator:wikidata": "Q74346929",
        "@geometry": "center"
      },
      "geometry": {
        "type": "Point",
        "coordinates": [
          16.4866687,
          48.2180843
        ]
      },
      "id": "way/158204801"
    },
    {
      "type": "Feature",
      "properties": {
        "@id": "way/173933298",
        "ambulance_station:patient_transport": "yes",
        "building": "civic",
        "building:levels": "2",
        "emergency": "ambulance_station",
        "name": "Wiener Berufsrettung Rettungsstation Brigittenau",
        "operator": "Wiener Berufsrettung",
        "operator:wikidata": "Q74346929",
        "source": "ViennaGIS",
        "@geometry": "center"
      },
      "geometry": {
        "type": "Point",
        "coordinates": [
          16.3636262,
          48.2310883
        ]
      },
      "id": "way/173933298"
    },
    {
      "type": "Feature",
      "properties": {
        "@id": "way/187839550",
        "addr:city": "Wien",
        "addr:country": "AT",
        "addr:housenumber": "8",
        "addr:postcode": "1210",
        "addr:street": "Karl-Schäfer-Straße",
        "ambulance_station:patient_transport": "yes",
        "brand": "Österreichisches Rotes Kreuz",
        "brand:wikidata": "Q168276",
        "building": "yes",
        "building:levels": "2",
        "emergency": "ambulance_station",
        "name": "Rotes Kreuz Bezirksstelle Wien-Nord",
        "operator": "Wiener Rotes Kreuz",
        "operator:type": "community",
        "short_name": "ÖRK",
        "website": "https://www.roteskreuz.at/wien/wien-nord/kontakte/bezirksstelle-wien-nord/bezirksstelle-wien-nord",
        "@geometry": "center"
      },
      "geometry": {
        "type": "Point",
        "coordinates": [
          16.4019536,
          48.2668667
        ]
      },
      "id": "way/187839550"
    },
    {
      "type": "Feature",
      "properties": {
        "@id": "way/218561892",
        "addr:city": "Wien",
        "addr:country": "AT",
        "addr:housenumber": "21/BT2",
        "addr:postcode": "1030",
        "addr:street": "Nottendorfer Gasse",
        "addr:unit": "Hinteres Gebäude",
        "ambulance_station:patient_transport": "yes",
        "brand": "Österreichisches Rotes Kreuz",
        "brand:short": "ÖRK",
        "brand:wikidata": "Q168276",
        "building": "office",
        "building:levels": "3",
        "email": "ddl-ltg@w.roteskreuz.at",
        "emergency": "ambulance_station",
        "level": "3",
        "name": "Wiener Rotes Kreuz - Bezirksstelle DDr. Lauda",
        "operator": "Österreichisches Rotes Kreuz",
        "phone": "+43 1 79580 8705",
        "roof:shape": "gambrel",
        "short_name": "ÖRK",
        "smoking": "no",
        "source": "local knowledge;https://www.roteskreuz.at/wien/dienststellen/ddr-lauda/;ViennaGIS",
        "website": "https://www.wrk.at/ddl",
        "@geometry": "center"
      },
      "geometry": {
        "type": "Point",
        "coordinates": [
          16.4114831,
          48.1903256
        ]
      },
      "id": "way/218561892"
    },
    {
      "type": "Feature",
      "properties": {
        "@id": "way/235394561",
        "addr:city": "Wien",
        "addr:housenumber": "7",
        "addr:postcode": "1140",
        "addr:street": "Baumgartenstraße",
        "ambulance_station:patient_transport": "yes",
        "building": "yes",
        "emergency": "ambulance_station",
        "name": "Wiener Berufsrettung Rettungsstation Penzing",
        "operator": "Wiener Berufsrettung",
        "operator:type": "government",
        "operator:wikidata": "Q74346929",
        "operator:wikipedia": "de:Berufsrettung Wien",
        "@geometry": "center"
      },
      "geometry": {
        "type": "Point",
        "coordinates": [
          16.2855663,
          48.1936419
        ]
      },
      "id": "way/235394561"
    },
    {
      "type": "Feature",
      "properties": {
        "@id": "way/235394562",
        "addr:city": "Wien",
        "addr:country": "AT",
        "addr:housenumber": "10a",
        "addr:postcode": "1140",
        "addr:street": "Spallartgasse",
        "ambulance_station:patient_transport": "yes",
        "brand": "Österreichisches Rotes Kreuz",
        "brand:wikidata": "Q168276",
        "building": "yes",
        "check_date": "2025-03-31",
        "emergency": "ambulance_station",
        "name": "Rotes Kreuz Bezirksstelle Wien-West",
        "operator": "Wiener Rotes Kreuz",
        "operator:type": "community",
        "short_name": "ÖRK",
        "@geometry": "center"
      },
      "geometry": {
        "type": "Point",
        "coordinates": [
          16.3085795,
          48.2006473
        ]
      },
      "id": "way/235394562"
    },
    {
      "type": "Feature",
      "properties": {
        "@id": "way/342965224",
        "addr:city": "Wien",
        "addr:country": "AT",
        "addr:housenumber": "36A",
        "addr:postcode": "1230",
        "addr:street": "Steinergasse",
        "ambulance_station:patient_transport": "yes",
        "building": "yes",
        "check_date": "2025-09-19",
        "emergency": "ambulance_station",
        "name": "Sozialmedizinischer Dienst Österreich - SMD Rettungsdienst",
        "operator": "Sozialmedizinischer Dienst Österreich GmbH",
        "phone": "+4313105050",
        "website": "https://www.smd.at",
        "@geometry": "center"
      },
      "geometry": {
        "type": "Point",
        "coordinates": [
          16.2872663,
          48.1397331
        ]
      },
      "id": "way/342965224"
    },
    {
      "type": "Feature",
      "properties": {
        "@id": "way/356324214",
        "addr:city": "Wien",
        "addr:country": "AT",
        "addr:housenumber": "73",
        "addr:postcode": "1110",
        "addr:street": "Kaiser-Ebersdorfer Straße",
        "ambulance_station:patient_transport": "yes",
        "building": "yes",
        "emergency": "ambulance_station",
        "name": "Wiener Berufsrettung Rettungsstation Simmering",
        "operator": "Wiener Berufsrettung",
        "operator:wikidata": "Q74346929",
        "operator:wikipedia": "de:Berufsrettung Wien",
        "@geometry": "center"
      },
      "geometry": {
        "type": "Point",
        "coordinates": [
          16.4330224,
          48.1653838
        ]
      },
      "id": "way/356324214"
    },
    {
      "type": "Feature",
      "properties": {
        "@id": "node/421411946",
        "addr:city": "Wien",
        "addr:country": "AT",
        "addr:housenumber": "39",
        "addr:postcode": "1180",
        "addr:street": "Herbeckstraße",
        "ambulance_station:patient_transport": "yes",
        "check_date": "2025-09-14",
        "description": "Rettungsstation",
        "emergency": "ambulance_station",
        "name": "Johanniter-Unfall-Hilfe Wien Herbeckstraße",
        "note": "ems station",
        "operator": "Johanniter-Unfall-Hilfe"
      },
      "geometry": {
        "type": "Point",
        "coordinates": [
          16.3232869,
          48.2316741
        ]
      },
      "id": "node/421411946"
    },
    {
      "type": "Feature",
      "properties": {
        "@id": "node/915963622",
        "addr:city": "Wien",
        "addr:country": "AT",
        "addr:housename": "Bezirksstelle Van Swieten",
        "addr:housenumber": "8",
        "addr:postcode": "1100",
        "addr:street": "Landgutgasse",
        "ambulance_station:patient_transport": "yes",
        "contact:phone": "+43 1 795 808 321",
        "emergency": "ambulance_station",
        "name": "Rotes Kreuz Bezirksstelle Van Swieten",
        "office": "ngo",
        "opening_hours:signed": "no",
        "operator": "Wiener Rotes Kreuz",
        "operator:type": "community",
        "website": "https://www.roteskreuz.at/wien/van-swieten/home"
      },
      "geometry": {
        "type": "Point",
        "coordinates": [
          16.3775272,
          48.1813819
        ]
      },
      "id": "node/915963622"
    },
    {
      "type": "Feature",
      "properties": {
        "@id": "way/1009309996",
        "addr:city": "Wien",
        "addr:housenumber": "3",
        "addr:postcode": "1230",
        "addr:street": "Seybelgasse",
        "ambulance_station:patient_transport": "yes",
        "building": "public",
        "building:levels": "2",
        "construction_date": "2022-08-01",
        "emergency": "ambulance_station",
        "name": "Wiener Berufsrettung Rettungsstation Liesing",
        "operator": "Wiener Berufsrettung",
        "operator:wikidata": "Q74346929",
        "roof:shape": "flat",
        "@geometry": "center"
      },
      "geometry": {
        "type": "Point",
        "coordinates": [
          16.2881078,
          48.1356228
        ]
      },
      "id": "way/1009309996"
    },
    {
      "type": "Feature",
      "properties": {
        "@id": "way/1309294656",
        "addr:city": "Wien",
        "addr:housenumber": "24",
        "addr:postcode": "1210",
        "addr:street": "Petritschgasse",
        "ambulance_station:patient_transport": "yes",
        "brand": "Arbeiter-Samariter-Bund Österreichs",
        "brand:wikidata": "Q627072",
        "building": "yes",
        "construction_date": "2024-06-24",
        "emergency": "ambulance_station",
        "name": "Samariterbund Wien Floridsdorf",
        "operator": "Arbeiter-Samariter-Bund Österreichs",
        "operator:wikidata": "Q627072",
        "@geometry": "center"
      },
      "geometry": {
        "type": "Point",
        "coordinates": [
          16.4356536,
          48.2788235
        ]
      },
      "id": "way/1309294656"
    },
    {
      "type": "Feature",
      "properties": {
        "@id": "way/1315746339",
        "addr:city": "Wien",
        "addr:housenumber": "12",
        "addr:postcode": "1170",
        "addr:street": "Gilmgasse",
        "ambulance_station:patient_transport": "yes",
        "emergency": "ambulance_station",
        "landuse": "industrial",
        "name": "Wiener Berufsrettung Rettungsstation Hernals",
        "operator": "Wiener Berufsrettung",
        "operator:wikidata": "Q74346929",
        "@geometry": "center"
      },
      "geometry": {
        "type": "Point",
        "coordinates": [
          16.3193925,
          48.2241296
        ]
      },
      "id": "way/1315746339"
    },
    {
      "type": "Feature",
      "properties": {
        "@id": "node/1725884677",
        "addr:city": "Wien",
        "addr:country": "AT",
        "addr:housenumber": "20",
        "addr:postcode": "1060",
        "addr:street": "Mariahilfer Gürtel",
        "ambulance_station:patient_transport": "yes",
        "check_date": "2025-10-20",
        "emergency": "ambulance_station",
        "name": "Wiener Berufsrettung Rettungsstation Mariahilf",
        "operator": "Wiener Berufsrettung",
        "operator:wikidata": "Q74346929",
        "operator:wikipedia": "de:Berufsrettung Wien"
      },
      "geometry": {
        "type": "Point",
        "coordinates": [
          16.3391508,
          48.1929356
        ]
      },
      "id": "node/1725884677"
    },
    {
      "type": "Feature",
      "properties": {
        "@id": "node/1756793618",
        "addr:city": "Wien",
        "addr:country": "AT",
        "addr:housename": "Bezirksstelle Bertha von Suttner",
        "addr:housenumber": "4/3",
        "addr:postcode": "1020",
        "addr:street": "Negerlegasse",
        "ambulance_station:patient_transport": "yes",
        "brand": "Österreichisches Rotes Kreuz",
        "brand:wikidata": "Q168276",
        "emergency": "ambulance_station",
        "name": "Rotes Kreuz Bezirksstelle Bertha von Suttner",
        "operator": "Österreichisches Rotes Kreuz",
        "operator:type": "community",
        "short_name": "ÖRK"
      },
      "geometry": {
        "type": "Point",
        "coordinates": [
          16.378517,
          48.2140354
        ]
      },
      "id": "node/1756793618"
    },
    {
      "type": "Feature",
      "properties": {
        "@id": "node/2434602731",
        "addr:city": "Wien",
        "addr:housenumber": "56",
        "addr:postcode": "1130",
        "addr:street": "Speisinger Straße",
        "ambulance_station:patient_transport": "yes",
        "brand": "Arbeiter-Samariter-Bund Österreichs",
        "brand:wikidata": "Q627072",
        "emergency": "ambulance_station",
        "fixme": "wrong address (or POI position); removed tags: addr:housenumber=56;addr:postcode=1130;addr:street=Speisinger Straße",
        "name": "Samariterbund Rudolfsheim-Fünfhaus",
        "operator": "Arbeiter-Samariter-Bund Österreichs"
      },
      "geometry": {
        "type": "Point",
        "coordinates": [
          16.2959146,
          48.1964343
        ]
      },
      "id": "node/2434602731"
    },
    {
      "type": "Feature",
      "properties": {
        "@id": "node/3349612404",
        "addr:city": "Wien",
        "addr:housenumber": "11/1",
        "addr:postcode": "1200",
        "addr:street": "Raffaelgasse",
        "ambulance_station:patient_transport": "yes",
        "brand": "Arbeiter-Samariter-Bund Österreichs",
        "brand:wikidata": "Q627072",
        "emergency": "ambulance_station",
        "name": "Samariterbund Brigittenau",
        "operator": "Arbeiter-Samariter-Bund-Österreichs",
        "website": "https://www.samariterbund.net/gruppen/gruppe-brigittenau/"
      },
      "geometry": {
        "type": "Point",
        "coordinates": [
          16.3715163,
          48.2331654
        ]
      },
      "id": "node/3349612404"
    },
    {
      "type": "Feature",
      "properties": {
        "@id": "node/7924035939",
        "ambulance_station:patient_transport": "yes",
        "emergency": "ambulance_station",
        "name": "Wiener Berufsrettung Rettungsstation Seestadt",
        "operator": "Wiener Berufsrettung",
        "operator:wikidata": "Q74346929",
        "website": "https://www.wien.gv.at/gesundheit/einrichtungen/rettung/organisation/stationen.html"
      },
      "geometry": {
        "type": "Point",
        "coordinates": [
          16.5060301,
          48.221698
        ]
      },
      "id": "node/7924035939"
    },
    {
      "type": "Feature",
      "properties": {
        "@id": "node/8458925337",
        "addr:city": "Wien",
        "addr:country": "AT",
        "addr:housenumber": "2-6",
        "addr:postcode": "1150",
        "addr:street": "Hollergasse",
        "ambulance_station:patient_transport": "yes",
        "brand": "Arbeiter-Samariter-Bund Österreichs",
        "brand:wikidata": "Q627072",
        "emergency": "ambulance_station",
        "name": "Samariterbund Zentrale Wien",
        "official_name": "Samariterbund Österreich Rettung und Soziale Dienste gemeinnützige GmbH",
        "operator": "Arbeiter-Samariter-Bund Österreichs"
      },
      "geometry": {
        "type": "Point",
        "coordinates": [
          16.3257912,
          48.1846054
        ]
      },
      "id": "node/8458925337"
    },
    {
      "type": "Feature",
      "properties": {
        "@id": "node/11020911938",
        "addr:city": "Wien",
        "addr:housenumber": "6",
        "addr:postcode": "1010",
        "addr:street": "Börseplatz",
        "ambulance_station:patient_transport": "yes",
        "emergency": "ambulance_station",
        "name": "Malteser Austria Bereich Wien",
        "operator": "Malteser Hospitaldienst Austria",
        "website": "https://wien.malteser.at"
      },
      "geometry": {
        "type": "Point",
        "coordinates": [
          16.3676816,
          48.2140841
        ]
      },
      "id": "node/11020911938"
    },
    {
      "type": "Feature",
      "properties": {
        "@id": "node/11020911945",
        "addr:city": "Wien",
        "addr:housenumber": "7",
        "addr:postcode": "1190",
        "addr:street": "Ruthgasse",
        "ambulance_station:patient_transport": "yes",
        "brand": "Arbeiter-Samariter-Bund Österreichs",
        "brand:wikidata": "Q627072",
        "emergency": "ambulance_station",
        "name": "Samariterbund Döbling",
        "operator": "Arbeiter-Samariter-Bund Österreichs",
        "website": "https://www.asb-doebling.at"
      },
      "geometry": {
        "type": "Point",
        "coordinates": [
          16.3503116,
          48.2452779
        ]
      },
      "id": "node/11020911945"
    },
    {
      "type": "Feature",
      "properties": {
        "@id": "node/11691727120",
        "addr:city": "Wien",
        "addr:housenumber": "68",
        "addr:postcode": "1221",
        "addr:street": "Brünner Straße",
        "ambulance_station:emergency_doctor": "yes",
        "ambulance_station:patient_transport": "yes",
        "construction_date": "2019-10-04",
        "emergency": "ambulance_station",
        "name": "Wiener Berufsrettung Rettungsstation Floridsdorf",
        "operator": "Wiener Berufsrettung",
        "operator:wikidata": "Q74346929",
        "website": "https://www.wien.gv.at/gesundheit/einrichtungen/rettung/organisation/stationen.html"
      },
      "geometry": {
        "type": "Point",
        "coordinates": [
          16.405458,
          48.2688243
        ]
      },
      "id": "node/11691727120"
    }
  ]
}