{"type":"FeatureCollection","features":[{"type":"Feature","geometry":{"type":"Point","coordinates":[9.7336328,47.4913299]},"properties":{"addr:city":"Bregenz","addr:housenumber":"109","addr:postcode":"6900","addr:street":"Arlbergstraße","ambulance_station:emergency_doctor":"no","ambulance_station:patient_transport":"yes","brand":"Österreichisches Rotes Kreuz","emergency":"ambulance_station","name":"Rotkreuz-Abteilung Bregenz","operator":"Österreichisches Rotes Kreuz, Landesverband Vorarlberg","short_name":"ÖRK","brand:short":"ÖRK"}},{"type":"Feature","geometry":{"type":"Point","coordinates":[9.729211,47.4123426]},"properties":{"addr:city":"Dornbirn","addr:housenumber":"36a","addr:postcode":"6850","addr:street":"Höchster Straße","ambulance_station:patient_transport":"yes","brand":"Österreichisches Rotes Kreuz","emergency":"ambulance_station","name":"Rotkreuz-Abteilung Dornbirn","operator":"Österreichisches Rotes Kreuz, Landesverband Vorarlberg","short_name":"ÖRK","brand:short":"ÖRK"}},{"type":"Feature","geometry":{"type":"Point","coordinates":[9.8196518,47.1600049]},"properties":{"addr:city":"Bludenz","addr:housenumber":"17","addr:postcode":"6700","addr:street":"Walserweg","ambulance_station:emergency_doctor":"yes","ambulance_station:patient_transport":"yes","brand":"Österreichisches Rotes Kreuz","emergency":"ambulance_station","name":"Rotkreuz-Abteilung Bludenz","operator":"Österreichisches Rotes Kreuz, Landesverband Vorarlberg","short_name":"ÖRK","brand:short":"ÖRK"}},{"type":"Feature","geometry":{"type":"Point","coordinates":[9.6098764,47.2476867]},"properties":{"addr:city":"Feldkirch","addr:housenumber":"130","addr:postcode":"6800","addr:street":"Reichsstraße","ambulance_station:patient_transport":"yes","emergency":"ambulance_station","name":"Rettungszentrale Rotkreuz-Abteilung Samariterbund Feldkirch","operator":"Österreichisches Rotes Kreuz, Landesverband Vorarlberg Arbeiter Samariter Bund Feldkirch, Landesverband Vorarlberg","brand":"Österreichisches Rotes Kreuz","short_name":"ÖRK","brand:short":"ÖRK"}},{"type":"Feature","geometry":{"type":"Point","coordinates":[9.9719256,47.0216928]},"properties":{"addr:city":"St. Gallenkirch","addr:housenumber":"26c","addr:postcode":"6791","addr:street":"Zamangweg","ambulance_station:patient_transport":"yes","brand":"Österreichisches Rotes Kreuz","emergency":"ambulance_station","name":"Roteskreuz-Abteilung Bludenz Außenstelle St. Gallenkirch","operator":"Österreichisches Rotes Kreuz, Landesverband Vorarlberg","short_name":"ÖRK","brand:short":"ÖRK"}},{"type":"Feature","geometry":{"type":"Point","coordinates":[9.6817748,47.3623712]},"properties":{"addr:city":"Hohenems","addr:housenumber":"8","addr:postcode":"6845","addr:street":"Kaiserin-Elisabeth-Straße","ambulance_station:emergency_doctor":"yes","ambulance_station:patient_transport":"yes","emergency":"ambulance_station","name":"Rotkreuz Abteilung Hohenems","operator":"Österreichisches Rotes Kreuz Landesverband Vorarlberg","brand":"Österreichisches Rotes Kreuz","short_name":"ÖRK","brand:short":"ÖRK"}},{"type":"Feature","geometry":{"type":"Point","coordinates":[9.8874665,47.2331654]},"properties":{"addr:city":"Sonntag","addr:housenumber":"35","addr:postcode":"6731","addr:street":"Sand","ambulance_station:patient_transport":"yes","brand":"Österreichisches Rotes Kreuz","emergency":"ambulance_station","name":"Rotkreuz-Abteilung Bludenz Außenstelle Sonntag","operator":"Österreichisches Rotes Kreuz, Landesverband Vorarlberg","short_name":"ÖRK","brand:short":"ÖRK"}},{"type":"Feature","geometry":{"type":"Point","coordinates":[10.1521086,47.2179855]},"properties":{"ambulance_station:patient_transport":"yes","brand":"Österreichisches Rotes Kreuz","brand:short":"ÖRK","emergency":"ambulance_station","name":"Rotkreuz-Ortsstelle Lech","operator":"Österreichisches Rotes Kreuz, Landesverband Vorarlberg","short_name":"ÖRK"}},{"type":"Feature","geometry":{"type":"Point","coordinates":[9.6536457,47.4198849]},"properties":{"addr:city":"Lustenau","addr:housenumber":"8","addr:postcode":"6890","addr:street":"Schützengartenstraße","ambulance_station:patient_transport":"yes","brand":"Österreichisches Rotes Kreuz","emergency":"ambulance_station","name":"Rotkreuz-Abteilung Lustenau","operator":"Österreichisches Rotes Kreuz, Landesverband Vorarlberg","short_name":"ÖRK","brand:short":"ÖRK"}},{"type":"Feature","geometry":{"type":"Point","coordinates":[10.1905617,47.3604077]},"properties":{"addr:city":"Riezlern","addr:housenumber":"24","addr:postcode":"6991","addr:street":"Walserstraße","ambulance_station:emergency_doctor":"yes","ambulance_station:patient_transport":"yes","emergency":"ambulance_station","name":"Walser Rettung","operator":"Bayerisches Rotes Kreuz","brand":"Bayerisches Rotes Kreuz","short_name":"BRK","brand:short":"BRK"}},{"type":"Feature","geometry":{"type":"Point","coordinates":[9.8976003,47.4330373]},"properties":{"addr:city":"Egg","addr:housenumber":"1144","addr:postcode":"6863","addr:street":"Gerbe","ambulance_station:patient_transport":"yes","brand":"Österreichisches Rotes Kreuz","emergency":"ambulance_station","name":"Rotkreuz-Abteilung Bregenzerwald","operator":"Österreichisches Rotes Kreuz, Landesverband Vorarlberg","short_name":"ÖRK","brand:short":"ÖRK"}},{"type":"Feature","geometry":{"type":"Point","coordinates":[10.1822305,47.2576664]},"properties":{"addr:city":"Warth","addr:housenumber":"12","addr:postcode":"6767","addr:street":"Warth","ambulance_station:patient_transport":"yes","brand":"Österreichisches Rotes Kreuz","emergency":"ambulance_station","name":"Rotes Kreuz Außenstelle Warth","operator":"Rotes Kreuz Vorarlberg","short_name":"ÖRK","brand:short":"ÖRK"}},{"type":"Feature","geometry":{"type":"Point","coordinates":[9.9831549,47.3228601]},"properties":{"addr:city":"Au","addr:housenumber":"484","addr:postcode":"6883","addr:street":"Schrecken","ambulance_station:patient_transport":"yes","brand":"Österreichisches Rotes Kreuz","brand:short":"ÖRK","emergency":"ambulance_station","name":"Rotkreuz Ortsstelle Au","operator":"Österreichisches Rotes Kreuz, Landesverband Vorarlberg","short_name":"ÖRK"}}]}