{
  "type": "FeatureCollection",
  "features": [
    {
      "type": "Feature",
      "properties": {
        "@id": "relation/60164",
        "alternate": "no",
        "colour": "#52d3f7",
        "from": "Hessenplatz",
        "name": "Bus 43: Hessenplatz => Stadtfriedhof",
        "network": "OÖVV",
        "network:wikidata": "Q2011605",
        "network:wikipedia": "de:Oberösterreichischer Verkehrsverbund",
        "operator": "Linz Linien GmbH",
        "public_transport:version": "2",
        "ref": "43",
        "route": "trolleybus",
        "to": "Stadtfriedhof",
        "type": "route"
      },
      "geometry": {
        "type": "MultiLineString",
        "coordinates": [
          [
            [
              14.2934904,
              48.3009248
            ],
            [
              14.2934437,
              48.3009061
            ],
            [
              14.2934231,
              48.3008863
            ],
            [
              14.2934014,
              48.3008608
            ],
            [
              14.2933215,
              48.3007673
            ],
            [
              14.2932914,
              48.3007383
            ],
            [
              14.2932748,
              48.3007033
            ],
            [
              14.2932687,
              48.3006682
            ],
            [
              14.2935133,
              48.3004105
            ],
            [
              14.2936966,
              48.3002174
            ],
            [
              14.2937512,
              48.3001599
            ],
            [
              14.293822,
              48.3000851
            ],
            [
              14.2938642,
              48.3000406
            ],
            [
              14.293893,
              48.2999981
            ],
            [
              14.2939405,
              48.2999279
            ],
            [
              14.2942288,
              48.2994466
            ],
            [
              14.2944037,
              48.2991626
            ],
            [
              14.2944259,
              48.2991259
            ],
            [
              14.2944556,
              48.2990768
            ],
            [
              14.2944849,
              48.2990282
            ],
            [
              14.2946544,
              48.2987476
            ],
            [
              14.2947156,
              48.2986461
            ],
            [
              14.2949105,
              48.2983233
            ],
            [
              14.2950135,
              48.298155
            ],
            [
              14.2950462,
              48.2981021
            ],
            [
              14.2950684,
              48.2980661
            ],
            [
              14.2952973,
              48.2976984
            ],
            [
              14.2953367,
              48.297635
            ],
            [
              14.29546,
              48.2974369
            ],
            [
              14.29548,
              48.2974048
            ],
            [
              14.2955949,
              48.2972203
            ],
            [
              14.2956186,
              48.2971821
            ],
            [
              14.2956474,
              48.2971354
            ],
            [
              14.2956746,
              48.2970912
            ],
            [
              14.2958249,
              48.2968415
            ],
            [
              14.2959137,
              48.2966938
            ],
            [
              14.2959821,
              48.2965802
            ],
            [
              14.2960595,
              48.2964517
            ],
            [
              14.2960997,
              48.2963848
            ],
            [
              14.2961379,
              48.2963213
            ],
            [
              14.2963315,
              48.2960007
            ],
            [
              14.2964409,
              48.2958179
            ],
            [
              14.2964751,
              48.295761
            ],
            [
              14.2965275,
              48.2956739
            ],
            [
              14.2966349,
              48.2954993
            ],
            [
              14.2966662,
              48.2954598
            ],
            [
              14.2970061,
              48.2951526
            ],
            [
              14.2970733,
              48.2950926
            ],
            [
              14.2971152,
              48.2950556
            ],
            [
              14.2972221,
              48.2949693
            ],
            [
              14.297318,
              48.2948983
            ],
            [
              14.2974431,
              48.2948187
            ],
            [
              14.2975561,
              48.2947504
            ],
            [
              14.2978819,
              48.2945874
            ],
            [
              14.2979881,
              48.2945236
            ],
            [
              14.2980979,
              48.2944468
            ],
            [
              14.2981739,
              48.2943731
            ],
            [
              14.2982769,
              48.2942607
            ],
            [
              14.2985069,
              48.294014
            ],
            [
              14.2985755,
              48.2939404
            ],
            [
              14.2991287,
              48.2933468
            ],
            [
              14.2994359,
              48.2930082
            ],
            [
              14.2994657,
              48.2929747
            ],
            [
              14.2995121,
              48.2929226
            ],
            [
              14.2995565,
              48.2928727
            ],
            [
              14.2998686,
              48.2925376
            ],
            [
              14.3000623,
              48.2923297
            ],
            [
              14.3001123,
              48.2922761
            ],
            [
              14.3001536,
              48.2922318
            ],
            [
              14.300163,
              48.2922217
            ],
            [
              14.3002217,
              48.2921586
            ],
            [
              14.3004429,
              48.2919226
            ],
            [
              14.3004879,
              48.2918745
            ],
            [
              14.3005165,
              48.2918421
            ],
            [
              14.3006503,
              48.2917241
            ],
            [
              14.3005513,
              48.291685
            ],
            [
              14.300473,
              48.2916519
            ],
            [
              14.300033,
              48.2914653
            ],
            [
              14.2997566,
              48.2913481
            ],
            [
              14.299741,
              48.2913414
            ],
            [
              14.2994848,
              48.2912312
            ],
            [
              14.2991292,
              48.2910822
            ],
            [
              14.2990993,
              48.2910695
            ],
            [
              14.2990374,
              48.291041
            ],
            [
              14.2984497,
              48.2907709
            ],
            [
              14.2983814,
              48.2907395
            ],
            [
              14.2983727,
              48.2907355
            ],
            [
              14.2982871,
              48.2906961
            ],
            [
              14.2980441,
              48.2905917
            ],
            [
              14.2975754,
              48.2903904
            ],
            [
              14.2974303,
              48.2903185
            ],
            [
              14.2973423,
              48.2902621
            ],
            [
              14.2972778,
              48.2901998
            ],
            [
              14.2970137,
              48.2898781
            ],
            [
              14.2969453,
              48.2897948
            ],
            [
              14.2965133,
              48.2892459
            ],
            [
              14.2957615,
              48.2882908
            ],
            [
              14.2953994,
              48.2878107
            ],
            [
              14.2953155,
              48.2876995
            ],
            [
              14.2952977,
              48.2876763
            ],
            [
              14.2952397,
              48.2876009
            ],
            [
              14.2951483,
              48.287482
            ],
            [
              14.2951203,
              48.2874456
            ],
            [
              14.2950277,
              48.2873265
            ],
            [
              14.2949386,
              48.2872119
            ],
            [
              14.2949271,
              48.2871971
            ],
            [
              14.2947141,
              48.2869229
            ],
            [
              14.294175,
              48.2862292
            ],
            [
              14.2936917,
              48.2856096
            ],
            [
              14.293562,
              48.2854539
            ],
            [
              14.2934519,
              48.2853287
            ],
            [
              14.2933257,
              48.2852067
            ],
            [
              14.2931299,
              48.2850272
            ],
            [
              14.2930126,
              48.284932
            ],
            [
              14.2928126,
              48.2847696
            ],
            [
              14.2926865,
              48.2846693
            ],
            [
              14.2926568,
              48.2846449
            ],
            [
              14.2925044,
              48.2845193
            ],
            [
              14.292327,
              48.2843613
            ],
            [
              14.2922625,
              48.2843061
            ],
            [
              14.2921545,
              48.2842155
            ],
            [
              14.2918794,
              48.2839844
            ],
            [
              14.291861,
              48.2839722
            ],
            [
              14.2918226,
              48.2839429
            ],
            [
              14.2917796,
              48.2839153
            ],
            [
              14.2918743,
              48.2838135
            ],
            [
              14.2919026,
              48.2837746
            ],
            [
              14.2919233,
              48.2837461
            ],
            [
              14.2920266,
              48.2835829
            ],
            [
              14.2920616,
              48.2835276
            ],
            [
              14.2921424,
              48.2834003
            ],
            [
              14.2921534,
              48.2833833
            ],
            [
              14.2921804,
              48.2833415
            ],
            [
              14.2922782,
              48.2831903
            ],
            [
              14.2924189,
              48.282973
            ],
            [
              14.2924794,
              48.2828699
            ],
            [
              14.2925281,
              48.2827739
            ],
            [
              14.2925858,
              48.2826284
            ],
            [
              14.2926208,
              48.282543
            ],
            [
              14.2926612,
              48.2824728
            ],
            [
              14.2927073,
              48.2824068
            ],
            [
              14.2927786,
              48.2823297
            ],
            [
              14.2928757,
              48.2822408
            ],
            [
              14.2931303,
              48.282025
            ],
            [
              14.2934927,
              48.281714
            ],
            [
              14.2935644,
              48.2816449
            ],
            [
              14.293625,
              48.2815781
            ],
            [
              14.2936625,
              48.2815295
            ],
            [
              14.2937024,
              48.2814696
            ],
            [
              14.2937391,
              48.2813836
            ],
            [
              14.2937604,
              48.281331
            ],
            [
              14.2937756,
              48.2812857
            ],
            [
              14.2938251,
              48.2811386
            ],
            [
              14.2938446,
              48.2810775
            ],
            [
              14.2938595,
              48.2810307
            ],
            [
              14.29394,
              48.2807785
            ],
            [
              14.2939434,
              48.2807678
            ],
            [
              14.2940381,
              48.2804757
            ],
            [
              14.2941377,
              48.2801753
            ],
            [
              14.2942089,
              48.2799438
            ],
            [
              14.2942432,
              48.2798067
            ],
            [
              14.2942692,
              48.2796799
            ],
            [
              14.2942931,
              48.2795172
            ],
            [
              14.2943081,
              48.2793399
            ],
            [
              14.2943016,
              48.279137
            ],
            [
              14.2942571,
              48.2788506
            ],
            [
              14.2941538,
              48.2784109
            ],
            [
              14.2940781,
              48.2780836
            ],
            [
              14.2940554,
              48.277977
            ],
            [
              14.2940352,
              48.277843
            ],
            [
              14.2940264,
              48.2777327
            ],
            [
              14.2940275,
              48.2776368
            ],
            [
              14.2940385,
              48.2775339
            ],
            [
              14.2940768,
              48.2773597
            ],
            [
              14.2941032,
              48.277264
            ],
            [
              14.2943183,
              48.2766058
            ],
            [
              14.2943599,
              48.2764728
            ],
            [
              14.2943989,
              48.2762935
            ],
            [
              14.2944459,
              48.2760637
            ],
            [
              14.2944714,
              48.2758573
            ],
            [
              14.2944835,
              48.2757088
            ],
            [
              14.2944861,
              48.2755676
            ],
            [
              14.2944899,
              48.2754298
            ],
            [
              14.2944825,
              48.2753515
            ],
            [
              14.2944708,
              48.2752748
            ],
            [
              14.2944578,
              48.2752203
            ],
            [
              14.2944305,
              48.2751493
            ],
            [
              14.2944192,
              48.2751322
            ],
            [
              14.2943902,
              48.2750883
            ],
            [
              14.2943819,
              48.2750757
            ],
            [
              14.2943543,
              48.2750481
            ],
            [
              14.2943034,
              48.2750083
            ],
            [
              14.294237,
              48.2749637
            ],
            [
              14.2941395,
              48.2749148
            ],
            [
              14.2940436,
              48.274883
            ],
            [
              14.2939412,
              48.2748588
            ],
            [
              14.2938298,
              48.2748456
            ],
            [
              14.2937299,
              48.2748414
            ],
            [
              14.2936471,
              48.2748412
            ],
            [
              14.2933362,
              48.2748364
            ],
            [
              14.2932557,
              48.2748352
            ],
            [
              14.2930607,
              48.2748259
            ],
            [
              14.2928169,
              48.2748062
            ],
            [
              14.2926239,
              48.274785
            ],
            [
              14.2925588,
              48.2747778
            ],
            [
              14.2925306,
              48.2747659
            ],
            [
              14.2925078,
              48.2747577
            ],
            [
              14.2924758,
              48.2747259
            ],
            [
              14.2924444,
              48.2746858
            ],
            [
              14.2924665,
              48.273797
            ],
            [
              14.2924812,
              48.2731943
            ],
            [
              14.2924828,
              48.2731134
            ],
            [
              14.292488,
              48.272862
            ],
            [
              14.2924913,
              48.2727025
            ],
            [
              14.2924923,
              48.2726555
            ],
            [
              14.2924938,
              48.2725802
            ],
            [
              14.292498,
              48.2724657
            ],
            [
              14.2925009,
              48.2724241
            ],
            [
              14.2925053,
              48.2723618
            ],
            [
              14.2925137,
              48.2722407
            ],
            [
              14.2925228,
              48.2721107
            ],
            [
              14.292532,
              48.2719789
            ],
            [
              14.2925345,
              48.2719439
            ],
            [
              14.2925437,
              48.2718119
            ],
            [
              14.2925514,
              48.271729
            ],
            [
              14.292561,
              48.2716275
            ],
            [
              14.2925646,
              48.2715888
            ],
            [
              14.2925843,
              48.2713795
            ],
            [
              14.292589,
              48.2712897
            ],
            [
              14.2925937,
              48.2710951
            ],
            [
              14.2926023,
              48.2708915
            ],
            [
              14.2926109,
              48.2706894
            ],
            [
              14.2926167,
              48.2705517
            ],
            [
              14.2926207,
              48.2704587
            ],
            [
              14.2926229,
              48.270407
            ],
            [
              14.2926241,
              48.270378
            ],
            [
              14.2926376,
              48.2698874
            ],
            [
              14.2926443,
              48.2696474
            ],
            [
              14.2926466,
              48.2695622
            ],
            [
              14.2925021,
              48.2695606
            ],
            [
              14.2922271,
              48.2695574
            ],
            [
              14.2920315,
              48.2695551
            ],
            [
              14.2919075,
              48.2695537
            ],
            [
              14.2917545,
              48.2695519
            ],
            [
              14.2911717,
              48.2695449
            ],
            [
              14.2902174,
              48.2695297
            ],
            [
              14.2898346,
              48.2695235
            ],
            [
              14.2892563,
              48.2695143
            ],
            [
              14.2889303,
              48.2695091
            ],
            [
              14.2887381,
              48.269506
            ],
            [
              14.2886424,
              48.2695008
            ],
            [
              14.2885391,
              48.269486
            ],
            [
              14.2884675,
              48.2694655
            ],
            [
              14.2883591,
              48.2694217
            ],
            [
              14.2882096,
              48.2693297
            ],
            [
              14.28815,
              48.2692989
            ],
            [
              14.2878788,
              48.2691485
            ],
            [
              14.287128,
              48.2687333
            ],
            [
              14.2869062,
              48.2686077
            ],
            [
              14.2863418,
              48.2682889
            ],
            [
              14.2858923,
              48.268035
            ],
            [
              14.2856716,
              48.2679104
            ],
            [
              14.2853726,
              48.2677415
            ],
            [
              14.2852992,
              48.2677001
            ],
            [
              14.2851911,
              48.267639
            ],
            [
              14.2854019,
              48.2674717
            ],
            [
              14.2858609,
              48.2670969
            ],
            [
              14.2859109,
              48.2670553
            ],
            [
              14.285949,
              48.2670237
            ],
            [
              14.2860539,
              48.2669365
            ],
            [
              14.2861534,
              48.2668539
            ],
            [
              14.2861946,
              48.2668196
            ],
            [
              14.2868152,
              48.2663222
            ],
            [
              14.2868656,
              48.2662818
            ],
            [
              14.2871785,
              48.266031
            ],
            [
              14.2872893,
              48.2659379
            ],
            [
              14.2876396,
              48.2656437
            ],
            [
              14.2877378,
              48.2655612
            ],
            [
              14.2878846,
              48.2654356
            ],
            [
              14.2882104,
              48.2651476
            ],
            [
              14.2883012,
              48.2650615
            ],
            [
              14.2883445,
              48.2650228
            ],
            [
              14.2883951,
              48.2649774
            ],
            [
              14.2885578,
              48.264823
            ],
            [
              14.2886433,
              48.2647368
            ],
            [
              14.2887451,
              48.2646301
            ],
            [
              14.2888723,
              48.2644938
            ],
            [
              14.2890034,
              48.2643427
            ],
            [
              14.2891087,
              48.2642146
            ],
            [
              14.2892389,
              48.264033
            ],
            [
              14.2893427,
              48.2638774
            ],
            [
              14.2894508,
              48.2636979
            ],
            [
              14.2895429,
              48.2635449
            ],
            [
              14.2896154,
              48.2633991
            ],
            [
              14.2897018,
              48.2632029
            ],
            [
              14.2897883,
              48.2629906
            ],
            [
              14.2898728,
              48.2627592
            ],
            [
              14.2899681,
              48.2624835
            ],
            [
              14.2900494,
              48.2621563
            ],
            [
              14.2900849,
              48.2619835
            ],
            [
              14.2901076,
              48.2618729
            ],
            [
              14.2901954,
              48.2614458
            ],
            [
              14.2903192,
              48.2607456
            ],
            [
              14.2904256,
              48.2601387
            ],
            [
              14.290522,
              48.2595896
            ],
            [
              14.2905577,
              48.2593852
            ],
            [
              14.2905892,
              48.2592052
            ],
            [
              14.290608,
              48.2590928
            ],
            [
              14.2906212,
              48.258922
            ],
            [
              14.2906165,
              48.2588253
            ],
            [
              14.2906016,
              48.2587136
            ],
            [
              14.2905711,
              48.2585797
            ],
            [
              14.2905257,
              48.2584595
            ],
            [
              14.2904602,
              48.2583401
            ],
            [
              14.2903625,
              48.2582039
            ],
            [
              14.2902523,
              48.2580907
            ],
            [
              14.2901422,
              48.2579945
            ],
            [
              14.2899185,
              48.2578292
            ],
            [
              14.2896242,
              48.2576495
            ],
            [
              14.2893715,
              48.2575104
            ],
            [
              14.2889054,
              48.2572513
            ],
            [
              14.2885766,
              48.2570685
            ],
            [
              14.2885256,
              48.2570402
            ],
            [
              14.2882449,
              48.2568857
            ],
            [
              14.2881808,
              48.2568485
            ],
            [
              14.2881391,
              48.2568253
            ],
            [
              14.2880904,
              48.2567982
            ],
            [
              14.2877871,
              48.2566296
            ],
            [
              14.2876693,
              48.2565637
            ],
            [
              14.2875817,
              48.2565144
            ],
            [
              14.2875085,
              48.2564664
            ],
            [
              14.2874126,
              48.2564008
            ],
            [
              14.2873204,
              48.2563156
            ],
            [
              14.2872793,
              48.2562582
            ],
            [
              14.287236,
              48.2561777
            ],
            [
              14.2872225,
              48.2561182
            ],
            [
              14.2872259,
              48.2560784
            ],
            [
              14.287228,
              48.2560546
            ],
            [
              14.2872465,
              48.2559702
            ],
            [
              14.2872611,
              48.2559188
            ],
            [
              14.2872842,
              48.2558572
            ],
            [
              14.2873409,
              48.2557056
            ],
            [
              14.287382,
              48.2555959
            ],
            [
              14.2873945,
              48.2555625
            ],
            [
              14.2874144,
              48.2555168
            ],
            [
              14.2874284,
              48.255485
            ],
            [
              14.2874381,
              48.2554628
            ],
            [
              14.2874696,
              48.2554042
            ],
            [
              14.2872715,
              48.2553185
            ],
            [
              14.2872036,
              48.2552901
            ],
            [
              14.2867791,
              48.2551112
            ],
            [
              14.286543,
              48.255016
            ],
            [
              14.2862693,
              48.2549177
            ],
            [
              14.285114,
              48.2545533
            ],
            [
              14.2837043,
              48.2541804
            ],
            [
              14.2828975,
              48.2539738
            ],
            [
              14.2825619,
              48.2538903
            ],
            [
              14.2822358,
              48.2538091
            ],
            [
              14.2816453,
              48.2536577
            ],
            [
              14.2792385,
              48.2530437
            ],
            [
              14.2780789,
              48.2527363
            ],
            [
              14.2771831,
              48.2524963
            ],
            [
              14.276913,
              48.252416
            ],
            [
              14.2765292,
              48.2523098
            ],
            [
              14.2762902,
              48.2522405
            ],
            [
              14.2760549,
              48.2521609
            ],
            [
              14.2754241,
              48.2519583
            ],
            [
              14.2748261,
              48.2517587
            ],
            [
              14.2741861,
              48.2515444
            ],
            [
              14.2736927,
              48.2513645
            ],
            [
              14.2730737,
              48.2511138
            ],
            [
              14.2722874,
              48.2507953
            ],
            [
              14.2719556,
              48.2506712
            ],
            [
              14.2717484,
              48.2505938
            ],
            [
              14.2716985,
              48.250575
            ],
            [
              14.2710322,
              48.2503005
            ],
            [
              14.2708438,
              48.2502191
            ],
            [
              14.2702962,
              48.2499826
            ],
            [
              14.2699402,
              48.2498273
            ],
            [
              14.2696298,
              48.2497037
            ],
            [
              14.2694862,
              48.2496466
            ],
            [
              14.2692232,
              48.2495381
            ],
            [
              14.2661094,
              48.248254
            ],
            [
              14.2659483,
              48.2481868
            ],
            [
              14.2651242,
              48.2478432
            ],
            [
              14.2650897,
              48.2478285
            ],
            [
              14.2648734,
              48.2477392
            ],
            [
              14.2646573,
              48.247658
            ],
            [
              14.264363,
              48.2475272
            ],
            [
              14.2626317,
              48.246808
            ],
            [
              14.261895,
              48.2464872
            ],
            [
              14.2612068,
              48.2461653
            ],
            [
              14.260761,
              48.2459534
            ],
            [
              14.2600846,
              48.2456319
            ],
            [
              14.259732,
              48.2454629
            ],
            [
              14.2592462,
              48.2452304
            ],
            [
              14.2569726,
              48.2441425
            ],
            [
              14.2559833,
              48.243675
            ],
            [
              14.2556248,
              48.2435056
            ],
            [
              14.2555666,
              48.2434781
            ],
            [
              14.2550393,
              48.2432301
            ],
            [
              14.2538439,
              48.2426731
            ],
            [
              14.2537276,
              48.2426193
            ],
            [
              14.2517066,
              48.2417193
            ],
            [
              14.2510857,
              48.2414506
            ],
            [
              14.2502331,
              48.2410779
            ],
            [
              14.2498832,
              48.240925
            ],
            [
              14.2497723,
              48.2408798
            ],
            [
              14.2496443,
              48.2408278
            ],
            [
              14.2494707,
              48.2407583
            ],
            [
              14.2490284,
              48.2405815
            ],
            [
              14.2469194,
              48.2397228
            ],
            [
              14.2463443,
              48.2394992
            ],
            [
              14.2453925,
              48.2391293
            ],
            [
              14.2452267,
              48.2390649
            ],
            [
              14.2450079,
              48.2389799
            ],
            [
              14.2450922,
              48.2388789
            ],
            [
              14.2451545,
              48.2388043
            ],
            [
              14.2451789,
              48.2387813
            ],
            [
              14.245321,
              48.2386477
            ],
            [
              14.2458324,
              48.2388847
            ],
            [
              14.2459352,
              48.2389305
            ],
            [
              14.24603,
              48.2389737
            ],
            [
              14.2468045,
              48.2393142
            ],
            [
              14.2470911,
              48.2394402
            ]
          ],
          [
            [
              14.2471447,
              48.2393947
            ],
            [
              14.2468214,
              48.2392481
            ]
          ],
          [
            [
              14.2548828,
              48.2432367
            ],
            [
              14.2552772,
              48.2434172
            ]
          ],
          [
            [
              14.25952,
              48.245447
            ],
            [
              14.259341,
              48.2453649
            ],
            [
              14.2592339,
              48.2453133
            ],
            [
              14.25917,
              48.2452768
            ]
          ],
          [
            [
              14.2643092,
              48.2475886
            ],
            [
              14.2646157,
              48.2477204
            ]
          ],
          [
            [
              14.2691638,
              48.2495993
            ],
            [
              14.269425,
              48.2497116
            ]
          ],
          [
            [
              14.2775448,
              48.2526582
            ],
            [
              14.2774449,
              48.2526402
            ],
            [
              14.277303,
              48.2526049
            ],
            [
              14.2771366,
              48.2525595
            ]
          ],
          [
            [
              14.2822336,
              48.2538619
            ],
            [
              14.2821287,
              48.2538402
            ],
            [
              14.2815634,
              48.2537024
            ]
          ],
          [
            [
              14.2873887,
              48.2565084
            ],
            [
              14.287414,
              48.2564971
            ],
            [
              14.2876902,
              48.2566637
            ],
            [
              14.2876608,
              48.2566834
            ]
          ],
          [
            [
              14.2903058,
              48.2599248
            ],
            [
              14.2903591,
              48.2599288
            ],
            [
              14.2904178,
              48.259583
            ],
            [
              14.2903555,
              48.2595783
            ]
          ],
          [
            [
              14.2898433,
              48.2624834
            ],
            [
              14.2898759,
              48.2623621
            ],
            [
              14.2898754,
              48.2623511
            ],
            [
              14.2898745,
              48.2623342
            ],
            [
              14.2898787,
              48.2623017
            ],
            [
              14.289894,
              48.2622436
            ],
            [
              14.2899185,
              48.2621911
            ],
            [
              14.2899331,
              48.2621516
            ]
          ],
          [
            [
              14.2881169,
              48.2650487
            ],
            [
              14.2881573,
              48.2650681
            ],
            [
              14.2877714,
              48.2654106
            ],
            [
              14.2877399,
              48.2653941
            ]
          ],
          [
            [
              14.2853529,
              48.2673528
            ],
            [
              14.2856862,
              48.2670836
            ],
            [
              14.285716,
              48.267046
            ]
          ],
          [
            [
              14.2890528,
              48.2695879
            ],
            [
              14.2890537,
              48.2695593
            ],
            [
              14.2893389,
              48.269563
            ],
            [
              14.289338,
              48.2695929
            ]
          ],
          [
            [
              14.2919903,
              48.2696342
            ],
            [
              14.2919913,
              48.2696063
            ],
            [
              14.2922129,
              48.2696097
            ],
            [
              14.2922119,
              48.2696376
            ]
          ],
          [
            [
              14.2923866,
              48.2718777
            ],
            [
              14.2924094,
              48.2718777
            ],
            [
              14.292408,
              48.2720596
            ],
            [
              14.2923848,
              48.2720591
            ]
          ],
          [
            [
              14.2933343,
              48.2748775
            ],
            [
              14.2932241,
              48.2748739
            ],
            [
              14.2931042,
              48.27487
            ],
            [
              14.2930493,
              48.2748656
            ]
          ],
          [
            [
              14.2938745,
              48.2807133
            ],
            [
              14.2938779,
              48.2807569
            ],
            [
              14.2937763,
              48.2810666
            ],
            [
              14.2937484,
              48.281089
            ]
          ],
          [
            [
              14.2922254,
              48.283107
            ],
            [
              14.2922694,
              48.2830952
            ],
            [
              14.2923533,
              48.2829678
            ],
            [
              14.2923498,
              48.2829393
            ]
          ],
          [
            [
              14.2948192,
              48.2872453
            ],
            [
              14.2948612,
              48.2872312
            ],
            [
              14.2950018,
              48.2874178
            ],
            [
              14.2949646,
              48.2874302
            ]
          ],
          [
            [
              14.2996847,
              48.2914257
            ],
            [
              14.299698,
              48.2914118
            ],
            [
              14.2999259,
              48.2915079
            ],
            [
              14.2999132,
              48.2915212
            ]
          ],
          [
            [
              14.2970406,
              48.2950033
            ],
            [
              14.2970721,
              48.294972
            ],
            [
              14.297134,
              48.2949236
            ],
            [
              14.2971962,
              48.2948801
            ],
            [
              14.297313,
              48.2948123
            ]
          ],
          [
            [
              14.2952814,
              48.2975825
            ],
            [
              14.295268,
              48.297579
            ],
            [
              14.2953773,
              48.2974024
            ],
            [
              14.2953894,
              48.2974058
            ]
          ],
          [
            [
              14.2939871,
              48.3010922
            ],
            [
              14.2939955,
              48.3010773
            ],
            [
              14.2934615,
              48.3009428
            ],
            [
              14.2934538,
              48.3009564
            ]
          ]
        ]
      },
      "id": "relation/60164"
    },
    {
      "type": "Feature",
      "properties": {
        "@id": "relation/1149299",
        "alternate": "no",
        "colour": "#52d3f7",
        "from": "Stadtfriedhof",
        "name": "Bus 43: Stadtfriedhof => Hessenplatz",
        "network": "OÖVV",
        "network:wikidata": "Q2011605",
        "network:wikipedia": "de:Oberösterreichischer Verkehrsverbund",
        "operator": "Linz Linien GmbH",
        "public_transport:version": "2",
        "ref": "43",
        "route": "trolleybus",
        "to": "Hessenplatz",
        "type": "route"
      },
      "geometry": {
        "type": "MultiLineString",
        "coordinates": [
          [
            [
              14.2470911,
              48.2394402
            ],
            [
              14.2475889,
              48.2396728
            ],
            [
              14.2478653,
              48.2397901
            ],
            [
              14.2479916,
              48.2399714
            ],
            [
              14.2480444,
              48.2400473
            ],
            [
              14.2483579,
              48.2401749
            ],
            [
              14.2490524,
              48.2404576
            ],
            [
              14.2493816,
              48.240596
            ],
            [
              14.2495556,
              48.2406691
            ],
            [
              14.2497187,
              48.2407376
            ],
            [
              14.2498461,
              48.2407936
            ],
            [
              14.2517991,
              48.2416253
            ],
            [
              14.2538749,
              48.2425531
            ],
            [
              14.2555496,
              48.2433323
            ],
            [
              14.2556099,
              48.2433602
            ],
            [
              14.2560531,
              48.2435696
            ],
            [
              14.2568006,
              48.2439229
            ],
            [
              14.2581279,
              48.2445569
            ],
            [
              14.2593439,
              48.2451428
            ],
            [
              14.2597564,
              48.2453382
            ],
            [
              14.2600599,
              48.245484
            ],
            [
              14.2603735,
              48.2456379
            ],
            [
              14.2604712,
              48.2456858
            ],
            [
              14.2612941,
              48.2460848
            ],
            [
              14.2620175,
              48.2464146
            ],
            [
              14.2627092,
              48.2467154
            ],
            [
              14.2632798,
              48.2469442
            ],
            [
              14.2636016,
              48.2470749
            ],
            [
              14.2639314,
              48.247218
            ],
            [
              14.2646483,
              48.2475291
            ],
            [
              14.264743,
              48.2475672
            ],
            [
              14.2649574,
              48.2476551
            ],
            [
              14.2651663,
              48.2477426
            ],
            [
              14.265678,
              48.2479487
            ],
            [
              14.2682944,
              48.2490332
            ],
            [
              14.268533,
              48.2491362
            ],
            [
              14.2694554,
              48.2495343
            ],
            [
              14.2695553,
              48.2495731
            ],
            [
              14.2697032,
              48.2496304
            ],
            [
              14.2698977,
              48.2497057
            ],
            [
              14.2702128,
              48.2498357
            ],
            [
              14.2706987,
              48.2500361
            ],
            [
              14.2708714,
              48.2501114
            ],
            [
              14.2716783,
              48.2504631
            ],
            [
              14.2718205,
              48.2505165
            ],
            [
              14.2720217,
              48.2505922
            ],
            [
              14.2722691,
              48.2506852
            ],
            [
              14.2729395,
              48.2509524
            ],
            [
              14.2737642,
              48.2512712
            ],
            [
              14.2742523,
              48.2514486
            ],
            [
              14.2749021,
              48.2516674
            ],
            [
              14.2755016,
              48.251866
            ],
            [
              14.2761265,
              48.2520646
            ],
            [
              14.2765918,
              48.2522056
            ],
            [
              14.2769553,
              48.2523218
            ],
            [
              14.2776426,
              48.2525129
            ],
            [
              14.2787776,
              48.2528112
            ],
            [
              14.2798756,
              48.253096
            ],
            [
              14.2808622,
              48.253344
            ],
            [
              14.2810298,
              48.2533862
            ],
            [
              14.2813501,
              48.2534614
            ],
            [
              14.2821912,
              48.2536673
            ],
            [
              14.2826239,
              48.2537874
            ],
            [
              14.2828992,
              48.2538638
            ],
            [
              14.2832128,
              48.253943
            ],
            [
              14.2845334,
              48.254303
            ],
            [
              14.2851621,
              48.2544752
            ],
            [
              14.2857051,
              48.2546343
            ],
            [
              14.286025,
              48.2547367
            ],
            [
              14.2863341,
              48.2548388
            ],
            [
              14.2867103,
              48.2549737
            ],
            [
              14.2871475,
              48.2551471
            ],
            [
              14.2872795,
              48.2552021
            ],
            [
              14.2873022,
              48.2552116
            ],
            [
              14.2875286,
              48.2553057
            ],
            [
              14.2874696,
              48.2554042
            ],
            [
              14.2874381,
              48.2554628
            ],
            [
              14.2874284,
              48.255485
            ],
            [
              14.2874144,
              48.2555168
            ],
            [
              14.2873945,
              48.2555625
            ],
            [
              14.287382,
              48.2555959
            ],
            [
              14.2873409,
              48.2557056
            ],
            [
              14.2872842,
              48.2558572
            ],
            [
              14.2872611,
              48.2559188
            ],
            [
              14.2872465,
              48.2559702
            ],
            [
              14.287228,
              48.2560546
            ],
            [
              14.2872259,
              48.2560784
            ],
            [
              14.2872225,
              48.2561182
            ],
            [
              14.287236,
              48.2561777
            ],
            [
              14.2872793,
              48.2562582
            ],
            [
              14.2873204,
              48.2563156
            ],
            [
              14.2874126,
              48.2564008
            ],
            [
              14.2875085,
              48.2564664
            ],
            [
              14.2875817,
              48.2565144
            ],
            [
              14.2876693,
              48.2565637
            ],
            [
              14.2877871,
              48.2566296
            ],
            [
              14.2880904,
              48.2567982
            ],
            [
              14.2881391,
              48.2568253
            ],
            [
              14.2881808,
              48.2568485
            ],
            [
              14.2882449,
              48.2568857
            ],
            [
              14.2885256,
              48.2570402
            ],
            [
              14.2885766,
              48.2570685
            ],
            [
              14.2889054,
              48.2572513
            ],
            [
              14.2893715,
              48.2575104
            ],
            [
              14.2896242,
              48.2576495
            ],
            [
              14.2899185,
              48.2578292
            ],
            [
              14.2901422,
              48.2579945
            ],
            [
              14.2902523,
              48.2580907
            ],
            [
              14.2903625,
              48.2582039
            ],
            [
              14.2904602,
              48.2583401
            ],
            [
              14.2905257,
              48.2584595
            ],
            [
              14.2905711,
              48.2585797
            ],
            [
              14.2906016,
              48.2587136
            ],
            [
              14.2906165,
              48.2588253
            ],
            [
              14.2906212,
              48.258922
            ],
            [
              14.290608,
              48.2590928
            ],
            [
              14.2905892,
              48.2592052
            ],
            [
              14.2905577,
              48.2593852
            ],
            [
              14.290522,
              48.2595896
            ],
            [
              14.2904256,
              48.2601387
            ],
            [
              14.2903192,
              48.2607456
            ],
            [
              14.2901954,
              48.2614458
            ],
            [
              14.2901076,
              48.2618729
            ],
            [
              14.2900849,
              48.2619835
            ],
            [
              14.2900494,
              48.2621563
            ],
            [
              14.2899681,
              48.2624835
            ],
            [
              14.2898728,
              48.2627592
            ],
            [
              14.2897883,
              48.2629906
            ],
            [
              14.2897018,
              48.2632029
            ],
            [
              14.2896154,
              48.2633991
            ],
            [
              14.2895429,
              48.2635449
            ],
            [
              14.2894508,
              48.2636979
            ],
            [
              14.2893427,
              48.2638774
            ],
            [
              14.2892389,
              48.264033
            ],
            [
              14.2891087,
              48.2642146
            ],
            [
              14.2890034,
              48.2643427
            ],
            [
              14.2888723,
              48.2644938
            ],
            [
              14.2887451,
              48.2646301
            ],
            [
              14.2886433,
              48.2647368
            ],
            [
              14.2885578,
              48.264823
            ],
            [
              14.2883951,
              48.2649774
            ],
            [
              14.2883445,
              48.2650228
            ],
            [
              14.2883012,
              48.2650615
            ],
            [
              14.2882104,
              48.2651476
            ],
            [
              14.2878846,
              48.2654356
            ],
            [
              14.2877378,
              48.2655612
            ],
            [
              14.2876396,
              48.2656437
            ],
            [
              14.2872893,
              48.2659379
            ],
            [
              14.2871785,
              48.266031
            ],
            [
              14.2868656,
              48.2662818
            ],
            [
              14.2868152,
              48.2663222
            ],
            [
              14.2861946,
              48.2668196
            ],
            [
              14.2861534,
              48.2668539
            ],
            [
              14.2860539,
              48.2669365
            ],
            [
              14.285949,
              48.2670237
            ],
            [
              14.2859109,
              48.2670553
            ],
            [
              14.2858609,
              48.2670969
            ],
            [
              14.2854019,
              48.2674717
            ],
            [
              14.2851911,
              48.267639
            ],
            [
              14.2852992,
              48.2677001
            ],
            [
              14.2853726,
              48.2677415
            ],
            [
              14.2856716,
              48.2679104
            ],
            [
              14.2858923,
              48.268035
            ],
            [
              14.2863418,
              48.2682889
            ],
            [
              14.2869062,
              48.2686077
            ],
            [
              14.287128,
              48.2687333
            ],
            [
              14.2878788,
              48.2691485
            ],
            [
              14.28815,
              48.2692989
            ],
            [
              14.2882096,
              48.2693297
            ],
            [
              14.2883591,
              48.2694217
            ],
            [
              14.2884675,
              48.2694655
            ],
            [
              14.2885391,
              48.269486
            ],
            [
              14.2886424,
              48.2695008
            ],
            [
              14.2887381,
              48.269506
            ],
            [
              14.2889303,
              48.2695091
            ],
            [
              14.2892563,
              48.2695143
            ],
            [
              14.2898346,
              48.2695235
            ],
            [
              14.2902174,
              48.2695297
            ],
            [
              14.2911717,
              48.2695449
            ],
            [
              14.2917545,
              48.2695519
            ],
            [
              14.2919075,
              48.2695537
            ],
            [
              14.2920315,
              48.2695551
            ],
            [
              14.2922271,
              48.2695574
            ],
            [
              14.2925021,
              48.2695606
            ],
            [
              14.2926466,
              48.2695622
            ],
            [
              14.2926443,
              48.2696474
            ],
            [
              14.2926376,
              48.2698874
            ],
            [
              14.2926241,
              48.270378
            ],
            [
              14.2926229,
              48.270407
            ],
            [
              14.2926207,
              48.2704587
            ],
            [
              14.2926167,
              48.2705517
            ],
            [
              14.2926109,
              48.2706894
            ],
            [
              14.2926023,
              48.2708915
            ],
            [
              14.2925937,
              48.2710951
            ],
            [
              14.292589,
              48.2712897
            ],
            [
              14.2925843,
              48.2713795
            ],
            [
              14.2925646,
              48.2715888
            ],
            [
              14.292561,
              48.2716275
            ],
            [
              14.2925514,
              48.271729
            ],
            [
              14.2925437,
              48.2718119
            ],
            [
              14.2925345,
              48.2719439
            ],
            [
              14.292532,
              48.2719789
            ],
            [
              14.2925228,
              48.2721107
            ],
            [
              14.2925137,
              48.2722407
            ],
            [
              14.2925053,
              48.2723618
            ],
            [
              14.2925009,
              48.2724241
            ],
            [
              14.292498,
              48.2724657
            ],
            [
              14.2924938,
              48.2725802
            ],
            [
              14.2924923,
              48.2726555
            ],
            [
              14.2924913,
              48.2727025
            ],
            [
              14.292488,
              48.272862
            ],
            [
              14.2924828,
              48.2731134
            ],
            [
              14.2924812,
              48.2731943
            ],
            [
              14.2924665,
              48.273797
            ],
            [
              14.2924444,
              48.2746858
            ],
            [
              14.2924758,
              48.2747259
            ],
            [
              14.2925078,
              48.2747577
            ],
            [
              14.2925306,
              48.2747659
            ],
            [
              14.2925588,
              48.2747778
            ],
            [
              14.2926239,
              48.274785
            ],
            [
              14.2928169,
              48.2748062
            ],
            [
              14.2930607,
              48.2748259
            ],
            [
              14.2932557,
              48.2748352
            ],
            [
              14.2933362,
              48.2748364
            ],
            [
              14.2936471,
              48.2748412
            ],
            [
              14.2937299,
              48.2748414
            ],
            [
              14.2938298,
              48.2748456
            ],
            [
              14.2939412,
              48.2748588
            ],
            [
              14.2940436,
              48.274883
            ],
            [
              14.2941395,
              48.2749148
            ],
            [
              14.294237,
              48.2749637
            ],
            [
              14.2943034,
              48.2750083
            ],
            [
              14.2943543,
              48.2750481
            ],
            [
              14.2943819,
              48.2750757
            ],
            [
              14.2943902,
              48.2750883
            ],
            [
              14.2944192,
              48.2751322
            ],
            [
              14.2944305,
              48.2751493
            ],
            [
              14.2944578,
              48.2752203
            ],
            [
              14.2944708,
              48.2752748
            ],
            [
              14.2944825,
              48.2753515
            ],
            [
              14.2944899,
              48.2754298
            ],
            [
              14.2944861,
              48.2755676
            ],
            [
              14.2944835,
              48.2757088
            ],
            [
              14.2944714,
              48.2758573
            ],
            [
              14.2944459,
              48.2760637
            ],
            [
              14.2943989,
              48.2762935
            ],
            [
              14.2943599,
              48.2764728
            ],
            [
              14.2943183,
              48.2766058
            ],
            [
              14.2941032,
              48.277264
            ],
            [
              14.2940768,
              48.2773597
            ],
            [
              14.2940385,
              48.2775339
            ],
            [
              14.2940275,
              48.2776368
            ],
            [
              14.2940264,
              48.2777327
            ],
            [
              14.2940352,
              48.277843
            ],
            [
              14.2940554,
              48.277977
            ],
            [
              14.2940781,
              48.2780836
            ],
            [
              14.2941538,
              48.2784109
            ],
            [
              14.2942571,
              48.2788506
            ],
            [
              14.2943016,
              48.279137
            ],
            [
              14.2943081,
              48.2793399
            ],
            [
              14.2942931,
              48.2795172
            ],
            [
              14.2942692,
              48.2796799
            ],
            [
              14.2942432,
              48.2798067
            ],
            [
              14.2942089,
              48.2799438
            ],
            [
              14.2941377,
              48.2801753
            ],
            [
              14.2940381,
              48.2804757
            ],
            [
              14.2939434,
              48.2807678
            ],
            [
              14.29394,
              48.2807785
            ],
            [
              14.2938595,
              48.2810307
            ],
            [
              14.2938446,
              48.2810775
            ],
            [
              14.2938251,
              48.2811386
            ],
            [
              14.2937756,
              48.2812857
            ],
            [
              14.2937604,
              48.281331
            ],
            [
              14.2937391,
              48.2813836
            ],
            [
              14.2937024,
              48.2814696
            ],
            [
              14.2936625,
              48.2815295
            ],
            [
              14.293625,
              48.2815781
            ],
            [
              14.2935644,
              48.2816449
            ],
            [
              14.2934927,
              48.281714
            ],
            [
              14.2931303,
              48.282025
            ],
            [
              14.2928757,
              48.2822408
            ],
            [
              14.2927786,
              48.2823297
            ],
            [
              14.2927073,
              48.2824068
            ],
            [
              14.2926612,
              48.2824728
            ],
            [
              14.2926208,
              48.282543
            ],
            [
              14.2925858,
              48.2826284
            ],
            [
              14.2925281,
              48.2827739
            ],
            [
              14.2924794,
              48.2828699
            ],
            [
              14.2924189,
              48.282973
            ],
            [
              14.2922782,
              48.2831903
            ],
            [
              14.2921804,
              48.2833415
            ],
            [
              14.2921534,
              48.2833833
            ],
            [
              14.2921424,
              48.2834003
            ],
            [
              14.2920616,
              48.2835276
            ],
            [
              14.2920266,
              48.2835829
            ],
            [
              14.2919233,
              48.2837461
            ],
            [
              14.2919026,
              48.2837746
            ],
            [
              14.2918743,
              48.2838135
            ],
            [
              14.2917796,
              48.2839153
            ],
            [
              14.2918226,
              48.2839429
            ],
            [
              14.291861,
              48.2839722
            ],
            [
              14.2918794,
              48.2839844
            ],
            [
              14.2921545,
              48.2842155
            ],
            [
              14.2922625,
              48.2843061
            ],
            [
              14.292327,
              48.2843613
            ],
            [
              14.2925044,
              48.2845193
            ],
            [
              14.2926568,
              48.2846449
            ],
            [
              14.2926865,
              48.2846693
            ],
            [
              14.2928126,
              48.2847696
            ],
            [
              14.2930126,
              48.284932
            ],
            [
              14.2931299,
              48.2850272
            ],
            [
              14.2933257,
              48.2852067
            ],
            [
              14.2934519,
              48.2853287
            ],
            [
              14.293562,
              48.2854539
            ],
            [
              14.2936917,
              48.2856096
            ],
            [
              14.294175,
              48.2862292
            ],
            [
              14.2947141,
              48.2869229
            ],
            [
              14.2949271,
              48.2871971
            ],
            [
              14.2949386,
              48.2872119
            ],
            [
              14.2950277,
              48.2873265
            ],
            [
              14.2951203,
              48.2874456
            ],
            [
              14.2951483,
              48.287482
            ],
            [
              14.2952397,
              48.2876009
            ],
            [
              14.2952977,
              48.2876763
            ],
            [
              14.2953155,
              48.2876995
            ],
            [
              14.2953994,
              48.2878107
            ],
            [
              14.2957615,
              48.2882908
            ],
            [
              14.2965133,
              48.2892459
            ],
            [
              14.2969453,
              48.2897948
            ],
            [
              14.2970137,
              48.2898781
            ],
            [
              14.2972778,
              48.2901998
            ],
            [
              14.2973423,
              48.2902621
            ],
            [
              14.2974303,
              48.2903185
            ],
            [
              14.2975754,
              48.2903904
            ],
            [
              14.2980441,
              48.2905917
            ],
            [
              14.2982871,
              48.2906961
            ],
            [
              14.2983727,
              48.2907355
            ],
            [
              14.2983814,
              48.2907395
            ],
            [
              14.2984497,
              48.2907709
            ],
            [
              14.2990374,
              48.291041
            ],
            [
              14.2990993,
              48.2910695
            ],
            [
              14.2991292,
              48.2910822
            ],
            [
              14.2994848,
              48.2912312
            ],
            [
              14.299741,
              48.2913414
            ],
            [
              14.2997566,
              48.2913481
            ],
            [
              14.300033,
              48.2914653
            ],
            [
              14.300473,
              48.2916519
            ],
            [
              14.3005513,
              48.291685
            ],
            [
              14.3006503,
              48.2917241
            ],
            [
              14.3007552,
              48.2917656
            ],
            [
              14.3008363,
              48.2917976
            ],
            [
              14.3014851,
              48.2920538
            ],
            [
              14.3015822,
              48.2920841
            ],
            [
              14.3016479,
              48.2921027
            ],
            [
              14.3017644,
              48.2921315
            ],
            [
              14.301863,
              48.292136
            ],
            [
              14.3020357,
              48.2921368
            ],
            [
              14.3020388,
              48.2922715
            ],
            [
              14.3020427,
              48.2925373
            ],
            [
              14.3020414,
              48.2927425
            ],
            [
              14.3020428,
              48.2931613
            ],
            [
              14.3020481,
              48.2933157
            ],
            [
              14.3020373,
              48.293404
            ],
            [
              14.3020267,
              48.2934626
            ],
            [
              14.3020076,
              48.2935006
            ],
            [
              14.301951,
              48.2935796
            ],
            [
              14.3018999,
              48.2936293
            ],
            [
              14.3018261,
              48.2936739
            ],
            [
              14.3017299,
              48.2937128
            ],
            [
              14.3015291,
              48.2937736
            ],
            [
              14.3009598,
              48.2939296
            ],
            [
              14.3009185,
              48.2939404
            ],
            [
              14.3008795,
              48.2939499
            ],
            [
              14.3007372,
              48.2939858
            ],
            [
              14.3005206,
              48.2940331
            ],
            [
              14.3002529,
              48.2940897
            ],
            [
              14.3000331,
              48.2941304
            ],
            [
              14.2999417,
              48.2941467
            ],
            [
              14.2999092,
              48.2941567
            ],
            [
              14.2998715,
              48.294181
            ],
            [
              14.2998467,
              48.2942022
            ],
            [
              14.2998326,
              48.2942258
            ],
            [
              14.2998198,
              48.2942564
            ],
            [
              14.2998151,
              48.2942869
            ],
            [
              14.2998111,
              48.2943536
            ],
            [
              14.2998001,
              48.2943971
            ],
            [
              14.2996995,
              48.2946806
            ],
            [
              14.2993136,
              48.2957305
            ],
            [
              14.2992167,
              48.295948
            ],
            [
              14.2990753,
              48.2963446
            ],
            [
              14.2990553,
              48.2964354
            ],
            [
              14.2990443,
              48.2965655
            ],
            [
              14.2990295,
              48.2966868
            ],
            [
              14.2989836,
              48.2968878
            ],
            [
              14.298903,
              48.2971557
            ],
            [
              14.2988435,
              48.2973115
            ],
            [
              14.2987651,
              48.2974962
            ],
            [
              14.2986441,
              48.2977755
            ],
            [
              14.2986294,
              48.2978085
            ],
            [
              14.2985932,
              48.2978898
            ],
            [
              14.2985568,
              48.2979723
            ],
            [
              14.2984813,
              48.2981034
            ],
            [
              14.2984567,
              48.2981458
            ],
            [
              14.2983763,
              48.298285
            ],
            [
              14.2980568,
              48.2988384
            ],
            [
              14.2980322,
              48.298881
            ],
            [
              14.298004,
              48.2989295
            ],
            [
              14.2979231,
              48.2990673
            ],
            [
              14.2976976,
              48.2994568
            ],
            [
              14.297519,
              48.2997637
            ],
            [
              14.2975041,
              48.2997893
            ],
            [
              14.2974749,
              48.2998396
            ],
            [
              14.2974673,
              48.2998526
            ],
            [
              14.297432,
              48.2999133
            ],
            [
              14.2973007,
              48.300139
            ],
            [
              14.2972221,
              48.3002742
            ],
            [
              14.2970608,
              48.3005516
            ],
            [
              14.2970154,
              48.3006297
            ],
            [
              14.296968,
              48.3007111
            ],
            [
              14.2969424,
              48.3007551
            ],
            [
              14.2969109,
              48.3008088
            ],
            [
              14.2964732,
              48.3015558
            ],
            [
              14.2964466,
              48.3016011
            ],
            [
              14.2963626,
              48.3015788
            ],
            [
              14.2959222,
              48.3014622
            ],
            [
              14.2951768,
              48.3012648
            ],
            [
              14.2949241,
              48.3011942
            ],
            [
              14.2948542,
              48.3011876
            ],
            [
              14.2947355,
              48.3011765
            ],
            [
              14.2943297,
              48.3010722
            ],
            [
              14.2942528,
              48.3010667
            ],
            [
              14.29421,
              48.3010736
            ],
            [
              14.2941644,
              48.3010809
            ],
            [
              14.2940299,
              48.3010624
            ],
            [
              14.2940072,
              48.3010567
            ],
            [
              14.293759,
              48.3009934
            ],
            [
              14.2934904,
              48.3009248
            ]
          ],
          [
            [
              14.2939871,
              48.3010922
            ],
            [
              14.2939955,
              48.3010773
            ],
            [
              14.2934615,
              48.3009428
            ],
            [
              14.2934538,
              48.3009564
            ]
          ],
          [
            [
              14.2961238,
              48.301567
            ],
            [
              14.2958942,
              48.3015057
            ]
          ],
          [
            [
              14.2985406,
              48.2981615
            ],
            [
              14.2984542,
              48.2983106
            ]
          ],
          [
            [
              14.3002165,
              48.2941553
            ],
            [
              14.3002676,
              48.2941458
            ],
            [
              14.3006749,
              48.2940743
            ],
            [
              14.3007231,
              48.2940652
            ]
          ],
          [
            [
              14.302127,
              48.2925342
            ],
            [
              14.3021267,
              48.2924816
            ],
            [
              14.3021266,
              48.2924307
            ],
            [
              14.3021253,
              48.2923001
            ]
          ],
          [
            [
              14.2952968,
              48.2874657
            ],
            [
              14.2952553,
              48.2874801
            ],
            [
              14.2954053,
              48.2876713
            ],
            [
              14.2954407,
              48.287659
            ]
          ],
          [
            [
              14.2921057,
              48.2840246
            ],
            [
              14.2923959,
              48.2842712
            ]
          ],
          [
            [
              14.2939592,
              48.2810242
            ],
            [
              14.2939373,
              48.2810928
            ],
            [
              14.2938423,
              48.2814122
            ]
          ],
          [
            [
              14.2938379,
              48.2747845
            ],
            [
              14.2938371,
              48.2747979
            ],
            [
              14.2934709,
              48.274788
            ],
            [
              14.2934714,
              48.2747812
            ],
            [
              14.2934718,
              48.2747745
            ]
          ],
          [
            [
              14.2925994,
              48.2727405
            ],
            [
              14.2925843,
              48.2727403
            ],
            [
              14.2925891,
              48.2725815
            ],
            [
              14.2925908,
              48.2725256
            ],
            [
              14.2926058,
              48.2725259
            ]
          ],
          [
            [
              14.2927456,
              48.2696935
            ],
            [
              14.2927367,
              48.2699079
            ]
          ],
          [
            [
              14.2893023,
              48.2694599
            ],
            [
              14.2889515,
              48.2694546
            ]
          ],
          [
            [
              14.2858413,
              48.267835
            ],
            [
              14.2857787,
              48.2678837
            ],
            [
              14.2855209,
              48.2677401
            ],
            [
              14.2854905,
              48.2677121
            ],
            [
              14.2854744,
              48.2676841
            ],
            [
              14.2854672,
              48.2676626
            ],
            [
              14.2854703,
              48.2676299
            ]
          ],
          [
            [
              14.2883194,
              48.2652433
            ],
            [
              14.2882651,
              48.2652157
            ],
            [
              14.2879286,
              48.2655089
            ],
            [
              14.2879662,
              48.265528
            ]
          ],
          [
            [
              14.2901697,
              48.2621534
            ],
            [
              14.2901667,
              48.2622444
            ],
            [
              14.2901396,
              48.2623497
            ],
            [
              14.2901047,
              48.2624003
            ],
            [
              14.2900775,
              48.2624953
            ]
          ],
          [
            [
              14.2906431,
              48.258396
            ],
            [
              14.2906528,
              48.2584833
            ],
            [
              14.2906822,
              48.2586007
            ],
            [
              14.2907052,
              48.2587137
            ],
            [
              14.2907231,
              48.258803
            ],
            [
              14.2907463,
              48.2589129
            ]
          ],
          [
            [
              14.2875097,
              48.2556798
            ],
            [
              14.2874891,
              48.2557306
            ],
            [
              14.2873637,
              48.2560394
            ]
          ],
          [
            [
              14.283312,
              48.2538687
            ],
            [
              14.2833001,
              48.2538903
            ],
            [
              14.2829357,
              48.2538009
            ],
            [
              14.2829509,
              48.2537735
            ]
          ],
          [
            [
              14.2773706,
              48.252354
            ],
            [
              14.2774681,
              48.2523795
            ],
            [
              14.2776845,
              48.2524478
            ],
            [
              14.2777157,
              48.2524595
            ]
          ],
          [
            [
              14.2702736,
              48.2497821
            ],
            [
              14.2699128,
              48.2496345
            ]
          ],
          [
            [
              14.2652252,
              48.2476838
            ],
            [
              14.2657439,
              48.2478976
            ]
          ],
          [
            [
              14.2605527,
              48.2456488
            ],
            [
              14.2604396,
              48.2455901
            ],
            [
              14.2601734,
              48.2454637
            ],
            [
              14.2601186,
              48.2454244
            ]
          ],
          [
            [
              14.2562124,
              48.2435658
            ],
            [
              14.2558591,
              48.2433936
            ]
          ],
          [
            [
              14.2471447,
              48.2393947
            ],
            [
              14.2468214,
              48.2392481
            ]
          ]
        ]
      },
      "id": "relation/1149299"
    }
  ]
}