{
  "type": "FeatureCollection",
  "features": [
    {
      "type": "Feature",
      "properties": {
        "@id": "relation/403051",
        "colour": "#0072BC",
        "colour:text": "#0000FF",
        "from": "St. Margarethen",
        "name": "Bus 26: St. Margarethen => Stadion",
        "name:de": "Bus 26: St. Margarethen => Stadion",
        "name:en": "Bus 26: St. Margarethen => Stadium",
        "network": "Oberösterreichischer Verkehrsverbund",
        "network:short": "OÖVV",
        "network:wikidata": "Q2011605",
        "network:wikipedia": "de:Oberösterreichischer Verkehrsverbund",
        "operator": "Linz Linien GmbH",
        "public_transport:version": "2",
        "ref": "26",
        "route": "bus",
        "to": "Stadion",
        "type": "route"
      },
      "geometry": {
        "type": "MultiLineString",
        "coordinates": [
          [
            [
              14.2749203,
              48.2910058
            ],
            [
              14.2751102,
              48.2909626
            ],
            [
              14.2752438,
              48.2909329
            ],
            [
              14.2753153,
              48.290917
            ],
            [
              14.2755141,
              48.2908842
            ],
            [
              14.2758271,
              48.2908423
            ],
            [
              14.2758733,
              48.2908361
            ],
            [
              14.2758566,
              48.2907814
            ],
            [
              14.2758508,
              48.2907571
            ],
            [
              14.2758388,
              48.2907297
            ],
            [
              14.2757574,
              48.2906064
            ],
            [
              14.2756563,
              48.2902036
            ],
            [
              14.2756479,
              48.29017
            ],
            [
              14.2754888,
              48.2901883
            ],
            [
              14.275049,
              48.290239
            ],
            [
              14.2748319,
              48.2902718
            ],
            [
              14.2743601,
              48.2903645
            ],
            [
              14.273936,
              48.2904783
            ],
            [
              14.2732488,
              48.2907044
            ],
            [
              14.2729705,
              48.2907959
            ],
            [
              14.2729415,
              48.290804
            ],
            [
              14.2729184,
              48.2908081
            ],
            [
              14.2728927,
              48.2908112
            ],
            [
              14.2728704,
              48.2908128
            ],
            [
              14.2728199,
              48.2908145
            ],
            [
              14.2727805,
              48.2908137
            ],
            [
              14.2727696,
              48.2909457
            ],
            [
              14.272763,
              48.2910122
            ],
            [
              14.2727606,
              48.291037
            ],
            [
              14.2727492,
              48.2911152
            ],
            [
              14.2727382,
              48.2911776
            ],
            [
              14.2727245,
              48.2912335
            ],
            [
              14.2727107,
              48.2912862
            ],
            [
              14.2726958,
              48.2913365
            ],
            [
              14.2726566,
              48.2914507
            ],
            [
              14.2726176,
              48.2915525
            ],
            [
              14.2725937,
              48.2916086
            ],
            [
              14.2725655,
              48.2916749
            ],
            [
              14.2725544,
              48.2917077
            ],
            [
              14.2725502,
              48.2917273
            ],
            [
              14.2725486,
              48.2917473
            ],
            [
              14.2725514,
              48.291771
            ],
            [
              14.2725549,
              48.2917832
            ],
            [
              14.2725635,
              48.2918022
            ],
            [
              14.2725769,
              48.2918218
            ],
            [
              14.2726202,
              48.2918716
            ],
            [
              14.2723473,
              48.2919781
            ],
            [
              14.2721545,
              48.2920505
            ],
            [
              14.2717561,
              48.2922063
            ],
            [
              14.2715099,
              48.2923048
            ],
            [
              14.2713754,
              48.2923495
            ],
            [
              14.2712492,
              48.2923858
            ],
            [
              14.2711279,
              48.2924188
            ],
            [
              14.2710246,
              48.2924436
            ],
            [
              14.2709428,
              48.2924629
            ],
            [
              14.2707286,
              48.2925007
            ],
            [
              14.270532,
              48.2925284
            ],
            [
              14.2704108,
              48.2925411
            ],
            [
              14.2703129,
              48.2925481
            ],
            [
              14.2702729,
              48.2925509
            ],
            [
              14.2701266,
              48.2925609
            ],
            [
              14.2701574,
              48.292616
            ],
            [
              14.2701783,
              48.2926524
            ],
            [
              14.2702264,
              48.2927122
            ],
            [
              14.2702643,
              48.2927639
            ],
            [
              14.2703106,
              48.292821
            ],
            [
              14.2703563,
              48.2928723
            ],
            [
              14.2704311,
              48.2929334
            ],
            [
              14.2704972,
              48.2929753
            ],
            [
              14.2705971,
              48.2930312
            ],
            [
              14.2707067,
              48.2930794
            ],
            [
              14.270805,
              48.293109
            ],
            [
              14.270928,
              48.2931386
            ],
            [
              14.2710125,
              48.2931517
            ],
            [
              14.2711239,
              48.2931596
            ],
            [
              14.2712787,
              48.2931591
            ],
            [
              14.2714166,
              48.2931507
            ],
            [
              14.2715744,
              48.2931419
            ],
            [
              14.2717664,
              48.2931368
            ],
            [
              14.271901,
              48.293141
            ],
            [
              14.2720153,
              48.2931494
            ],
            [
              14.2721258,
              48.2931655
            ],
            [
              14.2722495,
              48.2931883
            ],
            [
              14.2723552,
              48.293212
            ],
            [
              14.2723177,
              48.2932836
            ],
            [
              14.272287,
              48.2933326
            ],
            [
              14.2722503,
              48.2933725
            ],
            [
              14.272184,
              48.2934056
            ],
            [
              14.2721052,
              48.2934214
            ],
            [
              14.2719925,
              48.2934341
            ],
            [
              14.271961,
              48.2934388
            ],
            [
              14.2718672,
              48.2934526
            ],
            [
              14.271707,
              48.293488
            ],
            [
              14.2715524,
              48.2935439
            ],
            [
              14.2713926,
              48.2936148
            ],
            [
              14.2712787,
              48.2936778
            ],
            [
              14.2711815,
              48.2937433
            ],
            [
              14.2710881,
              48.2938202
            ],
            [
              14.2709993,
              48.2939104
            ],
            [
              14.2709414,
              48.2939779
            ],
            [
              14.2708846,
              48.2940715
            ],
            [
              14.2708575,
              48.2941295
            ],
            [
              14.2708485,
              48.2941592
            ],
            [
              14.2708191,
              48.2942522
            ],
            [
              14.2707997,
              48.2943191
            ],
            [
              14.2706977,
              48.2946919
            ],
            [
              14.2705837,
              48.2951636
            ],
            [
              14.2705108,
              48.2953361
            ],
            [
              14.2704231,
              48.2954732
            ],
            [
              14.2703643,
              48.2955515
            ],
            [
              14.2702459,
              48.295664
            ],
            [
              14.2701569,
              48.2957306
            ],
            [
              14.2700023,
              48.2958297
            ],
            [
              14.2697975,
              48.2959608
            ],
            [
              14.2697001,
              48.2960219
            ],
            [
              14.2695782,
              48.296089
            ],
            [
              14.2694265,
              48.2961721
            ],
            [
              14.2692302,
              48.296281
            ],
            [
              14.2690566,
              48.2963719
            ],
            [
              14.2689319,
              48.2964519
            ],
            [
              14.2688215,
              48.2965405
            ],
            [
              14.268666,
              48.2966778
            ],
            [
              14.2684752,
              48.29686
            ],
            [
              14.2681846,
              48.2971704
            ],
            [
              14.2680402,
              48.2973205
            ],
            [
              14.2679419,
              48.2974353
            ],
            [
              14.2678549,
              48.2975407
            ],
            [
              14.2677639,
              48.2976754
            ],
            [
              14.2677107,
              48.2977744
            ],
            [
              14.2676259,
              48.2979654
            ],
            [
              14.2675761,
              48.2980981
            ],
            [
              14.2675518,
              48.2981642
            ],
            [
              14.2674992,
              48.298338
            ],
            [
              14.2674555,
              48.2984747
            ],
            [
              14.2674481,
              48.2984973
            ],
            [
              14.2674093,
              48.2986354
            ],
            [
              14.2673141,
              48.2988833
            ],
            [
              14.2672138,
              48.2991592
            ],
            [
              14.2671154,
              48.2994306
            ],
            [
              14.2670275,
              48.2996858
            ],
            [
              14.2669994,
              48.2998087
            ],
            [
              14.2669864,
              48.2998748
            ],
            [
              14.266977,
              48.2999487
            ],
            [
              14.2669757,
              48.3000198
            ],
            [
              14.2669822,
              48.3001074
            ],
            [
              14.2669916,
              48.300166
            ],
            [
              14.2670107,
              48.3002547
            ],
            [
              14.2670116,
              48.300259
            ],
            [
              14.267031,
              48.3003388
            ],
            [
              14.2670407,
              48.3003788
            ],
            [
              14.2670921,
              48.3005235
            ],
            [
              14.2671183,
              48.3005755
            ],
            [
              14.2671819,
              48.3007383
            ],
            [
              14.2672668,
              48.3008935
            ],
            [
              14.2673079,
              48.3009503
            ],
            [
              14.2674518,
              48.3011506
            ],
            [
              14.2675271,
              48.3012607
            ],
            [
              14.2675473,
              48.3013081
            ],
            [
              14.267565,
              48.301351
            ],
            [
              14.2675954,
              48.3014593
            ],
            [
              14.2676567,
              48.3016557
            ],
            [
              14.267717,
              48.3017634
            ],
            [
              14.2677806,
              48.3018347
            ],
            [
              14.2678652,
              48.3019023
            ],
            [
              14.2679858,
              48.3019792
            ],
            [
              14.2681881,
              48.302084
            ],
            [
              14.268365,
              48.3021774
            ],
            [
              14.2685665,
              48.3022625
            ],
            [
              14.2687151,
              48.3023252
            ],
            [
              14.2690253,
              48.3024496
            ],
            [
              14.2692602,
              48.3025158
            ],
            [
              14.2693955,
              48.3025411
            ],
            [
              14.2695113,
              48.302554
            ],
            [
              14.2695734,
              48.3025574
            ],
            [
              14.2696792,
              48.3025606
            ],
            [
              14.2699224,
              48.3025616
            ],
            [
              14.2702578,
              48.3025457
            ],
            [
              14.2704336,
              48.3025424
            ],
            [
              14.2704951,
              48.3025413
            ],
            [
              14.2707468,
              48.3025485
            ],
            [
              14.2708413,
              48.3025523
            ],
            [
              14.2709488,
              48.3025576
            ],
            [
              14.2711409,
              48.3025562
            ],
            [
              14.2712084,
              48.3025518
            ],
            [
              14.2712395,
              48.3025498
            ],
            [
              14.2714178,
              48.3025343
            ],
            [
              14.2715535,
              48.3025115
            ],
            [
              14.2717294,
              48.3024745
            ],
            [
              14.2719631,
              48.3024187
            ],
            [
              14.2721099,
              48.3023933
            ],
            [
              14.2721992,
              48.3023838
            ],
            [
              14.2722661,
              48.3023795
            ],
            [
              14.2724081,
              48.3023804
            ],
            [
              14.2725295,
              48.3023901
            ],
            [
              14.2726669,
              48.302408
            ],
            [
              14.2727854,
              48.3024335
            ],
            [
              14.2728945,
              48.3024602
            ],
            [
              14.2729564,
              48.3024788
            ],
            [
              14.2730225,
              48.3024582
            ],
            [
              14.2730973,
              48.3024226
            ],
            [
              14.2731468,
              48.3023807
            ],
            [
              14.2732116,
              48.3023004
            ],
            [
              14.2733212,
              48.3021651
            ],
            [
              14.2733359,
              48.3021485
            ],
            [
              14.2734111,
              48.3020635
            ],
            [
              14.2735051,
              48.3020099
            ],
            [
              14.2736127,
              48.3019665
            ],
            [
              14.2736764,
              48.3019437
            ],
            [
              14.2738961,
              48.3018843
            ],
            [
              14.2740317,
              48.3019067
            ],
            [
              14.2740831,
              48.3019154
            ],
            [
              14.2742788,
              48.3019316
            ],
            [
              14.2744879,
              48.301938
            ],
            [
              14.2745477,
              48.3019368
            ],
            [
              14.2746637,
              48.3019345
            ],
            [
              14.2748537,
              48.3019183
            ],
            [
              14.2750641,
              48.3018889
            ],
            [
              14.2751507,
              48.3018775
            ],
            [
              14.2753932,
              48.3018477
            ],
            [
              14.275549,
              48.3018297
            ],
            [
              14.2758515,
              48.3018122
            ],
            [
              14.2761798,
              48.3018049
            ],
            [
              14.2762641,
              48.3018074
            ],
            [
              14.2764705,
              48.3018134
            ],
            [
              14.2766367,
              48.3018227
            ],
            [
              14.2767629,
              48.301831
            ],
            [
              14.2769666,
              48.3018443
            ],
            [
              14.2770722,
              48.3018515
            ],
            [
              14.2772195,
              48.3018614
            ],
            [
              14.2772232,
              48.3018616
            ],
            [
              14.2774457,
              48.3018797
            ],
            [
              14.2775649,
              48.301895
            ],
            [
              14.2776725,
              48.3019113
            ],
            [
              14.2779216,
              48.3019565
            ],
            [
              14.2780906,
              48.3019911
            ],
            [
              14.2781939,
              48.3020148
            ],
            [
              14.2782325,
              48.3020236
            ],
            [
              14.278612,
              48.3021188
            ],
            [
              14.278954,
              48.3022211
            ],
            [
              14.2792316,
              48.3023095
            ],
            [
              14.2796064,
              48.3024297
            ],
            [
              14.2799755,
              48.302549
            ],
            [
              14.28019,
              48.302623
            ],
            [
              14.2803951,
              48.3027191
            ],
            [
              14.2806851,
              48.3029076
            ],
            [
              14.2809368,
              48.3030982
            ],
            [
              14.2810043,
              48.3031395
            ],
            [
              14.2810588,
              48.3031728
            ],
            [
              14.2811065,
              48.3032021
            ],
            [
              14.2811637,
              48.3032368
            ],
            [
              14.2814908,
              48.3034194
            ],
            [
              14.2819938,
              48.3036992
            ],
            [
              14.2825646,
              48.3040306
            ],
            [
              14.2828246,
              48.3041815
            ],
            [
              14.2828743,
              48.3042091
            ],
            [
              14.2829286,
              48.3042353
            ],
            [
              14.2829798,
              48.3042529
            ],
            [
              14.2830431,
              48.3042631
            ],
            [
              14.283108,
              48.3042641
            ],
            [
              14.2831938,
              48.304255
            ],
            [
              14.2832895,
              48.3042305
            ],
            [
              14.2833756,
              48.3042014
            ],
            [
              14.2834338,
              48.3041762
            ],
            [
              14.2835346,
              48.3041202
            ],
            [
              14.2839711,
              48.3038255
            ],
            [
              14.2840274,
              48.3037875
            ],
            [
              14.2842165,
              48.3036598
            ],
            [
              14.2845276,
              48.303444
            ],
            [
              14.2847204,
              48.3032938
            ],
            [
              14.2847521,
              48.3032735
            ],
            [
              14.2847928,
              48.3032599
            ],
            [
              14.2848365,
              48.3032556
            ],
            [
              14.2848948,
              48.3032568
            ],
            [
              14.284949,
              48.3032677
            ],
            [
              14.2856568,
              48.303544
            ],
            [
              14.2857511,
              48.30358
            ],
            [
              14.2868704,
              48.3040174
            ],
            [
              14.2869033,
              48.3040302
            ],
            [
              14.2869954,
              48.3040595
            ],
            [
              14.2870836,
              48.3040743
            ],
            [
              14.2871796,
              48.3040813
            ],
            [
              14.2878741,
              48.3040786
            ],
            [
              14.2879404,
              48.304091
            ],
            [
              14.288004,
              48.3041169
            ],
            [
              14.2880181,
              48.3041245
            ],
            [
              14.2880316,
              48.304132
            ],
            [
              14.2880825,
              48.3041657
            ],
            [
              14.2881147,
              48.304187
            ],
            [
              14.2881267,
              48.304195
            ],
            [
              14.2882534,
              48.3042857
            ],
            [
              14.2883463,
              48.3043582
            ],
            [
              14.2884017,
              48.3043994
            ],
            [
              14.2886627,
              48.3045939
            ],
            [
              14.2887438,
              48.3046442
            ],
            [
              14.2888693,
              48.3047015
            ],
            [
              14.289578,
              48.3049671
            ],
            [
              14.2898018,
              48.3050377
            ],
            [
              14.289941,
              48.3050738
            ],
            [
              14.2900904,
              48.3051125
            ],
            [
              14.2901708,
              48.3051337
            ],
            [
              14.2903098,
              48.3051742
            ],
            [
              14.2903653,
              48.3052089
            ],
            [
              14.2903883,
              48.305255
            ],
            [
              14.2903938,
              48.3053081
            ],
            [
              14.2903617,
              48.3053602
            ],
            [
              14.290327,
              48.3054092
            ],
            [
              14.2902944,
              48.3054551
            ],
            [
              14.2903948,
              48.3054795
            ],
            [
              14.2904245,
              48.3054867
            ],
            [
              14.2920832,
              48.3058904
            ],
            [
              14.2921601,
              48.3059091
            ],
            [
              14.2922144,
              48.3059207
            ],
            [
              14.2925149,
              48.3059851
            ],
            [
              14.2927172,
              48.3060273
            ],
            [
              14.2928507,
              48.3060554
            ],
            [
              14.2929164,
              48.3060676
            ],
            [
              14.2932357,
              48.3061212
            ],
            [
              14.2935716,
              48.306176
            ],
            [
              14.2936219,
              48.3061842
            ],
            [
              14.2936034,
              48.3062429
            ],
            [
              14.2935485,
              48.3064172
            ],
            [
              14.293507,
              48.3065488
            ],
            [
              14.293497,
              48.3065805
            ],
            [
              14.2935224,
              48.3065837
            ],
            [
              14.2935741,
              48.30659
            ],
            [
              14.2939147,
              48.3066539
            ],
            [
              14.2939467,
              48.3066599
            ],
            [
              14.2941,
              48.3067115
            ],
            [
              14.2941194,
              48.306718
            ],
            [
              14.2941957,
              48.3067589
            ],
            [
              14.2942792,
              48.3068071
            ],
            [
              14.2944419,
              48.3068492
            ],
            [
              14.294654,
              48.3069112
            ],
            [
              14.2947385,
              48.306936
            ],
            [
              14.2949051,
              48.3069869
            ],
            [
              14.2949429,
              48.3069986
            ],
            [
              14.2951255,
              48.3070677
            ],
            [
              14.2953091,
              48.3071508
            ],
            [
              14.2955158,
              48.3072461
            ],
            [
              14.2955402,
              48.3072606
            ],
            [
              14.2955649,
              48.3072754
            ],
            [
              14.2956664,
              48.307336
            ],
            [
              14.2958257,
              48.3074323
            ],
            [
              14.2960514,
              48.3075745
            ],
            [
              14.2961157,
              48.3076138
            ],
            [
              14.2962329,
              48.3076853
            ],
            [
              14.296377,
              48.3077733
            ],
            [
              14.2964802,
              48.3078383
            ],
            [
              14.2968006,
              48.308015
            ],
            [
              14.2974606,
              48.3083791
            ],
            [
              14.2975641,
              48.3084216
            ],
            [
              14.2976267,
              48.308449
            ],
            [
              14.2975787,
              48.3085291
            ],
            [
              14.2974537,
              48.3086767
            ],
            [
              14.2969262,
              48.309261
            ],
            [
              14.2968737,
              48.309308
            ],
            [
              14.2967807,
              48.3093912
            ],
            [
              14.2967136,
              48.3094387
            ],
            [
              14.2966314,
              48.3094808
            ],
            [
              14.2964663,
              48.3095567
            ],
            [
              14.2962935,
              48.3096362
            ],
            [
              14.2962352,
              48.3096636
            ],
            [
              14.295803,
              48.309866
            ],
            [
              14.295026,
              48.310226
            ],
            [
              14.2948518,
              48.3103121
            ],
            [
              14.2947984,
              48.3103384
            ],
            [
              14.2946263,
              48.3104234
            ],
            [
              14.2946062,
              48.3104334
            ],
            [
              14.294553,
              48.3104597
            ],
            [
              14.2944247,
              48.3105239
            ],
            [
              14.2943158,
              48.3104625
            ],
            [
              14.2942664,
              48.310434
            ],
            [
              14.2941904,
              48.31039
            ],
            [
              14.2938338,
              48.3101858
            ],
            [
              14.2932833,
              48.3098705
            ],
            [
              14.292921,
              48.3096669
            ],
            [
              14.2925645,
              48.3094666
            ],
            [
              14.292481,
              48.3094205
            ],
            [
              14.2924021,
              48.3093819
            ],
            [
              14.2922742,
              48.3093193
            ],
            [
              14.2922173,
              48.3092915
            ],
            [
              14.2921937,
              48.30928
            ],
            [
              14.2919241,
              48.3091617
            ],
            [
              14.2911762,
              48.3088534
            ],
            [
              14.2911094,
              48.3088254
            ],
            [
              14.2907373,
              48.3086654
            ],
            [
              14.2905029,
              48.3085646
            ],
            [
              14.2901453,
              48.3084107
            ],
            [
              14.2899405,
              48.3083269
            ],
            [
              14.2896164,
              48.3081958
            ],
            [
              14.28951,
              48.3081589
            ],
            [
              14.289399,
              48.3081197
            ],
            [
              14.2891719,
              48.3080478
            ],
            [
              14.2887622,
              48.3079258
            ],
            [
              14.2882132,
              48.3077629
            ],
            [
              14.2878848,
              48.307668
            ],
            [
              14.2877434,
              48.307625
            ],
            [
              14.2876097,
              48.3075783
            ],
            [
              14.2874716,
              48.3075263
            ],
            [
              14.2873253,
              48.3075365
            ],
            [
              14.2872656,
              48.3075455
            ],
            [
              14.2871601,
              48.3075733
            ],
            [
              14.287083,
              48.3075653
            ],
            [
              14.2870017,
              48.3075521
            ],
            [
              14.2869002,
              48.3075267
            ],
            [
              14.2868281,
              48.3075052
            ],
            [
              14.2867323,
              48.307473
            ],
            [
              14.286283,
              48.3072959
            ],
            [
              14.2859275,
              48.3071746
            ],
            [
              14.285438,
              48.3070139
            ],
            [
              14.2851211,
              48.3069144
            ],
            [
              14.285086,
              48.3069049
            ],
            [
              14.2848276,
              48.3068348
            ],
            [
              14.2847477,
              48.3068142
            ],
            [
              14.2846688,
              48.3067981
            ],
            [
              14.2845796,
              48.3067799
            ],
            [
              14.284395,
              48.3067461
            ],
            [
              14.2841761,
              48.3067064
            ],
            [
              14.2841377,
              48.3066994
            ],
            [
              14.284107,
              48.3066938
            ],
            [
              14.2840706,
              48.306687
            ],
            [
              14.2836934,
              48.3066169
            ],
            [
              14.2835617,
              48.3065924
            ],
            [
              14.283063,
              48.3064994
            ],
            [
              14.2823731,
              48.3063707
            ],
            [
              14.2817313,
              48.3062495
            ],
            [
              14.2811911,
              48.3061409
            ],
            [
              14.2805422,
              48.3059802
            ],
            [
              14.2799581,
              48.3058021
            ],
            [
              14.2797111,
              48.3057152
            ],
            [
              14.2795278,
              48.3056452
            ],
            [
              14.2787969,
              48.3053783
            ],
            [
              14.2786568,
              48.3053272
            ],
            [
              14.2774128,
              48.3048615
            ],
            [
              14.2767597,
              48.3046036
            ],
            [
              14.2765239,
              48.3045191
            ],
            [
              14.2762857,
              48.3044443
            ],
            [
              14.2760266,
              48.3043775
            ],
            [
              14.2757493,
              48.3043171
            ],
            [
              14.2754852,
              48.3042677
            ],
            [
              14.2753573,
              48.3042469
            ],
            [
              14.2751807,
              48.3042231
            ],
            [
              14.2747554,
              48.30418
            ],
            [
              14.2743286,
              48.304146
            ],
            [
              14.2739515,
              48.304123
            ],
            [
              14.27375,
              48.3041106
            ],
            [
              14.2736043,
              48.3041005
            ],
            [
              14.2735587,
              48.3040961
            ],
            [
              14.2735091,
              48.3040888
            ],
            [
              14.2734111,
              48.3040707
            ],
            [
              14.2733044,
              48.3040473
            ],
            [
              14.273055,
              48.3039882
            ],
            [
              14.2726942,
              48.3039025
            ],
            [
              14.2725332,
              48.3038645
            ],
            [
              14.2724131,
              48.3038413
            ],
            [
              14.2722855,
              48.3038219
            ],
            [
              14.272108,
              48.3038064
            ],
            [
              14.2719801,
              48.3038
            ],
            [
              14.271905,
              48.3037991
            ],
            [
              14.2718615,
              48.3037992
            ],
            [
              14.2717564,
              48.303798
            ],
            [
              14.2716132,
              48.3038006
            ],
            [
              14.2714246,
              48.3038096
            ],
            [
              14.2712102,
              48.303827
            ],
            [
              14.2710386,
              48.303845
            ],
            [
              14.2708151,
              48.3038751
            ],
            [
              14.2706294,
              48.3039025
            ],
            [
              14.2704479,
              48.3039393
            ],
            [
              14.2701604,
              48.3039919
            ],
            [
              14.2692685,
              48.3041657
            ],
            [
              14.268647,
              48.3043234
            ],
            [
              14.2677124,
              48.3045959
            ],
            [
              14.2673215,
              48.3047416
            ],
            [
              14.266948,
              48.3049328
            ],
            [
              14.2668149,
              48.3050072
            ],
            [
              14.2665033,
              48.3051778
            ],
            [
              14.2663112,
              48.3052769
            ],
            [
              14.2661653,
              48.3053477
            ],
            [
              14.2659615,
              48.3054322
            ],
            [
              14.2657843,
              48.3054989
            ],
            [
              14.2651729,
              48.305711
            ],
            [
              14.2650149,
              48.3057658
            ],
            [
              14.2646269,
              48.3059003
            ],
            [
              14.2643822,
              48.3059806
            ],
            [
              14.264151,
              48.3060481
            ],
            [
              14.2639081,
              48.30611
            ],
            [
              14.263524,
              48.3061934
            ],
            [
              14.2631834,
              48.3062605
            ],
            [
              14.2627524,
              48.3063454
            ],
            [
              14.2623792,
              48.306415
            ],
            [
              14.2621624,
              48.3064569
            ],
            [
              14.2618978,
              48.3065076
            ],
            [
              14.2616904,
              48.306544
            ],
            [
              14.261586,
              48.3065603
            ],
            [
              14.2614638,
              48.3065778
            ],
            [
              14.2612914,
              48.3065979
            ],
            [
              14.2611741,
              48.3066092
            ],
            [
              14.2609627,
              48.3066284
            ],
            [
              14.2607597,
              48.3066499
            ],
            [
              14.2605859,
              48.3066713
            ],
            [
              14.2603432,
              48.3067095
            ],
            [
              14.2602419,
              48.3067265
            ],
            [
              14.2601627,
              48.3067428
            ],
            [
              14.260045,
              48.3067694
            ],
            [
              14.2599375,
              48.3067958
            ],
            [
              14.2598544,
              48.3068171
            ],
            [
              14.2597766,
              48.306838
            ],
            [
              14.259689,
              48.306863
            ],
            [
              14.2596107,
              48.3068867
            ],
            [
              14.2594402,
              48.3069426
            ],
            [
              14.2592614,
              48.307005
            ],
            [
              14.259062,
              48.3070748
            ],
            [
              14.2589742,
              48.3071063
            ],
            [
              14.2587182,
              48.3071949
            ],
            [
              14.2586134,
              48.3072311
            ],
            [
              14.2585049,
              48.307269
            ],
            [
              14.2583807,
              48.3073092
            ],
            [
              14.2582712,
              48.3073434
            ],
            [
              14.2581745,
              48.3073694
            ],
            [
              14.2580678,
              48.3073948
            ],
            [
              14.2579954,
              48.3074081
            ],
            [
              14.2578768,
              48.3074246
            ],
            [
              14.2577624,
              48.3074363
            ],
            [
              14.257634,
              48.3074447
            ],
            [
              14.2575351,
              48.3074472
            ],
            [
              14.2573185,
              48.3074462
            ],
            [
              14.2571827,
              48.3074466
            ],
            [
              14.2570845,
              48.307448
            ],
            [
              14.2570483,
              48.3074026
            ],
            [
              14.2570268,
              48.3073809
            ],
            [
              14.257011,
              48.3073691
            ],
            [
              14.2569956,
              48.3073617
            ],
            [
              14.2569658,
              48.3073523
            ],
            [
              14.256939,
              48.307347
            ],
            [
              14.2569127,
              48.3073447
            ]
          ],
          [
            [
              14.2750853,
              48.2910441
            ],
            [
              14.2748516,
              48.291105
            ]
          ],
          [
            [
              14.2721256,
              48.2921306
            ],
            [
              14.2723191,
              48.2920566
            ]
          ],
          [
            [
              14.268904,
              48.2964117
            ],
            [
              14.2687525,
              48.2965108
            ]
          ],
          [
            [
              14.2695398,
              48.3026092
            ],
            [
              14.269541,
              48.302597
            ],
            [
              14.2697068,
              48.3026036
            ],
            [
              14.2697051,
              48.3026146
            ]
          ],
          [
            [
              14.2732135,
              48.3023968
            ],
            [
              14.2733068,
              48.3022727
            ]
          ],
          [
            [
              14.276757,
              48.3018761
            ],
            [
              14.2765932,
              48.3018675
            ]
          ],
          [
            [
              14.2829399,
              48.3043067
            ],
            [
              14.2828806,
              48.3042707
            ],
            [
              14.2827949,
              48.3042188
            ]
          ],
          [
            [
              14.2882225,
              48.3043254
            ],
            [
              14.2880794,
              48.3042283
            ]
          ],
          [
            [
              14.2932084,
              48.3061632
            ],
            [
              14.2934096,
              48.306205
            ]
          ],
          [
            [
              14.2963106,
              48.3078011
            ],
            [
              14.2961785,
              48.307722
            ]
          ],
          [
            [
              14.2947166,
              48.3103059
            ],
            [
              14.2945644,
              48.310376
            ]
          ],
          [
            [
              14.284637,
              48.3067049
            ],
            [
              14.2848539,
              48.3067539
            ],
            [
              14.2850603,
              48.3068056
            ],
            [
              14.28515,
              48.3068347
            ]
          ]
        ]
      },
      "id": "relation/403051"
    },
    {
      "type": "Feature",
      "properties": {
        "@id": "relation/1148405",
        "alternate": "no",
        "colour": "#0072BC",
        "colour:text": "#0000FF",
        "from": "Stadion",
        "name": "Bus 26: Stadion => St. Margarethen",
        "name:de": "Bus 26: Stadion => St. Margarethen",
        "name:en": "Bus 26: Stadium => St. Margarethen",
        "network": "Oberösterreichischer Verkehrsverbund",
        "network:short": "OÖVV",
        "network:wikidata": "Q2011605",
        "network:wikipedia": "de:Oberösterreichischer Verkehrsverbund",
        "operator": "Linz Linien GmbH",
        "public_transport:version": "2",
        "ref": "26",
        "route": "bus",
        "to": "St. Margarethen",
        "type": "route"
      },
      "geometry": {
        "type": "MultiLineString",
        "coordinates": [
          [
            [
              14.2749203,
              48.2910058
            ],
            [
              14.2747991,
              48.2910352
            ],
            [
              14.2746654,
              48.2910748
            ],
            [
              14.2744631,
              48.2911416
            ],
            [
              14.274298,
              48.2911976
            ],
            [
              14.2741743,
              48.2912445
            ],
            [
              14.2740493,
              48.291294
            ],
            [
              14.2738606,
              48.2913705
            ],
            [
              14.2737409,
              48.291419
            ],
            [
              14.2736734,
              48.2914463
            ],
            [
              14.2734796,
              48.2915248
            ],
            [
              14.2733931,
              48.2915599
            ],
            [
              14.2727128,
              48.2918355
            ],
            [
              14.2726202,
              48.2918716
            ],
            [
              14.2723473,
              48.2919781
            ],
            [
              14.2721545,
              48.2920505
            ],
            [
              14.2717561,
              48.2922063
            ],
            [
              14.2715099,
              48.2923048
            ],
            [
              14.2713754,
              48.2923495
            ],
            [
              14.2712492,
              48.2923858
            ],
            [
              14.2711279,
              48.2924188
            ],
            [
              14.2710246,
              48.2924436
            ],
            [
              14.2709428,
              48.2924629
            ],
            [
              14.2707286,
              48.2925007
            ],
            [
              14.270532,
              48.2925284
            ],
            [
              14.2704108,
              48.2925411
            ],
            [
              14.2703129,
              48.2925481
            ],
            [
              14.2702729,
              48.2925509
            ],
            [
              14.2701266,
              48.2925609
            ],
            [
              14.2701574,
              48.292616
            ],
            [
              14.2701783,
              48.2926524
            ],
            [
              14.2702264,
              48.2927122
            ],
            [
              14.2702643,
              48.2927639
            ],
            [
              14.2703106,
              48.292821
            ],
            [
              14.2703563,
              48.2928723
            ],
            [
              14.2704311,
              48.2929334
            ],
            [
              14.2704972,
              48.2929753
            ],
            [
              14.2705971,
              48.2930312
            ],
            [
              14.2707067,
              48.2930794
            ],
            [
              14.270805,
              48.293109
            ],
            [
              14.270928,
              48.2931386
            ],
            [
              14.2710125,
              48.2931517
            ],
            [
              14.2711239,
              48.2931596
            ],
            [
              14.2712787,
              48.2931591
            ],
            [
              14.2714166,
              48.2931507
            ],
            [
              14.2715744,
              48.2931419
            ],
            [
              14.2717664,
              48.2931368
            ],
            [
              14.271901,
              48.293141
            ],
            [
              14.2720153,
              48.2931494
            ],
            [
              14.2721258,
              48.2931655
            ],
            [
              14.2722495,
              48.2931883
            ],
            [
              14.2723552,
              48.293212
            ],
            [
              14.2723177,
              48.2932836
            ],
            [
              14.272287,
              48.2933326
            ],
            [
              14.2722503,
              48.2933725
            ],
            [
              14.272184,
              48.2934056
            ],
            [
              14.2721052,
              48.2934214
            ],
            [
              14.2719925,
              48.2934341
            ],
            [
              14.271961,
              48.2934388
            ],
            [
              14.2718672,
              48.2934526
            ],
            [
              14.271707,
              48.293488
            ],
            [
              14.2715524,
              48.2935439
            ],
            [
              14.2713926,
              48.2936148
            ],
            [
              14.2712787,
              48.2936778
            ],
            [
              14.2711815,
              48.2937433
            ],
            [
              14.2710881,
              48.2938202
            ],
            [
              14.2709993,
              48.2939104
            ],
            [
              14.2709414,
              48.2939779
            ],
            [
              14.2708846,
              48.2940715
            ],
            [
              14.2708575,
              48.2941295
            ],
            [
              14.2708485,
              48.2941592
            ],
            [
              14.2708191,
              48.2942522
            ],
            [
              14.2707997,
              48.2943191
            ],
            [
              14.2706977,
              48.2946919
            ],
            [
              14.2705837,
              48.2951636
            ],
            [
              14.2705108,
              48.2953361
            ],
            [
              14.2704231,
              48.2954732
            ],
            [
              14.2703643,
              48.2955515
            ],
            [
              14.2702459,
              48.295664
            ],
            [
              14.2701569,
              48.2957306
            ],
            [
              14.2700023,
              48.2958297
            ],
            [
              14.2697975,
              48.2959608
            ],
            [
              14.2697001,
              48.2960219
            ],
            [
              14.2695782,
              48.296089
            ],
            [
              14.2694265,
              48.2961721
            ],
            [
              14.2692302,
              48.296281
            ],
            [
              14.2690566,
              48.2963719
            ],
            [
              14.2689319,
              48.2964519
            ],
            [
              14.2688215,
              48.2965405
            ],
            [
              14.268666,
              48.2966778
            ],
            [
              14.2684752,
              48.29686
            ],
            [
              14.2681846,
              48.2971704
            ],
            [
              14.2680402,
              48.2973205
            ],
            [
              14.2679419,
              48.2974353
            ],
            [
              14.2678549,
              48.2975407
            ],
            [
              14.2677639,
              48.2976754
            ],
            [
              14.2677107,
              48.2977744
            ],
            [
              14.2676259,
              48.2979654
            ],
            [
              14.2675761,
              48.2980981
            ],
            [
              14.2675518,
              48.2981642
            ],
            [
              14.2674992,
              48.298338
            ],
            [
              14.2674555,
              48.2984747
            ],
            [
              14.2674481,
              48.2984973
            ],
            [
              14.2674093,
              48.2986354
            ],
            [
              14.2673141,
              48.2988833
            ],
            [
              14.2672138,
              48.2991592
            ],
            [
              14.2671154,
              48.2994306
            ],
            [
              14.2670275,
              48.2996858
            ],
            [
              14.2669994,
              48.2998087
            ],
            [
              14.2669864,
              48.2998748
            ],
            [
              14.266977,
              48.2999487
            ],
            [
              14.2669757,
              48.3000198
            ],
            [
              14.2669822,
              48.3001074
            ],
            [
              14.2669916,
              48.300166
            ],
            [
              14.2670107,
              48.3002547
            ],
            [
              14.2670116,
              48.300259
            ],
            [
              14.267031,
              48.3003388
            ],
            [
              14.2670407,
              48.3003788
            ],
            [
              14.2670921,
              48.3005235
            ],
            [
              14.2671183,
              48.3005755
            ],
            [
              14.2671819,
              48.3007383
            ],
            [
              14.2672668,
              48.3008935
            ],
            [
              14.2673079,
              48.3009503
            ],
            [
              14.2674518,
              48.3011506
            ],
            [
              14.2675271,
              48.3012607
            ],
            [
              14.2675473,
              48.3013081
            ],
            [
              14.267565,
              48.301351
            ],
            [
              14.2675954,
              48.3014593
            ],
            [
              14.2676567,
              48.3016557
            ],
            [
              14.267717,
              48.3017634
            ],
            [
              14.2677806,
              48.3018347
            ],
            [
              14.2678652,
              48.3019023
            ],
            [
              14.2679858,
              48.3019792
            ],
            [
              14.2681881,
              48.302084
            ],
            [
              14.268365,
              48.3021774
            ],
            [
              14.2685665,
              48.3022625
            ],
            [
              14.2687151,
              48.3023252
            ],
            [
              14.2690253,
              48.3024496
            ],
            [
              14.2692602,
              48.3025158
            ],
            [
              14.2693955,
              48.3025411
            ],
            [
              14.2695113,
              48.302554
            ],
            [
              14.2695734,
              48.3025574
            ],
            [
              14.2696792,
              48.3025606
            ],
            [
              14.2699224,
              48.3025616
            ],
            [
              14.2702578,
              48.3025457
            ],
            [
              14.2704336,
              48.3025424
            ],
            [
              14.2704951,
              48.3025413
            ],
            [
              14.2707468,
              48.3025485
            ],
            [
              14.2708413,
              48.3025523
            ],
            [
              14.2709488,
              48.3025576
            ],
            [
              14.2711409,
              48.3025562
            ],
            [
              14.2712084,
              48.3025518
            ],
            [
              14.2712395,
              48.3025498
            ],
            [
              14.2714178,
              48.3025343
            ],
            [
              14.2715535,
              48.3025115
            ],
            [
              14.2717294,
              48.3024745
            ],
            [
              14.2719631,
              48.3024187
            ],
            [
              14.2721099,
              48.3023933
            ],
            [
              14.2721992,
              48.3023838
            ],
            [
              14.2722661,
              48.3023795
            ],
            [
              14.2724081,
              48.3023804
            ],
            [
              14.2725295,
              48.3023901
            ],
            [
              14.2726669,
              48.302408
            ],
            [
              14.2727854,
              48.3024335
            ],
            [
              14.2728945,
              48.3024602
            ],
            [
              14.2729564,
              48.3024788
            ],
            [
              14.2730225,
              48.3024582
            ],
            [
              14.2730973,
              48.3024226
            ],
            [
              14.2731468,
              48.3023807
            ],
            [
              14.2732116,
              48.3023004
            ],
            [
              14.2733212,
              48.3021651
            ],
            [
              14.2733359,
              48.3021485
            ],
            [
              14.2734111,
              48.3020635
            ],
            [
              14.2735051,
              48.3020099
            ],
            [
              14.2736127,
              48.3019665
            ],
            [
              14.2736764,
              48.3019437
            ],
            [
              14.2738961,
              48.3018843
            ],
            [
              14.2740317,
              48.3019067
            ],
            [
              14.2740831,
              48.3019154
            ],
            [
              14.2742788,
              48.3019316
            ],
            [
              14.2744879,
              48.301938
            ],
            [
              14.2745477,
              48.3019368
            ],
            [
              14.2746637,
              48.3019345
            ],
            [
              14.2748537,
              48.3019183
            ],
            [
              14.2750641,
              48.3018889
            ],
            [
              14.2751507,
              48.3018775
            ],
            [
              14.2753932,
              48.3018477
            ],
            [
              14.275549,
              48.3018297
            ],
            [
              14.2758515,
              48.3018122
            ],
            [
              14.2761798,
              48.3018049
            ],
            [
              14.2762641,
              48.3018074
            ],
            [
              14.2764705,
              48.3018134
            ],
            [
              14.2766367,
              48.3018227
            ],
            [
              14.2767629,
              48.301831
            ],
            [
              14.2769666,
              48.3018443
            ],
            [
              14.2770722,
              48.3018515
            ],
            [
              14.2772195,
              48.3018614
            ],
            [
              14.2772232,
              48.3018616
            ],
            [
              14.2774457,
              48.3018797
            ],
            [
              14.2775649,
              48.301895
            ],
            [
              14.2776725,
              48.3019113
            ],
            [
              14.2779216,
              48.3019565
            ],
            [
              14.2780906,
              48.3019911
            ],
            [
              14.2781939,
              48.3020148
            ],
            [
              14.2782325,
              48.3020236
            ],
            [
              14.278612,
              48.3021188
            ],
            [
              14.278954,
              48.3022211
            ],
            [
              14.2792316,
              48.3023095
            ],
            [
              14.2796064,
              48.3024297
            ],
            [
              14.2799755,
              48.302549
            ],
            [
              14.28019,
              48.302623
            ],
            [
              14.2803951,
              48.3027191
            ],
            [
              14.2806851,
              48.3029076
            ],
            [
              14.2809368,
              48.3030982
            ],
            [
              14.2810043,
              48.3031395
            ],
            [
              14.2810588,
              48.3031728
            ],
            [
              14.2811065,
              48.3032021
            ],
            [
              14.2811637,
              48.3032368
            ],
            [
              14.2814908,
              48.3034194
            ],
            [
              14.2819938,
              48.3036992
            ],
            [
              14.2825646,
              48.3040306
            ],
            [
              14.2828246,
              48.3041815
            ],
            [
              14.2828743,
              48.3042091
            ],
            [
              14.2829286,
              48.3042353
            ],
            [
              14.2829798,
              48.3042529
            ],
            [
              14.2830431,
              48.3042631
            ],
            [
              14.283108,
              48.3042641
            ],
            [
              14.2831938,
              48.304255
            ],
            [
              14.2832895,
              48.3042305
            ],
            [
              14.2833756,
              48.3042014
            ],
            [
              14.2834338,
              48.3041762
            ],
            [
              14.2835346,
              48.3041202
            ],
            [
              14.2839711,
              48.3038255
            ],
            [
              14.2840274,
              48.3037875
            ],
            [
              14.2842165,
              48.3036598
            ],
            [
              14.2845276,
              48.303444
            ],
            [
              14.2847204,
              48.3032938
            ],
            [
              14.2847521,
              48.3032735
            ],
            [
              14.2847928,
              48.3032599
            ],
            [
              14.2848365,
              48.3032556
            ],
            [
              14.2848948,
              48.3032568
            ],
            [
              14.284949,
              48.3032677
            ],
            [
              14.2856568,
              48.303544
            ],
            [
              14.2857511,
              48.30358
            ],
            [
              14.2868704,
              48.3040174
            ],
            [
              14.2869033,
              48.3040302
            ],
            [
              14.2869954,
              48.3040595
            ],
            [
              14.2870836,
              48.3040743
            ],
            [
              14.2871796,
              48.3040813
            ],
            [
              14.2878741,
              48.3040786
            ],
            [
              14.2879404,
              48.304091
            ],
            [
              14.288004,
              48.3041169
            ],
            [
              14.2880181,
              48.3041245
            ],
            [
              14.2880316,
              48.304132
            ],
            [
              14.2880825,
              48.3041657
            ],
            [
              14.2881147,
              48.304187
            ],
            [
              14.2881267,
              48.304195
            ],
            [
              14.2882534,
              48.3042857
            ],
            [
              14.2883463,
              48.3043582
            ],
            [
              14.2884017,
              48.3043994
            ],
            [
              14.2886627,
              48.3045939
            ],
            [
              14.2887438,
              48.3046442
            ],
            [
              14.2888693,
              48.3047015
            ],
            [
              14.289578,
              48.3049671
            ],
            [
              14.2898018,
              48.3050377
            ],
            [
              14.289941,
              48.3050738
            ],
            [
              14.2900904,
              48.3051125
            ],
            [
              14.290168,
              48.3051119
            ],
            [
              14.290266,
              48.3050958
            ],
            [
              14.2903392,
              48.3050637
            ],
            [
              14.2904127,
              48.3050191
            ],
            [
              14.2905371,
              48.3048997
            ],
            [
              14.2905819,
              48.3047936
            ],
            [
              14.2906091,
              48.304731
            ],
            [
              14.2907301,
              48.3044531
            ],
            [
              14.2907574,
              48.3043904
            ],
            [
              14.2908574,
              48.3044187
            ],
            [
              14.2918441,
              48.3046979
            ],
            [
              14.2921337,
              48.3047654
            ],
            [
              14.2924243,
              48.3048257
            ],
            [
              14.2927719,
              48.3048819
            ],
            [
              14.293093,
              48.3049247
            ],
            [
              14.2931294,
              48.3049296
            ],
            [
              14.293209,
              48.3049363
            ],
            [
              14.293197,
              48.3049841
            ],
            [
              14.293075,
              48.3054663
            ],
            [
              14.2930692,
              48.305491
            ],
            [
              14.2929736,
              48.3058704
            ],
            [
              14.2929394,
              48.3060055
            ],
            [
              14.2929164,
              48.3060676
            ],
            [
              14.2932357,
              48.3061212
            ],
            [
              14.2935716,
              48.306176
            ],
            [
              14.2936219,
              48.3061842
            ],
            [
              14.2942354,
              48.3062843
            ],
            [
              14.2942998,
              48.3062924
            ],
            [
              14.294409,
              48.3063034
            ],
            [
              14.2943843,
              48.3063701
            ],
            [
              14.2943118,
              48.306519
            ],
            [
              14.2941957,
              48.3067589
            ],
            [
              14.2942792,
              48.3068071
            ],
            [
              14.2944419,
              48.3068492
            ],
            [
              14.294654,
              48.3069112
            ],
            [
              14.2947385,
              48.306936
            ],
            [
              14.2949051,
              48.3069869
            ],
            [
              14.2949429,
              48.3069986
            ],
            [
              14.2951255,
              48.3070677
            ],
            [
              14.2953091,
              48.3071508
            ],
            [
              14.2955158,
              48.3072461
            ],
            [
              14.2955402,
              48.3072606
            ],
            [
              14.2955649,
              48.3072754
            ],
            [
              14.2956664,
              48.307336
            ],
            [
              14.2958257,
              48.3074323
            ],
            [
              14.2960514,
              48.3075745
            ],
            [
              14.2961157,
              48.3076138
            ],
            [
              14.2962329,
              48.3076853
            ],
            [
              14.296377,
              48.3077733
            ],
            [
              14.2964802,
              48.3078383
            ],
            [
              14.2968006,
              48.308015
            ],
            [
              14.2974606,
              48.3083791
            ],
            [
              14.2975641,
              48.3084216
            ],
            [
              14.2976267,
              48.308449
            ],
            [
              14.2975787,
              48.3085291
            ],
            [
              14.2974537,
              48.3086767
            ],
            [
              14.2969262,
              48.309261
            ],
            [
              14.2968737,
              48.309308
            ],
            [
              14.2967807,
              48.3093912
            ],
            [
              14.2967136,
              48.3094387
            ],
            [
              14.2966314,
              48.3094808
            ],
            [
              14.2964663,
              48.3095567
            ],
            [
              14.2962935,
              48.3096362
            ],
            [
              14.2962352,
              48.3096636
            ],
            [
              14.295803,
              48.309866
            ],
            [
              14.295026,
              48.310226
            ],
            [
              14.2948518,
              48.3103121
            ],
            [
              14.2947984,
              48.3103384
            ],
            [
              14.2946263,
              48.3104234
            ],
            [
              14.2946062,
              48.3104334
            ],
            [
              14.294553,
              48.3104597
            ],
            [
              14.2944247,
              48.3105239
            ],
            [
              14.2943158,
              48.3104625
            ],
            [
              14.2942664,
              48.310434
            ],
            [
              14.2941904,
              48.31039
            ],
            [
              14.2938338,
              48.3101858
            ],
            [
              14.2932833,
              48.3098705
            ],
            [
              14.292921,
              48.3096669
            ],
            [
              14.2925645,
              48.3094666
            ],
            [
              14.292481,
              48.3094205
            ],
            [
              14.2924021,
              48.3093819
            ],
            [
              14.2922742,
              48.3093193
            ],
            [
              14.2922173,
              48.3092915
            ],
            [
              14.2921937,
              48.30928
            ],
            [
              14.2919241,
              48.3091617
            ],
            [
              14.2911762,
              48.3088534
            ],
            [
              14.2911094,
              48.3088254
            ],
            [
              14.2907373,
              48.3086654
            ],
            [
              14.2905029,
              48.3085646
            ],
            [
              14.2901453,
              48.3084107
            ],
            [
              14.2899405,
              48.3083269
            ],
            [
              14.2896164,
              48.3081958
            ],
            [
              14.28951,
              48.3081589
            ],
            [
              14.289399,
              48.3081197
            ],
            [
              14.2891719,
              48.3080478
            ],
            [
              14.2887622,
              48.3079258
            ],
            [
              14.2882132,
              48.3077629
            ],
            [
              14.2878848,
              48.307668
            ],
            [
              14.2877434,
              48.307625
            ],
            [
              14.2876109,
              48.3076257
            ],
            [
              14.2874816,
              48.3076223
            ],
            [
              14.2873673,
              48.3076139
            ],
            [
              14.2872678,
              48.3075976
            ],
            [
              14.2871601,
              48.3075733
            ],
            [
              14.287083,
              48.3075653
            ],
            [
              14.2870017,
              48.3075521
            ],
            [
              14.2869002,
              48.3075267
            ],
            [
              14.2868281,
              48.3075052
            ],
            [
              14.2867323,
              48.307473
            ],
            [
              14.286283,
              48.3072959
            ],
            [
              14.2859275,
              48.3071746
            ],
            [
              14.285438,
              48.3070139
            ],
            [
              14.2851211,
              48.3069144
            ],
            [
              14.285086,
              48.3069049
            ],
            [
              14.2848276,
              48.3068348
            ],
            [
              14.2847477,
              48.3068142
            ],
            [
              14.2846688,
              48.3067981
            ],
            [
              14.2845796,
              48.3067799
            ],
            [
              14.284395,
              48.3067461
            ],
            [
              14.2841761,
              48.3067064
            ],
            [
              14.2841377,
              48.3066994
            ],
            [
              14.284107,
              48.3066938
            ],
            [
              14.2840706,
              48.306687
            ],
            [
              14.2836934,
              48.3066169
            ],
            [
              14.2835617,
              48.3065924
            ],
            [
              14.283063,
              48.3064994
            ],
            [
              14.2823731,
              48.3063707
            ],
            [
              14.2817313,
              48.3062495
            ],
            [
              14.2811911,
              48.3061409
            ],
            [
              14.2805422,
              48.3059802
            ],
            [
              14.2799581,
              48.3058021
            ],
            [
              14.2797111,
              48.3057152
            ],
            [
              14.2795278,
              48.3056452
            ],
            [
              14.2787969,
              48.3053783
            ],
            [
              14.2786568,
              48.3053272
            ],
            [
              14.2774128,
              48.3048615
            ],
            [
              14.2767597,
              48.3046036
            ],
            [
              14.2765239,
              48.3045191
            ],
            [
              14.2762857,
              48.3044443
            ],
            [
              14.2760266,
              48.3043775
            ],
            [
              14.2757493,
              48.3043171
            ],
            [
              14.2754852,
              48.3042677
            ],
            [
              14.2753573,
              48.3042469
            ],
            [
              14.2751807,
              48.3042231
            ],
            [
              14.2747554,
              48.30418
            ],
            [
              14.2743286,
              48.304146
            ],
            [
              14.2739515,
              48.304123
            ],
            [
              14.27375,
              48.3041106
            ],
            [
              14.2736043,
              48.3041005
            ],
            [
              14.2735587,
              48.3040961
            ],
            [
              14.2735091,
              48.3040888
            ],
            [
              14.2734111,
              48.3040707
            ],
            [
              14.2733044,
              48.3040473
            ],
            [
              14.273055,
              48.3039882
            ],
            [
              14.2726942,
              48.3039025
            ],
            [
              14.2725332,
              48.3038645
            ],
            [
              14.2724131,
              48.3038413
            ],
            [
              14.2722855,
              48.3038219
            ],
            [
              14.272108,
              48.3038064
            ],
            [
              14.2719801,
              48.3038
            ],
            [
              14.271905,
              48.3037991
            ],
            [
              14.2718615,
              48.3037992
            ],
            [
              14.2717564,
              48.303798
            ],
            [
              14.2716132,
              48.3038006
            ],
            [
              14.2714246,
              48.3038096
            ],
            [
              14.2712102,
              48.303827
            ],
            [
              14.2710386,
              48.303845
            ],
            [
              14.2708151,
              48.3038751
            ],
            [
              14.2706294,
              48.3039025
            ],
            [
              14.2704479,
              48.3039393
            ],
            [
              14.2701604,
              48.3039919
            ],
            [
              14.2692685,
              48.3041657
            ],
            [
              14.268647,
              48.3043234
            ],
            [
              14.2677124,
              48.3045959
            ],
            [
              14.2673215,
              48.3047416
            ],
            [
              14.266948,
              48.3049328
            ],
            [
              14.2668149,
              48.3050072
            ],
            [
              14.2665033,
              48.3051778
            ],
            [
              14.2663112,
              48.3052769
            ],
            [
              14.2661653,
              48.3053477
            ],
            [
              14.2659615,
              48.3054322
            ],
            [
              14.2657843,
              48.3054989
            ],
            [
              14.2651729,
              48.305711
            ],
            [
              14.2650149,
              48.3057658
            ],
            [
              14.2646269,
              48.3059003
            ],
            [
              14.2643822,
              48.3059806
            ],
            [
              14.264151,
              48.3060481
            ],
            [
              14.2639081,
              48.30611
            ],
            [
              14.263524,
              48.3061934
            ],
            [
              14.2631834,
              48.3062605
            ],
            [
              14.2627524,
              48.3063454
            ],
            [
              14.2623792,
              48.306415
            ],
            [
              14.2621624,
              48.3064569
            ],
            [
              14.2618978,
              48.3065076
            ],
            [
              14.2616904,
              48.306544
            ],
            [
              14.261586,
              48.3065603
            ],
            [
              14.2614638,
              48.3065778
            ],
            [
              14.2612914,
              48.3065979
            ],
            [
              14.2611741,
              48.3066092
            ],
            [
              14.2609627,
              48.3066284
            ],
            [
              14.2607597,
              48.3066499
            ],
            [
              14.2605859,
              48.3066713
            ],
            [
              14.2603432,
              48.3067095
            ],
            [
              14.2602419,
              48.3067265
            ],
            [
              14.2601627,
              48.3067428
            ],
            [
              14.260045,
              48.3067694
            ],
            [
              14.2599375,
              48.3067958
            ],
            [
              14.2598544,
              48.3068171
            ],
            [
              14.2597766,
              48.306838
            ],
            [
              14.259689,
              48.306863
            ],
            [
              14.2596107,
              48.3068867
            ],
            [
              14.2594402,
              48.3069426
            ],
            [
              14.2592614,
              48.307005
            ],
            [
              14.259062,
              48.3070748
            ],
            [
              14.2589742,
              48.3071063
            ],
            [
              14.2587182,
              48.3071949
            ],
            [
              14.2586134,
              48.3072311
            ],
            [
              14.2585049,
              48.307269
            ],
            [
              14.2583807,
              48.3073092
            ],
            [
              14.2582712,
              48.3073434
            ],
            [
              14.2581745,
              48.3073694
            ],
            [
              14.2580678,
              48.3073948
            ],
            [
              14.2579954,
              48.3074081
            ],
            [
              14.2578768,
              48.3074246
            ],
            [
              14.2577624,
              48.3074363
            ],
            [
              14.257634,
              48.3074447
            ],
            [
              14.2575351,
              48.3074472
            ],
            [
              14.2573185,
              48.3074462
            ],
            [
              14.2571827,
              48.3074466
            ],
            [
              14.2570845,
              48.307448
            ],
            [
              14.2569748,
              48.3074538
            ],
            [
              14.2569494,
              48.3074552
            ],
            [
              14.2567733,
              48.3074637
            ],
            [
              14.2567175,
              48.3074665
            ],
            [
              14.2567111,
              48.3074307
            ],
            [
              14.2567109,
              48.3074053
            ],
            [
              14.2567144,
              48.3073934
            ],
            [
              14.2567211,
              48.3073839
            ],
            [
              14.2567299,
              48.3073765
            ],
            [
              14.2567534,
              48.3073622
            ],
            [
              14.2567793,
              48.3073534
            ],
            [
              14.2568058,
              48.3073488
            ],
            [
              14.2568276,
              48.3073463
            ],
            [
              14.2568536,
              48.3073444
            ],
            [
              14.2568805,
              48.3073437
            ],
            [
              14.2569127,
              48.3073447
            ]
          ],
          [
            [
              14.2847861,
              48.3068985
            ],
            [
              14.2850079,
              48.3069535
            ]
          ],
          [
            [
              14.2948228,
              48.3104013
            ],
            [
              14.2946863,
              48.3104643
            ]
          ],
          [
            [
              14.2968897,
              48.3080072
            ],
            [
              14.2967441,
              48.3079294
            ]
          ],
          [
            [
              14.2930841,
              48.3056617
            ],
            [
              14.293036,
              48.3058611
            ]
          ],
          [
            [
              14.2881991,
              48.3041561
            ],
            [
              14.2882096,
              48.3041515
            ],
            [
              14.2882959,
              48.3042225
            ],
            [
              14.2882863,
              48.304227
            ]
          ],
          [
            [
              14.2824196,
              48.3038718
            ],
            [
              14.2826077,
              48.3039831
            ]
          ],
          [
            [
              14.2764341,
              48.3017813
            ],
            [
              14.2766767,
              48.3017908
            ]
          ],
          [
            [
              14.2731624,
              48.3022682
            ],
            [
              14.2732644,
              48.3021502
            ]
          ],
          [
            [
              14.269527,
              48.3024699
            ],
            [
              14.2695244,
              48.3024754
            ],
            [
              14.269664,
              48.3025037
            ],
            [
              14.2696665,
              48.3024983
            ]
          ],
          [
            [
              14.2670834,
              48.3003182
            ],
            [
              14.2670782,
              48.3003189
            ],
            [
              14.2671193,
              48.3004517
            ],
            [
              14.2671283,
              48.3004505
            ]
          ],
          [
            [
              14.2689037,
              48.2965775
            ],
            [
              14.2687351,
              48.2967197
            ]
          ],
          [
            [
              14.2718351,
              48.2920934
            ],
            [
              14.2716753,
              48.2921561
            ],
            [
              14.2715723,
              48.2921965
            ]
          ],
          [
            [
              14.2750853,
              48.2910441
            ],
            [
              14.2748516,
              48.291105
            ]
          ]
        ]
      },
      "id": "relation/1148405"
    }
  ]
}