{
  "type": "FeatureCollection",
  "features": [
    {
      "type": "Feature",
      "properties": {
        "@id": "relation/1147279",
        "alternate": "no",
        "colour": "#e4ae44",
        "from": "Waldesruh",
        "name": "Bus 104: Waldesruh => Sennweg",
        "network": "Oberösterreichischer Verkehrsverbund",
        "network:short": "OÖVV",
        "network:wikidata": "Q2011605",
        "network:wikipedia": "de:Oberösterreichischer Verkehrsverbund",
        "operator": "Linz Linien GmbH",
        "public_transport:version": "2",
        "ref": "104",
        "route": "bus",
        "to": "Sennweg",
        "type": "route"
      },
      "geometry": {
        "type": "MultiLineString",
        "coordinates": [
          [
            [
              14.3563552,
              48.233765
            ],
            [
              14.3563703,
              48.2338183
            ],
            [
              14.3564046,
              48.2338944
            ],
            [
              14.3564261,
              48.2339542
            ],
            [
              14.3563065,
              48.2339897
            ],
            [
              14.3562208,
              48.2340248
            ],
            [
              14.3562028,
              48.2340322
            ],
            [
              14.3559968,
              48.2341637
            ],
            [
              14.3558458,
              48.2342601
            ],
            [
              14.3557005,
              48.2343529
            ],
            [
              14.3556855,
              48.2343615
            ],
            [
              14.3555859,
              48.2344187
            ],
            [
              14.3554849,
              48.2344515
            ],
            [
              14.3554551,
              48.2344559
            ],
            [
              14.3554359,
              48.2344588
            ],
            [
              14.3552422,
              48.2344878
            ],
            [
              14.3545824,
              48.23459
            ],
            [
              14.3544449,
              48.2346036
            ],
            [
              14.3543249,
              48.2346023
            ],
            [
              14.3542116,
              48.2345899
            ],
            [
              14.3541004,
              48.234577
            ],
            [
              14.3539895,
              48.234584
            ],
            [
              14.3538884,
              48.2346101
            ],
            [
              14.3537459,
              48.2346814
            ],
            [
              14.3536498,
              48.2347217
            ],
            [
              14.3534351,
              48.2347869
            ],
            [
              14.3532493,
              48.2348504
            ],
            [
              14.3531558,
              48.2348955
            ],
            [
              14.3530649,
              48.2349591
            ],
            [
              14.3529548,
              48.2350492
            ],
            [
              14.3527931,
              48.2351498
            ],
            [
              14.3527263,
              48.2351852
            ],
            [
              14.3525306,
              48.2352894
            ],
            [
              14.35227,
              48.2353707
            ],
            [
              14.3513216,
              48.235506
            ],
            [
              14.3512077,
              48.2355223
            ],
            [
              14.3510474,
              48.2355453
            ],
            [
              14.3507135,
              48.2355929
            ],
            [
              14.3504709,
              48.2356286
            ],
            [
              14.350351,
              48.2356452
            ],
            [
              14.3502248,
              48.2356484
            ],
            [
              14.3500953,
              48.2356281
            ],
            [
              14.3495761,
              48.2354966
            ],
            [
              14.3495165,
              48.2354806
            ],
            [
              14.3492608,
              48.235412
            ],
            [
              14.3490553,
              48.2353471
            ],
            [
              14.3488538,
              48.235273
            ],
            [
              14.3486945,
              48.2352149
            ],
            [
              14.3485211,
              48.2351713
            ],
            [
              14.3483742,
              48.2351585
            ],
            [
              14.3482502,
              48.2351722
            ],
            [
              14.3481283,
              48.2352189
            ],
            [
              14.3463713,
              48.236341
            ],
            [
              14.3462709,
              48.2364476
            ],
            [
              14.3459434,
              48.236761
            ],
            [
              14.3458156,
              48.2368679
            ],
            [
              14.3456814,
              48.2369303
            ],
            [
              14.3455447,
              48.2369697
            ],
            [
              14.345348,
              48.2369766
            ],
            [
              14.3443076,
              48.2369428
            ],
            [
              14.3437685,
              48.2369482
            ],
            [
              14.3435016,
              48.2369696
            ],
            [
              14.3434168,
              48.2369738
            ],
            [
              14.3433695,
              48.2369738
            ],
            [
              14.3431503,
              48.2369638
            ],
            [
              14.3430955,
              48.2369624
            ],
            [
              14.3423631,
              48.2368719
            ],
            [
              14.3418239,
              48.2368082
            ],
            [
              14.3411256,
              48.236719
            ],
            [
              14.3405673,
              48.2366651
            ],
            [
              14.3405026,
              48.2366588
            ],
            [
              14.3401948,
              48.2366357
            ],
            [
              14.3399427,
              48.2366537
            ],
            [
              14.3397133,
              48.2366818
            ],
            [
              14.3394832,
              48.2367194
            ],
            [
              14.3392833,
              48.2367719
            ],
            [
              14.3390756,
              48.2368438
            ],
            [
              14.3388973,
              48.2369278
            ],
            [
              14.3386221,
              48.2370782
            ],
            [
              14.3384584,
              48.2371744
            ],
            [
              14.3383185,
              48.237249
            ],
            [
              14.3381896,
              48.2373094
            ],
            [
              14.3380679,
              48.2373551
            ],
            [
              14.3379374,
              48.2373932
            ],
            [
              14.3378273,
              48.2374208
            ],
            [
              14.3377103,
              48.2374466
            ],
            [
              14.3375991,
              48.2374667
            ],
            [
              14.3375051,
              48.2374726
            ],
            [
              14.3374229,
              48.2374605
            ],
            [
              14.3374044,
              48.237455
            ],
            [
              14.3372781,
              48.2374171
            ],
            [
              14.3373749,
              48.23729
            ],
            [
              14.3373963,
              48.2372619
            ],
            [
              14.3373398,
              48.2372422
            ],
            [
              14.3372485,
              48.2372104
            ],
            [
              14.3369813,
              48.2371219
            ],
            [
              14.3368363,
              48.237073
            ],
            [
              14.3364934,
              48.2369743
            ],
            [
              14.3362729,
              48.2369294
            ],
            [
              14.3358843,
              48.2368671
            ],
            [
              14.3355739,
              48.2368281
            ],
            [
              14.3355125,
              48.2368203
            ],
            [
              14.335467,
              48.2368146
            ],
            [
              14.3354202,
              48.2368087
            ],
            [
              14.3351377,
              48.2367624
            ],
            [
              14.3348717,
              48.236707
            ],
            [
              14.3347822,
              48.2366877
            ],
            [
              14.3346689,
              48.2366632
            ],
            [
              14.3338852,
              48.2364757
            ],
            [
              14.3337046,
              48.2364373
            ],
            [
              14.3330863,
              48.2363057
            ],
            [
              14.3322921,
              48.2361782
            ],
            [
              14.3317873,
              48.2360827
            ],
            [
              14.331631,
              48.2360532
            ],
            [
              14.331502,
              48.2360288
            ],
            [
              14.331078,
              48.2359636
            ],
            [
              14.3307058,
              48.235919
            ],
            [
              14.3306484,
              48.2359122
            ],
            [
              14.3302381,
              48.2358744
            ],
            [
              14.3299354,
              48.2358465
            ],
            [
              14.3297804,
              48.2358322
            ],
            [
              14.3297649,
              48.2359015
            ],
            [
              14.3297108,
              48.2361448
            ],
            [
              14.3296618,
              48.2363652
            ],
            [
              14.3295772,
              48.2367486
            ],
            [
              14.3295616,
              48.23684
            ],
            [
              14.329532,
              48.2369752
            ],
            [
              14.3295268,
              48.2369988
            ],
            [
              14.3295057,
              48.2370951
            ],
            [
              14.3294578,
              48.2372322
            ],
            [
              14.3295324,
              48.2372427
            ],
            [
              14.3297593,
              48.2372776
            ],
            [
              14.3299019,
              48.2373128
            ],
            [
              14.3300126,
              48.2373558
            ],
            [
              14.3301347,
              48.2374334
            ],
            [
              14.3301576,
              48.2374568
            ],
            [
              14.3302226,
              48.2375234
            ],
            [
              14.3304212,
              48.2377341
            ],
            [
              14.3305697,
              48.2378916
            ],
            [
              14.3306787,
              48.2379967
            ],
            [
              14.330759,
              48.2380607
            ],
            [
              14.3307757,
              48.238074
            ],
            [
              14.3308984,
              48.2381689
            ],
            [
              14.3309253,
              48.2381873
            ],
            [
              14.3309653,
              48.2382146
            ],
            [
              14.3310604,
              48.2382797
            ],
            [
              14.3310946,
              48.2383017
            ],
            [
              14.3313989,
              48.238498
            ],
            [
              14.3315889,
              48.2386358
            ],
            [
              14.3316754,
              48.2386986
            ],
            [
              14.3318733,
              48.2388423
            ],
            [
              14.3319139,
              48.2388733
            ],
            [
              14.3320532,
              48.2389796
            ],
            [
              14.3321937,
              48.2391125
            ],
            [
              14.3322424,
              48.2391759
            ],
            [
              14.3322633,
              48.2392202
            ],
            [
              14.3322724,
              48.2392699
            ],
            [
              14.3322693,
              48.2393149
            ],
            [
              14.332261,
              48.2394513
            ],
            [
              14.3322442,
              48.2397297
            ],
            [
              14.3322261,
              48.2400284
            ],
            [
              14.3322041,
              48.2403923
            ],
            [
              14.3322004,
              48.2404532
            ],
            [
              14.3332135,
              48.240483
            ],
            [
              14.3333165,
              48.2404893
            ],
            [
              14.3334274,
              48.2404963
            ],
            [
              14.3335235,
              48.2405038
            ],
            [
              14.3336268,
              48.2405204
            ],
            [
              14.3337013,
              48.2405401
            ],
            [
              14.3337525,
              48.240561
            ],
            [
              14.333776,
              48.2405775
            ],
            [
              14.3337926,
              48.2405899
            ],
            [
              14.3338272,
              48.2406137
            ],
            [
              14.3339001,
              48.2406487
            ],
            [
              14.3339852,
              48.2406735
            ],
            [
              14.3340812,
              48.2406911
            ],
            [
              14.334143,
              48.2407003
            ],
            [
              14.3342651,
              48.2407191
            ],
            [
              14.3343952,
              48.2407406
            ],
            [
              14.3345239,
              48.2407675
            ],
            [
              14.3345584,
              48.2407762
            ],
            [
              14.3346275,
              48.2407962
            ],
            [
              14.334771,
              48.2408378
            ],
            [
              14.3347172,
              48.2409152
            ],
            [
              14.3346348,
              48.2410274
            ],
            [
              14.3345291,
              48.2411547
            ],
            [
              14.334437,
              48.2412535
            ],
            [
              14.3344167,
              48.2412752
            ],
            [
              14.3343491,
              48.2413495
            ],
            [
              14.3343182,
              48.2413826
            ],
            [
              14.3342678,
              48.2414371
            ],
            [
              14.3340981,
              48.2416072
            ],
            [
              14.3339054,
              48.2417967
            ],
            [
              14.3335898,
              48.2421043
            ],
            [
              14.3333438,
              48.2423485
            ],
            [
              14.3331644,
              48.2425357
            ],
            [
              14.3329816,
              48.2427359
            ],
            [
              14.3327361,
              48.243012
            ],
            [
              14.332694,
              48.2430602
            ],
            [
              14.3323948,
              48.2433841
            ],
            [
              14.3323816,
              48.2434004
            ],
            [
              14.3323025,
              48.243505
            ],
            [
              14.3322403,
              48.2435872
            ],
            [
              14.3320808,
              48.2435615
            ],
            [
              14.3319914,
              48.2435468
            ],
            [
              14.3316807,
              48.2435048
            ],
            [
              14.3314757,
              48.2434868
            ],
            [
              14.3313636,
              48.243484
            ],
            [
              14.3313161,
              48.2434829
            ],
            [
              14.331141,
              48.2434928
            ],
            [
              14.3309399,
              48.2435233
            ],
            [
              14.3307984,
              48.243558
            ],
            [
              14.3307453,
              48.2435711
            ],
            [
              14.330573,
              48.2436359
            ],
            [
              14.3304359,
              48.2437061
            ],
            [
              14.3303204,
              48.2437868
            ],
            [
              14.3302049,
              48.2438847
            ],
            [
              14.3298445,
              48.2442678
            ],
            [
              14.3297864,
              48.2443155
            ],
            [
              14.3297249,
              48.244361
            ],
            [
              14.3296758,
              48.2443861
            ],
            [
              14.3296364,
              48.2444022
            ],
            [
              14.3295481,
              48.2444234
            ],
            [
              14.3294778,
              48.2444312
            ],
            [
              14.3293417,
              48.2444463
            ],
            [
              14.3293018,
              48.2443882
            ],
            [
              14.3292623,
              48.2443404
            ],
            [
              14.3292546,
              48.2443332
            ],
            [
              14.3290206,
              48.2441135
            ],
            [
              14.3289818,
              48.2440735
            ],
            [
              14.328941,
              48.2440153
            ],
            [
              14.3289173,
              48.2439676
            ],
            [
              14.3288893,
              48.243891
            ],
            [
              14.3288625,
              48.2437956
            ],
            [
              14.3288306,
              48.2436288
            ],
            [
              14.3287918,
              48.2434738
            ],
            [
              14.3287606,
              48.2433673
            ],
            [
              14.328723,
              48.2432738
            ],
            [
              14.3286635,
              48.243133
            ],
            [
              14.3285723,
              48.2429173
            ],
            [
              14.3284596,
              48.2426509
            ],
            [
              14.3283476,
              48.2424083
            ],
            [
              14.3282363,
              48.2421669
            ],
            [
              14.328232,
              48.2421577
            ],
            [
              14.3281345,
              48.2419463
            ],
            [
              14.3279984,
              48.2416514
            ],
            [
              14.3279378,
              48.2415377
            ],
            [
              14.3279091,
              48.2414909
            ],
            [
              14.3278424,
              48.2413998
            ],
            [
              14.3278076,
              48.2413574
            ],
            [
              14.3277654,
              48.2413102
            ],
            [
              14.3277319,
              48.241278
            ],
            [
              14.3276902,
              48.2412395
            ],
            [
              14.3276498,
              48.241208
            ],
            [
              14.3275765,
              48.2411581
            ],
            [
              14.327545,
              48.2411395
            ],
            [
              14.3275054,
              48.2411162
            ],
            [
              14.3273667,
              48.2410451
            ],
            [
              14.3272417,
              48.2409965
            ],
            [
              14.3271207,
              48.2409537
            ],
            [
              14.3267117,
              48.2408237
            ],
            [
              14.326557,
              48.2407819
            ],
            [
              14.3259441,
              48.2405951
            ],
            [
              14.3258909,
              48.2405789
            ],
            [
              14.3252876,
              48.240395
            ],
            [
              14.3252702,
              48.2403897
            ],
            [
              14.3252224,
              48.2403751
            ],
            [
              14.3248848,
              48.2402723
            ],
            [
              14.3247736,
              48.2402384
            ],
            [
              14.3247277,
              48.2402244
            ],
            [
              14.3245362,
              48.240166
            ],
            [
              14.3241795,
              48.2400687
            ],
            [
              14.3240095,
              48.2400287
            ],
            [
              14.323533,
              48.2399165
            ],
            [
              14.3235073,
              48.2399105
            ],
            [
              14.3231959,
              48.2398421
            ],
            [
              14.3228315,
              48.2397587
            ],
            [
              14.3227536,
              48.2397411
            ],
            [
              14.3226152,
              48.2397098
            ],
            [
              14.3224045,
              48.2396559
            ],
            [
              14.3221731,
              48.2395902
            ],
            [
              14.3219524,
              48.2395193
            ],
            [
              14.3219904,
              48.2394834
            ],
            [
              14.3221552,
              48.2393096
            ],
            [
              14.322184,
              48.2392797
            ],
            [
              14.3223002,
              48.2391596
            ],
            [
              14.3223379,
              48.2391205
            ],
            [
              14.3224775,
              48.2389762
            ],
            [
              14.3225544,
              48.2388966
            ],
            [
              14.3226553,
              48.2387922
            ],
            [
              14.3227346,
              48.2387394
            ],
            [
              14.3227642,
              48.2387272
            ],
            [
              14.322806,
              48.2387097
            ],
            [
              14.3228931,
              48.2386875
            ],
            [
              14.3231788,
              48.2386302
            ],
            [
              14.3232525,
              48.2386154
            ],
            [
              14.3235407,
              48.2385575
            ],
            [
              14.3237349,
              48.2385186
            ],
            [
              14.3238298,
              48.2384958
            ],
            [
              14.3239114,
              48.2384605
            ],
            [
              14.3239678,
              48.2384195
            ],
            [
              14.3240174,
              48.2383615
            ],
            [
              14.3240482,
              48.2383171
            ],
            [
              14.3242246,
              48.2380637
            ],
            [
              14.3242452,
              48.2380339
            ],
            [
              14.3242649,
              48.2380053
            ],
            [
              14.3243437,
              48.2378918
            ],
            [
              14.3244562,
              48.237731
            ],
            [
              14.3245097,
              48.2376545
            ],
            [
              14.3245608,
              48.2375815
            ],
            [
              14.3246677,
              48.2374287
            ],
            [
              14.3247845,
              48.2372619
            ],
            [
              14.3248935,
              48.237106
            ],
            [
              14.3249275,
              48.2370634
            ],
            [
              14.3249615,
              48.2370284
            ],
            [
              14.3249843,
              48.2370049
            ],
            [
              14.3251808,
              48.236866
            ],
            [
              14.3252115,
              48.2368442
            ],
            [
              14.325251,
              48.2368146
            ],
            [
              14.3252711,
              48.2367897
            ],
            [
              14.325277,
              48.2367824
            ],
            [
              14.3252187,
              48.2367618
            ]
          ],
          [
            [
              14.3252153,
              48.2367853
            ],
            [
              14.3251687,
              48.236751
            ],
            [
              14.3251454,
              48.2367204
            ]
          ],
          [
            [
              14.323943,
              48.2383336
            ],
            [
              14.3239698,
              48.2383421
            ],
            [
              14.3240037,
              48.2382948
            ],
            [
              14.3239759,
              48.2382859
            ]
          ],
          [
            [
              14.3251864,
              48.2404277
            ],
            [
              14.325093,
              48.2404054
            ],
            [
              14.3250299,
              48.2403884
            ],
            [
              14.3248475,
              48.2403317
            ]
          ],
          [
            [
              14.3286774,
              48.2433767
            ],
            [
              14.3286878,
              48.2434133
            ],
            [
              14.3287906,
              48.2438121
            ]
          ],
          [
            [
              14.3327747,
              48.2430592
            ],
            [
              14.3327301,
              48.2431142
            ]
          ],
          [
            [
              14.3346547,
              48.2407585
            ],
            [
              14.3344934,
              48.240718
            ],
            [
              14.3342829,
              48.2406816
            ]
          ],
          [
            [
              14.3314425,
              48.238475
            ],
            [
              14.3314022,
              48.2384485
            ],
            [
              14.3313483,
              48.2384131
            ]
          ],
          [
            [
              14.3295488,
              48.2371399
            ],
            [
              14.3295685,
              48.2370612
            ]
          ],
          [
            [
              14.3316006,
              48.2360842
            ],
            [
              14.3317778,
              48.2361154
            ],
            [
              14.3318048,
              48.2361202
            ]
          ],
          [
            [
              14.3368456,
              48.2371155
            ],
            [
              14.3367987,
              48.2370995
            ]
          ],
          [
            [
              14.3434889,
              48.2370494
            ],
            [
              14.3436126,
              48.237077
            ]
          ],
          [
            [
              14.351036,
              48.2355692
            ],
            [
              14.3511684,
              48.2355476
            ]
          ],
          [
            [
              14.3563888,
              48.2337715
            ],
            [
              14.3563736,
              48.2337186
            ]
          ]
        ]
      },
      "id": "relation/1147279"
    },
    {
      "type": "Feature",
      "properties": {
        "@id": "relation/1147285",
        "alternate": "no",
        "colour": "#e4ae44",
        "from": "Sennweg",
        "name": "Bus 104: Sennweg => Waldesruh",
        "network": "Oberösterreichischer Verkehrsverbund",
        "network:short": "OÖVV",
        "network:wikidata": "Q2011605",
        "network:wikipedia": "de:Oberösterreichischer Verkehrsverbund",
        "operator": "Linz Linien GmbH",
        "public_transport:version": "2",
        "ref": "104",
        "route": "bus",
        "to": "Waldesruh",
        "type": "route"
      },
      "geometry": {
        "type": "MultiLineString",
        "coordinates": [
          [
            [
              14.3252187,
              48.2367618
            ],
            [
              14.3251931,
              48.2367434
            ],
            [
              14.3251666,
              48.2367148
            ],
            [
              14.3251613,
              48.2366903
            ],
            [
              14.3251736,
              48.2366677
            ],
            [
              14.3251984,
              48.2366539
            ],
            [
              14.3252318,
              48.2366506
            ],
            [
              14.3252816,
              48.2366583
            ],
            [
              14.3253435,
              48.2366771
            ],
            [
              14.325277,
              48.2367824
            ],
            [
              14.3252711,
              48.2367897
            ],
            [
              14.325251,
              48.2368146
            ],
            [
              14.3252115,
              48.2368442
            ],
            [
              14.3251808,
              48.236866
            ],
            [
              14.3249843,
              48.2370049
            ],
            [
              14.3249615,
              48.2370284
            ],
            [
              14.3249275,
              48.2370634
            ],
            [
              14.3248935,
              48.237106
            ],
            [
              14.3247845,
              48.2372619
            ],
            [
              14.3246677,
              48.2374287
            ],
            [
              14.3245608,
              48.2375815
            ],
            [
              14.3245097,
              48.2376545
            ],
            [
              14.3244562,
              48.237731
            ],
            [
              14.3243437,
              48.2378918
            ],
            [
              14.3242649,
              48.2380053
            ],
            [
              14.3242452,
              48.2380339
            ],
            [
              14.3242246,
              48.2380637
            ],
            [
              14.3240482,
              48.2383171
            ],
            [
              14.3240174,
              48.2383615
            ],
            [
              14.3239678,
              48.2384195
            ],
            [
              14.3239114,
              48.2384605
            ],
            [
              14.3238298,
              48.2384958
            ],
            [
              14.3237349,
              48.2385186
            ],
            [
              14.3235407,
              48.2385575
            ],
            [
              14.3232525,
              48.2386154
            ],
            [
              14.3231788,
              48.2386302
            ],
            [
              14.3228931,
              48.2386875
            ],
            [
              14.322806,
              48.2387097
            ],
            [
              14.3227642,
              48.2387272
            ],
            [
              14.3227346,
              48.2387394
            ],
            [
              14.3226553,
              48.2387922
            ],
            [
              14.3225544,
              48.2388966
            ],
            [
              14.3224775,
              48.2389762
            ],
            [
              14.3223379,
              48.2391205
            ],
            [
              14.3223002,
              48.2391596
            ],
            [
              14.322184,
              48.2392797
            ],
            [
              14.3221552,
              48.2393096
            ],
            [
              14.3219904,
              48.2394834
            ],
            [
              14.3219524,
              48.2395193
            ],
            [
              14.3221731,
              48.2395902
            ],
            [
              14.3224045,
              48.2396559
            ],
            [
              14.3226152,
              48.2397098
            ],
            [
              14.3227536,
              48.2397411
            ],
            [
              14.3228315,
              48.2397587
            ],
            [
              14.3231959,
              48.2398421
            ],
            [
              14.3235073,
              48.2399105
            ],
            [
              14.323533,
              48.2399165
            ],
            [
              14.3240095,
              48.2400287
            ],
            [
              14.3241795,
              48.2400687
            ],
            [
              14.3245362,
              48.240166
            ],
            [
              14.3247277,
              48.2402244
            ],
            [
              14.3247736,
              48.2402384
            ],
            [
              14.3248848,
              48.2402723
            ],
            [
              14.3252224,
              48.2403751
            ],
            [
              14.3252702,
              48.2403897
            ],
            [
              14.3252876,
              48.240395
            ],
            [
              14.3258909,
              48.2405789
            ],
            [
              14.3259441,
              48.2405951
            ],
            [
              14.326557,
              48.2407819
            ],
            [
              14.3267117,
              48.2408237
            ],
            [
              14.3271207,
              48.2409537
            ],
            [
              14.3272417,
              48.2409965
            ],
            [
              14.3273667,
              48.2410451
            ],
            [
              14.3275054,
              48.2411162
            ],
            [
              14.327545,
              48.2411395
            ],
            [
              14.3275765,
              48.2411581
            ],
            [
              14.3276498,
              48.241208
            ],
            [
              14.3276902,
              48.2412395
            ],
            [
              14.3277319,
              48.241278
            ],
            [
              14.3277654,
              48.2413102
            ],
            [
              14.3278076,
              48.2413574
            ],
            [
              14.3278424,
              48.2413998
            ],
            [
              14.3279091,
              48.2414909
            ],
            [
              14.3279378,
              48.2415377
            ],
            [
              14.3279984,
              48.2416514
            ],
            [
              14.3281345,
              48.2419463
            ],
            [
              14.328232,
              48.2421577
            ],
            [
              14.3282363,
              48.2421669
            ],
            [
              14.3283476,
              48.2424083
            ],
            [
              14.3284596,
              48.2426509
            ],
            [
              14.3285723,
              48.2429173
            ],
            [
              14.3286635,
              48.243133
            ],
            [
              14.328723,
              48.2432738
            ],
            [
              14.3287606,
              48.2433673
            ],
            [
              14.3287918,
              48.2434738
            ],
            [
              14.3288306,
              48.2436288
            ],
            [
              14.3288625,
              48.2437956
            ],
            [
              14.3288893,
              48.243891
            ],
            [
              14.3289173,
              48.2439676
            ],
            [
              14.328941,
              48.2440153
            ],
            [
              14.3289818,
              48.2440735
            ],
            [
              14.3290206,
              48.2441135
            ],
            [
              14.3292546,
              48.2443332
            ],
            [
              14.3292623,
              48.2443404
            ],
            [
              14.3293018,
              48.2443882
            ],
            [
              14.3293417,
              48.2444463
            ],
            [
              14.3294778,
              48.2444312
            ],
            [
              14.3295481,
              48.2444234
            ],
            [
              14.3296364,
              48.2444022
            ],
            [
              14.3296758,
              48.2443861
            ],
            [
              14.3297249,
              48.244361
            ],
            [
              14.3297864,
              48.2443155
            ],
            [
              14.3298445,
              48.2442678
            ],
            [
              14.3302049,
              48.2438847
            ],
            [
              14.3303204,
              48.2437868
            ],
            [
              14.3304359,
              48.2437061
            ],
            [
              14.330573,
              48.2436359
            ],
            [
              14.3307453,
              48.2435711
            ],
            [
              14.3307984,
              48.243558
            ],
            [
              14.3309399,
              48.2435233
            ],
            [
              14.331141,
              48.2434928
            ],
            [
              14.3313161,
              48.2434829
            ],
            [
              14.3313636,
              48.243484
            ],
            [
              14.3314757,
              48.2434868
            ],
            [
              14.3316807,
              48.2435048
            ],
            [
              14.3319914,
              48.2435468
            ],
            [
              14.3320808,
              48.2435615
            ],
            [
              14.3322403,
              48.2435872
            ],
            [
              14.3323025,
              48.243505
            ],
            [
              14.3323816,
              48.2434004
            ],
            [
              14.3323948,
              48.2433841
            ],
            [
              14.332694,
              48.2430602
            ],
            [
              14.3327361,
              48.243012
            ],
            [
              14.3329816,
              48.2427359
            ],
            [
              14.3331644,
              48.2425357
            ],
            [
              14.3333438,
              48.2423485
            ],
            [
              14.3335898,
              48.2421043
            ],
            [
              14.3339054,
              48.2417967
            ],
            [
              14.3340981,
              48.2416072
            ],
            [
              14.3342678,
              48.2414371
            ],
            [
              14.3343182,
              48.2413826
            ],
            [
              14.3343491,
              48.2413495
            ],
            [
              14.3344167,
              48.2412752
            ],
            [
              14.334437,
              48.2412535
            ],
            [
              14.3345291,
              48.2411547
            ],
            [
              14.3346348,
              48.2410274
            ],
            [
              14.3347172,
              48.2409152
            ],
            [
              14.334771,
              48.2408378
            ],
            [
              14.3346275,
              48.2407962
            ],
            [
              14.3345584,
              48.2407762
            ],
            [
              14.3345239,
              48.2407675
            ],
            [
              14.3343952,
              48.2407406
            ],
            [
              14.3342651,
              48.2407191
            ],
            [
              14.334143,
              48.2407003
            ],
            [
              14.3340812,
              48.2406911
            ],
            [
              14.3339852,
              48.2406735
            ],
            [
              14.3339001,
              48.2406487
            ],
            [
              14.3338272,
              48.2406137
            ],
            [
              14.3337926,
              48.2405899
            ],
            [
              14.333776,
              48.2405775
            ],
            [
              14.3337525,
              48.240561
            ],
            [
              14.3337013,
              48.2405401
            ],
            [
              14.3336268,
              48.2405204
            ],
            [
              14.3335235,
              48.2405038
            ],
            [
              14.3334274,
              48.2404963
            ],
            [
              14.3333165,
              48.2404893
            ],
            [
              14.3332135,
              48.240483
            ],
            [
              14.3322004,
              48.2404532
            ],
            [
              14.3322041,
              48.2403923
            ],
            [
              14.3322261,
              48.2400284
            ],
            [
              14.3322442,
              48.2397297
            ],
            [
              14.332261,
              48.2394513
            ],
            [
              14.3322693,
              48.2393149
            ],
            [
              14.3322724,
              48.2392699
            ],
            [
              14.3322633,
              48.2392202
            ],
            [
              14.3322424,
              48.2391759
            ],
            [
              14.3321937,
              48.2391125
            ],
            [
              14.3320532,
              48.2389796
            ],
            [
              14.3319139,
              48.2388733
            ],
            [
              14.3318733,
              48.2388423
            ],
            [
              14.3316754,
              48.2386986
            ],
            [
              14.3315889,
              48.2386358
            ],
            [
              14.3313989,
              48.238498
            ],
            [
              14.3310946,
              48.2383017
            ],
            [
              14.3310604,
              48.2382797
            ],
            [
              14.3309653,
              48.2382146
            ],
            [
              14.3309253,
              48.2381873
            ],
            [
              14.3308984,
              48.2381689
            ],
            [
              14.3307757,
              48.238074
            ],
            [
              14.330759,
              48.2380607
            ],
            [
              14.3306787,
              48.2379967
            ],
            [
              14.3305697,
              48.2378916
            ],
            [
              14.3304212,
              48.2377341
            ],
            [
              14.3302226,
              48.2375234
            ],
            [
              14.3301576,
              48.2374568
            ],
            [
              14.3301347,
              48.2374334
            ],
            [
              14.3300126,
              48.2373558
            ],
            [
              14.3299019,
              48.2373128
            ],
            [
              14.3297593,
              48.2372776
            ],
            [
              14.3295324,
              48.2372427
            ],
            [
              14.3294578,
              48.2372322
            ],
            [
              14.3295057,
              48.2370951
            ],
            [
              14.3295268,
              48.2369988
            ],
            [
              14.329532,
              48.2369752
            ],
            [
              14.3295616,
              48.23684
            ],
            [
              14.3295772,
              48.2367486
            ],
            [
              14.3296618,
              48.2363652
            ],
            [
              14.3297108,
              48.2361448
            ],
            [
              14.3297649,
              48.2359015
            ],
            [
              14.3297804,
              48.2358322
            ],
            [
              14.3299354,
              48.2358465
            ],
            [
              14.3302381,
              48.2358744
            ],
            [
              14.3306484,
              48.2359122
            ],
            [
              14.3307058,
              48.235919
            ],
            [
              14.331078,
              48.2359636
            ],
            [
              14.331502,
              48.2360288
            ],
            [
              14.331631,
              48.2360532
            ],
            [
              14.3317873,
              48.2360827
            ],
            [
              14.3322921,
              48.2361782
            ],
            [
              14.3330863,
              48.2363057
            ],
            [
              14.3337046,
              48.2364373
            ],
            [
              14.3338852,
              48.2364757
            ],
            [
              14.3346689,
              48.2366632
            ],
            [
              14.3347822,
              48.2366877
            ],
            [
              14.3348717,
              48.236707
            ],
            [
              14.3351377,
              48.2367624
            ],
            [
              14.3354202,
              48.2368087
            ],
            [
              14.335467,
              48.2368146
            ],
            [
              14.3355125,
              48.2368203
            ],
            [
              14.3355739,
              48.2368281
            ],
            [
              14.3358843,
              48.2368671
            ],
            [
              14.3362729,
              48.2369294
            ],
            [
              14.3364934,
              48.2369743
            ],
            [
              14.3368363,
              48.237073
            ],
            [
              14.3369813,
              48.2371219
            ],
            [
              14.3372485,
              48.2372104
            ],
            [
              14.3373398,
              48.2372422
            ],
            [
              14.3373963,
              48.2372619
            ],
            [
              14.3373749,
              48.23729
            ],
            [
              14.3372781,
              48.2374171
            ],
            [
              14.3374044,
              48.237455
            ],
            [
              14.3374229,
              48.2374605
            ],
            [
              14.3375051,
              48.2374726
            ],
            [
              14.3375991,
              48.2374667
            ],
            [
              14.3377103,
              48.2374466
            ],
            [
              14.3378273,
              48.2374208
            ],
            [
              14.3379374,
              48.2373932
            ],
            [
              14.3380679,
              48.2373551
            ],
            [
              14.3381896,
              48.2373094
            ],
            [
              14.3383185,
              48.237249
            ],
            [
              14.3384584,
              48.2371744
            ],
            [
              14.3386221,
              48.2370782
            ],
            [
              14.3388973,
              48.2369278
            ],
            [
              14.3390756,
              48.2368438
            ],
            [
              14.3392833,
              48.2367719
            ],
            [
              14.3394832,
              48.2367194
            ],
            [
              14.3397133,
              48.2366818
            ],
            [
              14.3399427,
              48.2366537
            ],
            [
              14.3401948,
              48.2366357
            ],
            [
              14.3405026,
              48.2366588
            ],
            [
              14.3405673,
              48.2366651
            ],
            [
              14.3411256,
              48.236719
            ],
            [
              14.3418239,
              48.2368082
            ],
            [
              14.3423631,
              48.2368719
            ],
            [
              14.3430955,
              48.2369624
            ],
            [
              14.3431503,
              48.2369638
            ],
            [
              14.3433695,
              48.2369738
            ],
            [
              14.3434168,
              48.2369738
            ],
            [
              14.3435016,
              48.2369696
            ],
            [
              14.3437685,
              48.2369482
            ],
            [
              14.3443076,
              48.2369428
            ],
            [
              14.345348,
              48.2369766
            ],
            [
              14.3455447,
              48.2369697
            ],
            [
              14.3456814,
              48.2369303
            ],
            [
              14.3458156,
              48.2368679
            ],
            [
              14.3459434,
              48.236761
            ],
            [
              14.3462709,
              48.2364476
            ],
            [
              14.3463713,
              48.236341
            ],
            [
              14.3481283,
              48.2352189
            ],
            [
              14.3482502,
              48.2351722
            ],
            [
              14.3483742,
              48.2351585
            ],
            [
              14.3485211,
              48.2351713
            ],
            [
              14.3486945,
              48.2352149
            ],
            [
              14.3488538,
              48.235273
            ],
            [
              14.3490553,
              48.2353471
            ],
            [
              14.3492608,
              48.235412
            ],
            [
              14.3495165,
              48.2354806
            ],
            [
              14.3495761,
              48.2354966
            ],
            [
              14.3500953,
              48.2356281
            ],
            [
              14.3502248,
              48.2356484
            ],
            [
              14.350351,
              48.2356452
            ],
            [
              14.3504709,
              48.2356286
            ],
            [
              14.3507135,
              48.2355929
            ],
            [
              14.3510474,
              48.2355453
            ],
            [
              14.3512077,
              48.2355223
            ],
            [
              14.3513216,
              48.235506
            ],
            [
              14.35227,
              48.2353707
            ],
            [
              14.3525306,
              48.2352894
            ],
            [
              14.3527263,
              48.2351852
            ],
            [
              14.3527931,
              48.2351498
            ],
            [
              14.3529548,
              48.2350492
            ],
            [
              14.3530649,
              48.2349591
            ],
            [
              14.3531558,
              48.2348955
            ],
            [
              14.3532493,
              48.2348504
            ],
            [
              14.3534351,
              48.2347869
            ],
            [
              14.3536498,
              48.2347217
            ],
            [
              14.3537459,
              48.2346814
            ],
            [
              14.3538884,
              48.2346101
            ],
            [
              14.3539895,
              48.234584
            ],
            [
              14.3541004,
              48.234577
            ],
            [
              14.3542116,
              48.2345899
            ],
            [
              14.3543249,
              48.2346023
            ],
            [
              14.3544449,
              48.2346036
            ],
            [
              14.3545824,
              48.23459
            ],
            [
              14.3552422,
              48.2344878
            ],
            [
              14.3554359,
              48.2344588
            ],
            [
              14.3554551,
              48.2344559
            ],
            [
              14.3554849,
              48.2344515
            ],
            [
              14.3555859,
              48.2344187
            ],
            [
              14.3556855,
              48.2343615
            ],
            [
              14.3557005,
              48.2343529
            ],
            [
              14.3558458,
              48.2342601
            ],
            [
              14.3559968,
              48.2341637
            ],
            [
              14.3562028,
              48.2340322
            ],
            [
              14.3562208,
              48.2340248
            ],
            [
              14.3563065,
              48.2339897
            ],
            [
              14.3564261,
              48.2339542
            ],
            [
              14.3564046,
              48.2338944
            ],
            [
              14.3563703,
              48.2338183
            ],
            [
              14.3562642,
              48.2337112
            ],
            [
              14.3561763,
              48.2335421
            ],
            [
              14.3561554,
              48.233502
            ],
            [
              14.3560849,
              48.233411
            ],
            [
              14.3560821,
              48.2333902
            ],
            [
              14.3561033,
              48.2333739
            ],
            [
              14.3561426,
              48.233357
            ],
            [
              14.3561949,
              48.2333483
            ],
            [
              14.3562288,
              48.233354
            ],
            [
              14.3563115,
              48.2334411
            ],
            [
              14.356407,
              48.2336252
            ],
            [
              14.3563547,
              48.2336807
            ],
            [
              14.3563442,
              48.2337173
            ],
            [
              14.3563453,
              48.2337222
            ],
            [
              14.3563552,
              48.233765
            ]
          ],
          [
            [
              14.3563888,
              48.2337715
            ],
            [
              14.3563736,
              48.2337186
            ]
          ],
          [
            [
              14.3513159,
              48.2354844
            ],
            [
              14.3512049,
              48.2354989
            ]
          ],
          [
            [
              14.3435231,
              48.2369288
            ],
            [
              14.3434181,
              48.2369312
            ]
          ],
          [
            [
              14.3355257,
              48.236787
            ],
            [
              14.3354768,
              48.2367805
            ],
            [
              14.3354373,
              48.2367752
            ]
          ],
          [
            [
              14.3317981,
              48.2360461
            ],
            [
              14.3317179,
              48.2360322
            ]
          ],
          [
            [
              14.329458,
              48.2370168
            ],
            [
              14.3294797,
              48.2370194
            ],
            [
              14.3294921,
              48.236973
            ],
            [
              14.3294702,
              48.2369704
            ]
          ],
          [
            [
              14.3316298,
              48.238726
            ],
            [
              14.3317647,
              48.2388257
            ]
          ],
          [
            [
              14.3345867,
              48.2408529
            ],
            [
              14.3345296,
              48.2408247
            ],
            [
              14.3344686,
              48.2408042
            ],
            [
              14.3344076,
              48.2407912
            ],
            [
              14.334307,
              48.2407828
            ],
            [
              14.3342393,
              48.2407769
            ],
            [
              14.3342339,
              48.2407836
            ]
          ],
          [
            [
              14.3325739,
              48.2430821
            ],
            [
              14.3325807,
              48.2430844
            ],
            [
              14.3326933,
              48.2429578
            ],
            [
              14.3326875,
              48.2429559
            ]
          ],
          [
            [
              14.3240394,
              48.2399588
            ],
            [
              14.3237724,
              48.2398906
            ]
          ],
          [
            [
              14.3252153,
              48.2367853
            ],
            [
              14.3251687,
              48.236751
            ],
            [
              14.3251454,
              48.2367204
            ]
          ]
        ]
      },
      "id": "relation/1147285"
    }
  ]
}