{
  "type": "FeatureCollection",
  "features": [
    {
      "type": "Feature",
      "properties": {
        "@id": "relation/70224",
        "alternate": "no",
        "colour": "#964C29",
        "from": "Hauptbahnhof",
        "name": "Bus 77: Hauptbahnhof => Universität",
        "name:de": "Bus 77: Hauptbahnhof => Universität",
        "name:en": "Bus 77: Central Railway Station => University",
        "network": "Oberösterreichischer Verkehrsverbund",
        "network:short": "OÖVV",
        "network:wikidata": "Q2011605",
        "network:wikipedia": "de:Oberösterreichischer Verkehrsverbund",
        "operator": "Linz Linien GmbH",
        "public_transport:version": "2",
        "ref": "77",
        "route": "bus",
        "to": "Universität",
        "type": "route"
      },
      "geometry": {
        "type": "MultiLineString",
        "coordinates": [
          [
            [
              14.2924544,
              48.2924955
            ],
            [
              14.2923833,
              48.2924118
            ],
            [
              14.2923325,
              48.2923536
            ],
            [
              14.2922175,
              48.2922215
            ],
            [
              14.2921375,
              48.2921297
            ],
            [
              14.2920572,
              48.2920427
            ],
            [
              14.2919523,
              48.2919179
            ],
            [
              14.2918862,
              48.2918413
            ],
            [
              14.2918406,
              48.2917904
            ],
            [
              14.2917859,
              48.2917263
            ],
            [
              14.2917814,
              48.2917189
            ],
            [
              14.2917711,
              48.2916767
            ],
            [
              14.2917522,
              48.2916704
            ],
            [
              14.2916416,
              48.2917125
            ],
            [
              14.2913308,
              48.2918307
            ],
            [
              14.2911889,
              48.2918855
            ],
            [
              14.2911559,
              48.2918981
            ],
            [
              14.2911407,
              48.2919041
            ],
            [
              14.2910693,
              48.2919317
            ],
            [
              14.2909653,
              48.2919717
            ],
            [
              14.291022,
              48.2920416
            ],
            [
              14.2913042,
              48.2923777
            ],
            [
              14.2916737,
              48.292817
            ],
            [
              14.2919681,
              48.293167
            ],
            [
              14.2920222,
              48.2932314
            ],
            [
              14.2921216,
              48.2933496
            ],
            [
              14.2923422,
              48.2934915
            ],
            [
              14.2924002,
              48.2935727
            ],
            [
              14.2924901,
              48.2937115
            ],
            [
              14.292616,
              48.2938671
            ],
            [
              14.2927045,
              48.2939549
            ],
            [
              14.2927875,
              48.2940237
            ],
            [
              14.2928843,
              48.2940837
            ],
            [
              14.2929974,
              48.2941268
            ],
            [
              14.2931404,
              48.2941547
            ],
            [
              14.2933082,
              48.294159
            ],
            [
              14.2937414,
              48.2941435
            ],
            [
              14.2938058,
              48.2941412
            ],
            [
              14.2938607,
              48.2941411
            ],
            [
              14.2940624,
              48.2941409
            ],
            [
              14.2942374,
              48.2941492
            ],
            [
              14.294295,
              48.2941546
            ],
            [
              14.2944108,
              48.2941745
            ],
            [
              14.2945178,
              48.2942062
            ],
            [
              14.2945938,
              48.2942393
            ],
            [
              14.2946465,
              48.2942726
            ],
            [
              14.2946923,
              48.2943117
            ],
            [
              14.2949255,
              48.2945319
            ],
            [
              14.2950676,
              48.2946467
            ],
            [
              14.2951207,
              48.2946895
            ],
            [
              14.2951866,
              48.2947427
            ],
            [
              14.2954686,
              48.2949448
            ],
            [
              14.2955269,
              48.2949854
            ],
            [
              14.295653,
              48.2950708
            ],
            [
              14.2958842,
              48.2952359
            ],
            [
              14.2960275,
              48.295368
            ],
            [
              14.2961252,
              48.2954581
            ],
            [
              14.2961688,
              48.2954893
            ],
            [
              14.2963177,
              48.2955823
            ],
            [
              14.2964246,
              48.2956426
            ],
            [
              14.2965275,
              48.2956739
            ],
            [
              14.2966435,
              48.2957092
            ],
            [
              14.2967227,
              48.2957363
            ],
            [
              14.2969078,
              48.2957996
            ],
            [
              14.2971575,
              48.2958907
            ],
            [
              14.2973977,
              48.2959783
            ],
            [
              14.2978142,
              48.2961301
            ],
            [
              14.2982824,
              48.2962971
            ],
            [
              14.2988844,
              48.2965114
            ],
            [
              14.2990443,
              48.2965655
            ],
            [
              14.2991054,
              48.2965851
            ],
            [
              14.2991659,
              48.2966059
            ],
            [
              14.2992158,
              48.2966244
            ],
            [
              14.2993407,
              48.2966673
            ],
            [
              14.2994164,
              48.2966933
            ],
            [
              14.2996825,
              48.2967846
            ],
            [
              14.3003861,
              48.2970408
            ],
            [
              14.3005142,
              48.2970387
            ],
            [
              14.3007386,
              48.2971226
            ],
            [
              14.3007575,
              48.2971297
            ],
            [
              14.3008097,
              48.2971955
            ],
            [
              14.3010626,
              48.2972891
            ],
            [
              14.301187,
              48.297335
            ],
            [
              14.3016406,
              48.2975026
            ],
            [
              14.3016969,
              48.2975366
            ],
            [
              14.3017606,
              48.2975804
            ],
            [
              14.3018218,
              48.2976324
            ],
            [
              14.3018819,
              48.2976944
            ],
            [
              14.3019374,
              48.2977635
            ],
            [
              14.3019895,
              48.2978494
            ],
            [
              14.302045,
              48.2979519
            ],
            [
              14.3021079,
              48.2980574
            ],
            [
              14.3021877,
              48.2981614
            ],
            [
              14.3023075,
              48.2983059
            ],
            [
              14.3023775,
              48.2983867
            ],
            [
              14.3024759,
              48.2984976
            ],
            [
              14.302521,
              48.2985396
            ],
            [
              14.3025501,
              48.2985673
            ],
            [
              14.3026662,
              48.2986781
            ],
            [
              14.3027652,
              48.2987665
            ],
            [
              14.3028526,
              48.2988318
            ],
            [
              14.3029744,
              48.2989044
            ],
            [
              14.3030241,
              48.298934
            ],
            [
              14.3031606,
              48.2989902
            ],
            [
              14.3032929,
              48.2990443
            ],
            [
              14.3033407,
              48.2990655
            ],
            [
              14.3038129,
              48.299275
            ],
            [
              14.3039758,
              48.2993475
            ],
            [
              14.3041186,
              48.299411
            ],
            [
              14.3044214,
              48.2995281
            ],
            [
              14.3045838,
              48.2995909
            ],
            [
              14.3050859,
              48.2997789
            ],
            [
              14.3051068,
              48.2997867
            ],
            [
              14.3054709,
              48.299923
            ],
            [
              14.3055407,
              48.2999491
            ],
            [
              14.3055842,
              48.2999654
            ],
            [
              14.3057388,
              48.3000189
            ],
            [
              14.3059267,
              48.3000612
            ],
            [
              14.3060233,
              48.3000734
            ],
            [
              14.3061038,
              48.3000836
            ],
            [
              14.3072412,
              48.3002112
            ],
            [
              14.3074834,
              48.3002375
            ],
            [
              14.3076171,
              48.3002521
            ],
            [
              14.3079655,
              48.30029
            ],
            [
              14.3080166,
              48.3002955
            ],
            [
              14.3082818,
              48.3003244
            ],
            [
              14.308605,
              48.3003595
            ],
            [
              14.3086477,
              48.3003642
            ],
            [
              14.3087832,
              48.3003789
            ],
            [
              14.3090426,
              48.3004092
            ],
            [
              14.3100669,
              48.3005291
            ],
            [
              14.3101645,
              48.3005404
            ],
            [
              14.3104752,
              48.3005767
            ],
            [
              14.3105597,
              48.3005866
            ],
            [
              14.3109854,
              48.3006364
            ],
            [
              14.3110392,
              48.3006427
            ],
            [
              14.3113232,
              48.3006759
            ],
            [
              14.3114256,
              48.3006876
            ],
            [
              14.311499,
              48.300696
            ],
            [
              14.3121671,
              48.3007726
            ],
            [
              14.3123997,
              48.3007992
            ],
            [
              14.3124504,
              48.3008052
            ],
            [
              14.312698,
              48.3008348
            ],
            [
              14.3131104,
              48.3008842
            ],
            [
              14.3132186,
              48.3008963
            ],
            [
              14.3134456,
              48.3009242
            ],
            [
              14.3142089,
              48.3010178
            ],
            [
              14.3145245,
              48.3010609
            ],
            [
              14.3145932,
              48.3010703
            ],
            [
              14.3147214,
              48.3010878
            ],
            [
              14.3148541,
              48.301106
            ],
            [
              14.3152703,
              48.3011886
            ],
            [
              14.3154736,
              48.301236
            ],
            [
              14.3154105,
              48.301352
            ],
            [
              14.3153603,
              48.3014307
            ],
            [
              14.315161,
              48.3017752
            ],
            [
              14.3150373,
              48.3019931
            ],
            [
              14.3146945,
              48.3025824
            ],
            [
              14.3145159,
              48.3028967
            ],
            [
              14.3143653,
              48.3031657
            ],
            [
              14.3142656,
              48.3033546
            ],
            [
              14.3140864,
              48.3035613
            ],
            [
              14.3139751,
              48.3038694
            ],
            [
              14.3138883,
              48.3041305
            ],
            [
              14.3137589,
              48.3045274
            ],
            [
              14.3136066,
              48.3050049
            ],
            [
              14.3135202,
              48.3052757
            ],
            [
              14.31335,
              48.3057898
            ],
            [
              14.313216,
              48.3061678
            ],
            [
              14.3130142,
              48.306652
            ],
            [
              14.3128201,
              48.3070786
            ],
            [
              14.3126776,
              48.3073757
            ],
            [
              14.312449,
              48.3078255
            ],
            [
              14.3122113,
              48.3082701
            ],
            [
              14.3120848,
              48.3084958
            ],
            [
              14.3114529,
              48.3096231
            ],
            [
              14.3109223,
              48.310556
            ],
            [
              14.3107152,
              48.3109008
            ],
            [
              14.310547,
              48.3111686
            ],
            [
              14.3103612,
              48.3114319
            ],
            [
              14.3102064,
              48.3116302
            ],
            [
              14.3100071,
              48.3118721
            ],
            [
              14.3098785,
              48.3120114
            ],
            [
              14.3097414,
              48.3121551
            ],
            [
              14.3095445,
              48.3123418
            ],
            [
              14.3093731,
              48.3124967
            ],
            [
              14.309174,
              48.3126661
            ],
            [
              14.3088972,
              48.3128821
            ],
            [
              14.3086041,
              48.3131131
            ],
            [
              14.3076305,
              48.3138306
            ],
            [
              14.3071906,
              48.3142023
            ],
            [
              14.3068656,
              48.3145107
            ],
            [
              14.3062444,
              48.3150775
            ],
            [
              14.3059983,
              48.3152882
            ],
            [
              14.3057422,
              48.3154923
            ],
            [
              14.3055442,
              48.3156447
            ],
            [
              14.3053359,
              48.3157983
            ],
            [
              14.3051545,
              48.3159272
            ],
            [
              14.3049504,
              48.3160655
            ],
            [
              14.3047332,
              48.316209
            ],
            [
              14.3045627,
              48.3163184
            ],
            [
              14.3043811,
              48.3164338
            ],
            [
              14.3039364,
              48.3167231
            ],
            [
              14.3037656,
              48.31683
            ],
            [
              14.3034124,
              48.3170319
            ],
            [
              14.3030511,
              48.3172385
            ],
            [
              14.3029538,
              48.3172888
            ],
            [
              14.3027547,
              48.3173956
            ],
            [
              14.302454,
              48.317555
            ],
            [
              14.3012864,
              48.3182395
            ],
            [
              14.3006796,
              48.3185803
            ],
            [
              14.3003893,
              48.3187508
            ],
            [
              14.2975177,
              48.320436
            ],
            [
              14.2970975,
              48.3206781
            ],
            [
              14.296813,
              48.3208457
            ],
            [
              14.2967631,
              48.3208752
            ],
            [
              14.2966391,
              48.3209484
            ],
            [
              14.2964927,
              48.3210423
            ],
            [
              14.2963822,
              48.3211221
            ],
            [
              14.2962946,
              48.3211935
            ],
            [
              14.2962215,
              48.3212638
            ],
            [
              14.296095,
              48.3214026
            ],
            [
              14.2960369,
              48.3214785
            ],
            [
              14.2959789,
              48.3215709
            ],
            [
              14.2959325,
              48.3216516
            ],
            [
              14.295898,
              48.3217345
            ],
            [
              14.2958614,
              48.3218329
            ],
            [
              14.2958445,
              48.3219062
            ],
            [
              14.2958301,
              48.3219782
            ],
            [
              14.2958242,
              48.3220381
            ],
            [
              14.2958223,
              48.3221244
            ],
            [
              14.2958256,
              48.3222172
            ],
            [
              14.2958367,
              48.3223158
            ],
            [
              14.2958603,
              48.3224118
            ],
            [
              14.2958924,
              48.3225063
            ],
            [
              14.2959306,
              48.3225962
            ],
            [
              14.2959985,
              48.3227152
            ],
            [
              14.2960723,
              48.322824
            ],
            [
              14.2961348,
              48.3228989
            ],
            [
              14.2962293,
              48.3229958
            ],
            [
              14.2962981,
              48.3230616
            ],
            [
              14.2963845,
              48.3231331
            ],
            [
              14.2964764,
              48.3231949
            ],
            [
              14.2965521,
              48.3232424
            ],
            [
              14.2966615,
              48.3233075
            ],
            [
              14.2967851,
              48.3233685
            ],
            [
              14.2969001,
              48.3234208
            ],
            [
              14.2970542,
              48.3234718
            ],
            [
              14.2971969,
              48.3235111
            ],
            [
              14.2972684,
              48.3235342
            ],
            [
              14.2976122,
              48.3236042
            ],
            [
              14.2977792,
              48.3236229
            ],
            [
              14.2980092,
              48.3236381
            ],
            [
              14.298154,
              48.3236423
            ],
            [
              14.2985473,
              48.3236399
            ],
            [
              14.2987807,
              48.3236408
            ],
            [
              14.2989425,
              48.323645
            ],
            [
              14.2990404,
              48.3236501
            ],
            [
              14.2991451,
              48.3236574
            ],
            [
              14.2992979,
              48.3236722
            ],
            [
              14.2995023,
              48.3236994
            ],
            [
              14.2997076,
              48.3237412
            ],
            [
              14.2998643,
              48.3237787
            ],
            [
              14.2999847,
              48.3238161
            ],
            [
              14.3001459,
              48.3238687
            ],
            [
              14.3002182,
              48.3238961
            ],
            [
              14.3004669,
              48.3239987
            ],
            [
              14.3007767,
              48.324145
            ],
            [
              14.301627,
              48.3245473
            ],
            [
              14.3020219,
              48.324726
            ],
            [
              14.3023743,
              48.3248759
            ],
            [
              14.3026657,
              48.3249928
            ],
            [
              14.303018,
              48.3251304
            ],
            [
              14.303426,
              48.3252768
            ],
            [
              14.303634,
              48.3253477
            ],
            [
              14.3040622,
              48.3254916
            ],
            [
              14.3043595,
              48.325579
            ],
            [
              14.3045876,
              48.3256462
            ],
            [
              14.3049337,
              48.3257442
            ],
            [
              14.3051916,
              48.3258143
            ],
            [
              14.3054259,
              48.3258714
            ],
            [
              14.3057399,
              48.3259447
            ],
            [
              14.3061764,
              48.3260467
            ],
            [
              14.3066421,
              48.3261416
            ],
            [
              14.3071128,
              48.3262296
            ],
            [
              14.3075848,
              48.3263054
            ],
            [
              14.3080575,
              48.3263791
            ],
            [
              14.3085416,
              48.326444
            ],
            [
              14.3090197,
              48.3265042
            ],
            [
              14.3095043,
              48.3265513
            ],
            [
              14.3099864,
              48.326592
            ],
            [
              14.3104385,
              48.3266242
            ],
            [
              14.311157,
              48.3266603
            ],
            [
              14.3114025,
              48.3266694
            ],
            [
              14.3116703,
              48.3266769
            ],
            [
              14.3121475,
              48.3266845
            ],
            [
              14.3125013,
              48.3266863
            ],
            [
              14.3127214,
              48.3266838
            ],
            [
              14.3130251,
              48.3266811
            ],
            [
              14.3147804,
              48.3266526
            ],
            [
              14.315474,
              48.3265823
            ],
            [
              14.3156433,
              48.3265699
            ],
            [
              14.3158292,
              48.326553
            ],
            [
              14.3159956,
              48.3265372
            ],
            [
              14.3161875,
              48.3265133
            ],
            [
              14.3163898,
              48.326484
            ],
            [
              14.3165589,
              48.3264585
            ],
            [
              14.3168133,
              48.32641
            ],
            [
              14.3170164,
              48.3263694
            ],
            [
              14.3172158,
              48.3263183
            ],
            [
              14.3174584,
              48.3262545
            ],
            [
              14.3177379,
              48.3261748
            ],
            [
              14.3179765,
              48.3261063
            ],
            [
              14.3181603,
              48.3260516
            ],
            [
              14.3183168,
              48.3260097
            ],
            [
              14.3184469,
              48.3259803
            ],
            [
              14.3185749,
              48.3259606
            ],
            [
              14.3187039,
              48.32596
            ],
            [
              14.3188365,
              48.3259732
            ],
            [
              14.3189629,
              48.3260022
            ],
            [
              14.3190788,
              48.3260449
            ],
            [
              14.3191805,
              48.3260979
            ],
            [
              14.319266,
              48.3261607
            ],
            [
              14.3193338,
              48.3262393
            ],
            [
              14.3193754,
              48.3263123
            ],
            [
              14.3194022,
              48.3263815
            ],
            [
              14.3194109,
              48.326462
            ],
            [
              14.3194089,
              48.326539
            ],
            [
              14.3193932,
              48.326629
            ],
            [
              14.3193671,
              48.3267262
            ],
            [
              14.3193364,
              48.3268274
            ],
            [
              14.3193026,
              48.3269245
            ],
            [
              14.31922,
              48.3271266
            ],
            [
              14.3191487,
              48.3272672
            ],
            [
              14.3190662,
              48.3274055
            ],
            [
              14.3189679,
              48.3275555
            ],
            [
              14.3188801,
              48.3276722
            ],
            [
              14.3187264,
              48.3278517
            ],
            [
              14.318545,
              48.3280649
            ],
            [
              14.3184864,
              48.3281313
            ],
            [
              14.3184315,
              48.3282272
            ],
            [
              14.318273,
              48.3284122
            ],
            [
              14.3181372,
              48.3286026
            ],
            [
              14.3180151,
              48.3288023
            ],
            [
              14.3179451,
              48.3289433
            ],
            [
              14.3178581,
              48.3291432
            ],
            [
              14.3178424,
              48.3291934
            ],
            [
              14.3177976,
              48.3293393
            ],
            [
              14.3177861,
              48.3293808
            ],
            [
              14.3177728,
              48.3294372
            ],
            [
              14.317763,
              48.3295087
            ],
            [
              14.3177531,
              48.3296517
            ],
            [
              14.317738,
              48.3297998
            ],
            [
              14.3177208,
              48.3298764
            ],
            [
              14.3176654,
              48.3300467
            ],
            [
              14.317631,
              48.3301527
            ],
            [
              14.3176222,
              48.3302401
            ],
            [
              14.3175888,
              48.3305741
            ],
            [
              14.3175794,
              48.3307818
            ],
            [
              14.3175722,
              48.3309215
            ],
            [
              14.3175723,
              48.330974
            ],
            [
              14.3175812,
              48.3310975
            ],
            [
              14.3175833,
              48.331161
            ],
            [
              14.3176022,
              48.3314722
            ],
            [
              14.3176291,
              48.3318915
            ],
            [
              14.3176348,
              48.3319567
            ],
            [
              14.3176378,
              48.3319905
            ],
            [
              14.3176406,
              48.3320225
            ],
            [
              14.3176575,
              48.3321094
            ],
            [
              14.3176652,
              48.3321399
            ],
            [
              14.3176884,
              48.3322447
            ],
            [
              14.3177129,
              48.332341
            ],
            [
              14.3177336,
              48.332417
            ],
            [
              14.3177564,
              48.3324858
            ],
            [
              14.3177786,
              48.3325569
            ],
            [
              14.317799,
              48.3326162
            ],
            [
              14.3178329,
              48.3327058
            ],
            [
              14.3178694,
              48.3327992
            ],
            [
              14.3179127,
              48.3328991
            ],
            [
              14.3179522,
              48.3329784
            ],
            [
              14.3180159,
              48.3331026
            ],
            [
              14.3180993,
              48.3332489
            ],
            [
              14.3181767,
              48.3333742
            ],
            [
              14.3182277,
              48.3334509
            ],
            [
              14.3182714,
              48.3335146
            ],
            [
              14.3183234,
              48.3335822
            ],
            [
              14.318374,
              48.3336421
            ],
            [
              14.318442,
              48.3337156
            ],
            [
              14.318501,
              48.333779
            ],
            [
              14.3185863,
              48.3338632
            ],
            [
              14.318654,
              48.3339209
            ],
            [
              14.3187389,
              48.3339891
            ],
            [
              14.3187856,
              48.334022
            ],
            [
              14.319023,
              48.3341775
            ],
            [
              14.3193388,
              48.3343798
            ],
            [
              14.3196791,
              48.3345978
            ],
            [
              14.3197947,
              48.3346751
            ],
            [
              14.3198407,
              48.3347082
            ],
            [
              14.3198848,
              48.3347414
            ],
            [
              14.3200087,
              48.3348366
            ],
            [
              14.3200257,
              48.3348502
            ],
            [
              14.3201078,
              48.3349157
            ],
            [
              14.3201759,
              48.334976
            ],
            [
              14.3201985,
              48.3349959
            ],
            [
              14.3203299,
              48.3351225
            ],
            [
              14.320407,
              48.3351959
            ],
            [
              14.3204302,
              48.3352208
            ],
            [
              14.320463,
              48.3352542
            ],
            [
              14.3206271,
              48.3354086
            ],
            [
              14.3208041,
              48.335563
            ],
            [
              14.3208451,
              48.3355951
            ],
            [
              14.3208742,
              48.3356156
            ],
            [
              14.3209288,
              48.3356541
            ],
            [
              14.3209871,
              48.3356944
            ],
            [
              14.3210355,
              48.3357282
            ],
            [
              14.321083,
              48.3357562
            ],
            [
              14.3213359,
              48.3359051
            ],
            [
              14.3214861,
              48.3359765
            ],
            [
              14.3215752,
              48.3360164
            ],
            [
              14.3216785,
              48.3360567
            ],
            [
              14.321785,
              48.336096
            ],
            [
              14.3219578,
              48.3361532
            ],
            [
              14.3221689,
              48.3362176
            ],
            [
              14.3223111,
              48.3362656
            ],
            [
              14.3223733,
              48.3362949
            ],
            [
              14.3224331,
              48.3363308
            ],
            [
              14.3224907,
              48.3363756
            ],
            [
              14.322531,
              48.336409
            ],
            [
              14.3225639,
              48.3364417
            ],
            [
              14.3226105,
              48.336495
            ],
            [
              14.3226447,
              48.336539
            ],
            [
              14.3226886,
              48.3366203
            ],
            [
              14.3227135,
              48.3366854
            ],
            [
              14.3227361,
              48.3367755
            ],
            [
              14.3227628,
              48.3369006
            ],
            [
              14.3228519,
              48.3369345
            ],
            [
              14.3229182,
              48.3369596
            ]
          ],
          [
            [
              14.3209088,
              48.3355264
            ],
            [
              14.3208761,
              48.3355452
            ],
            [
              14.3207779,
              48.3354697
            ],
            [
              14.3208128,
              48.3354496
            ]
          ],
          [
            [
              14.3178047,
              48.3301178
            ],
            [
              14.3177778,
              48.3301158
            ],
            [
              14.3178022,
              48.3299682
            ],
            [
              14.317833,
              48.3299704
            ]
          ],
          [
            [
              14.3105023,
              48.3005025
            ],
            [
              14.3101806,
              48.3004596
            ]
          ],
          [
            [
              14.303924,
              48.2991895
            ],
            [
              14.303906,
              48.2992075
            ],
            [
              14.3034988,
              48.299011
            ]
          ],
          [
            [
              14.2938103,
              48.2940478
            ],
            [
              14.2938104,
              48.2940632
            ],
            [
              14.2936045,
              48.2940643
            ],
            [
              14.2934489,
              48.294079
            ],
            [
              14.2934466,
              48.2940671
            ]
          ],
          [
            [
              14.292348,
              48.2924458
            ],
            [
              14.2924685,
              48.2925871
            ]
          ]
        ]
      },
      "id": "relation/70224"
    },
    {
      "type": "Feature",
      "properties": {
        "@id": "relation/1147448",
        "alternate": "no",
        "colour": "#964C29",
        "from": "Universität",
        "name": "Bus 77: Universität => Hauptbahnhof",
        "name:de": "Bus 77: Universität => Hauptbahnhof",
        "name:en": "Bus 77: University => Central Railway Station",
        "network": "Oberösterreichischer Verkehrsverbund",
        "network:short": "OÖVV",
        "network:wikidata": "Q2011605",
        "network:wikipedia": "de:Oberösterreichischer Verkehrsverbund",
        "operator": "Linz Linien GmbH",
        "public_transport:version": "2",
        "ref": "77",
        "route": "bus",
        "to": "Hauptbahnhof",
        "type": "route"
      },
      "geometry": {
        "type": "MultiLineString",
        "coordinates": [
          [
            [
              14.3229182,
              48.3369596
            ],
            [
              14.3229801,
              48.3369899
            ],
            [
              14.3230272,
              48.3370187
            ],
            [
              14.3230476,
              48.3370484
            ],
            [
              14.3230528,
              48.3370683
            ],
            [
              14.3230391,
              48.3371062
            ],
            [
              14.3229942,
              48.337135
            ],
            [
              14.3229187,
              48.3371496
            ],
            [
              14.3229096,
              48.3371513
            ],
            [
              14.3228356,
              48.3371622
            ],
            [
              14.3227957,
              48.3370266
            ],
            [
              14.3227628,
              48.3369006
            ],
            [
              14.3227361,
              48.3367755
            ],
            [
              14.3227135,
              48.3366854
            ],
            [
              14.3226886,
              48.3366203
            ],
            [
              14.3226447,
              48.336539
            ],
            [
              14.3226105,
              48.336495
            ],
            [
              14.3225639,
              48.3364417
            ],
            [
              14.322531,
              48.336409
            ],
            [
              14.3224907,
              48.3363756
            ],
            [
              14.3224331,
              48.3363308
            ],
            [
              14.3223733,
              48.3362949
            ],
            [
              14.3223111,
              48.3362656
            ],
            [
              14.3221689,
              48.3362176
            ],
            [
              14.3219578,
              48.3361532
            ],
            [
              14.321785,
              48.336096
            ],
            [
              14.3216785,
              48.3360567
            ],
            [
              14.3215752,
              48.3360164
            ],
            [
              14.3214861,
              48.3359765
            ],
            [
              14.3213359,
              48.3359051
            ],
            [
              14.321083,
              48.3357562
            ],
            [
              14.3210355,
              48.3357282
            ],
            [
              14.3209871,
              48.3356944
            ],
            [
              14.3209288,
              48.3356541
            ],
            [
              14.3208742,
              48.3356156
            ],
            [
              14.3208451,
              48.3355951
            ],
            [
              14.3208041,
              48.335563
            ],
            [
              14.3206271,
              48.3354086
            ],
            [
              14.320463,
              48.3352542
            ],
            [
              14.3204302,
              48.3352208
            ],
            [
              14.320407,
              48.3351959
            ],
            [
              14.3203299,
              48.3351225
            ],
            [
              14.3201985,
              48.3349959
            ],
            [
              14.3201759,
              48.334976
            ],
            [
              14.3201078,
              48.3349157
            ],
            [
              14.3200257,
              48.3348502
            ],
            [
              14.3200087,
              48.3348366
            ],
            [
              14.3198848,
              48.3347414
            ],
            [
              14.3198407,
              48.3347082
            ],
            [
              14.3197947,
              48.3346751
            ],
            [
              14.3196791,
              48.3345978
            ],
            [
              14.3193388,
              48.3343798
            ],
            [
              14.319023,
              48.3341775
            ],
            [
              14.3187856,
              48.334022
            ],
            [
              14.3187389,
              48.3339891
            ],
            [
              14.318654,
              48.3339209
            ],
            [
              14.3185863,
              48.3338632
            ],
            [
              14.318501,
              48.333779
            ],
            [
              14.318442,
              48.3337156
            ],
            [
              14.318374,
              48.3336421
            ],
            [
              14.3183234,
              48.3335822
            ],
            [
              14.3182714,
              48.3335146
            ],
            [
              14.3182277,
              48.3334509
            ],
            [
              14.3181767,
              48.3333742
            ],
            [
              14.3180993,
              48.3332489
            ],
            [
              14.3180159,
              48.3331026
            ],
            [
              14.3179522,
              48.3329784
            ],
            [
              14.3179127,
              48.3328991
            ],
            [
              14.3178694,
              48.3327992
            ],
            [
              14.3178329,
              48.3327058
            ],
            [
              14.317799,
              48.3326162
            ],
            [
              14.3177786,
              48.3325569
            ],
            [
              14.3177564,
              48.3324858
            ],
            [
              14.3177336,
              48.332417
            ],
            [
              14.3177129,
              48.332341
            ],
            [
              14.3176884,
              48.3322447
            ],
            [
              14.3176652,
              48.3321399
            ],
            [
              14.3176575,
              48.3321094
            ],
            [
              14.3176406,
              48.3320225
            ],
            [
              14.3176378,
              48.3319905
            ],
            [
              14.3176348,
              48.3319567
            ],
            [
              14.3176291,
              48.3318915
            ],
            [
              14.3176022,
              48.3314722
            ],
            [
              14.3175833,
              48.331161
            ],
            [
              14.3175812,
              48.3310975
            ],
            [
              14.3175723,
              48.330974
            ],
            [
              14.3175722,
              48.3309215
            ],
            [
              14.3175794,
              48.3307818
            ],
            [
              14.3175888,
              48.3305741
            ],
            [
              14.3176222,
              48.3302401
            ],
            [
              14.317631,
              48.3301527
            ],
            [
              14.317626,
              48.3301075
            ],
            [
              14.3176076,
              48.3299233
            ],
            [
              14.3175966,
              48.329769
            ],
            [
              14.3175927,
              48.3297022
            ],
            [
              14.3175904,
              48.3296645
            ],
            [
              14.3175845,
              48.3295349
            ],
            [
              14.3175991,
              48.3294039
            ],
            [
              14.3176529,
              48.3291916
            ],
            [
              14.317693,
              48.3290875
            ],
            [
              14.3177587,
              48.3289365
            ],
            [
              14.317816,
              48.3288215
            ],
            [
              14.3178706,
              48.3287289
            ],
            [
              14.3179339,
              48.3286295
            ],
            [
              14.3180309,
              48.3284912
            ],
            [
              14.3181777,
              48.328303
            ],
            [
              14.3182098,
              48.3282081
            ],
            [
              14.3182446,
              48.3281389
            ],
            [
              14.3182702,
              48.3280661
            ],
            [
              14.3182876,
              48.3279768
            ],
            [
              14.3182891,
              48.3278629
            ],
            [
              14.3182715,
              48.3277745
            ],
            [
              14.3182268,
              48.3276531
            ],
            [
              14.3181778,
              48.3275679
            ],
            [
              14.3181019,
              48.327478
            ],
            [
              14.3180136,
              48.3273976
            ],
            [
              14.3179016,
              48.3273187
            ],
            [
              14.3177992,
              48.3272624
            ],
            [
              14.3176788,
              48.3272108
            ],
            [
              14.3175157,
              48.3271568
            ],
            [
              14.3172622,
              48.3270886
            ],
            [
              14.3170021,
              48.3270284
            ],
            [
              14.3167547,
              48.3269774
            ],
            [
              14.3165392,
              48.326937
            ],
            [
              14.3162234,
              48.3268934
            ],
            [
              14.3159601,
              48.3268649
            ],
            [
              14.3157271,
              48.326842
            ],
            [
              14.3155787,
              48.326832
            ],
            [
              14.3153839,
              48.3268169
            ],
            [
              14.3149003,
              48.3267643
            ],
            [
              14.3140759,
              48.3267793
            ],
            [
              14.3134102,
              48.3267904
            ],
            [
              14.3133649,
              48.3267915
            ],
            [
              14.313039,
              48.3267982
            ],
            [
              14.3127616,
              48.3267992
            ],
            [
              14.3124329,
              48.3268017
            ],
            [
              14.3119245,
              48.3267957
            ],
            [
              14.311473,
              48.326788
            ],
            [
              14.3109501,
              48.3267683
            ],
            [
              14.3104964,
              48.3267455
            ],
            [
              14.3100083,
              48.3267099
            ],
            [
              14.3095241,
              48.3266685
            ],
            [
              14.309046,
              48.3266225
            ],
            [
              14.3085577,
              48.3265659
            ],
            [
              14.3080877,
              48.3264984
            ],
            [
              14.3076009,
              48.3264267
            ],
            [
              14.3070589,
              48.3263385
            ],
            [
              14.3064543,
              48.3262242
            ],
            [
              14.3056813,
              48.3260542
            ],
            [
              14.3051172,
              48.3259158
            ],
            [
              14.3046565,
              48.3257927
            ],
            [
              14.3044924,
              48.3257436
            ],
            [
              14.304237,
              48.3256685
            ],
            [
              14.3040407,
              48.325609
            ],
            [
              14.3036064,
              48.325464
            ],
            [
              14.3032226,
              48.3253351
            ],
            [
              14.3028625,
              48.3252013
            ],
            [
              14.302591,
              48.3250976
            ],
            [
              14.3021943,
              48.3249387
            ],
            [
              14.3019014,
              48.3248142
            ],
            [
              14.3016044,
              48.3246801
            ],
            [
              14.3010005,
              48.3243961
            ],
            [
              14.3003803,
              48.3240983
            ],
            [
              14.3001574,
              48.324005
            ],
            [
              14.2999903,
              48.3239459
            ],
            [
              14.2998974,
              48.3239161
            ],
            [
              14.2997539,
              48.3238759
            ],
            [
              14.2995349,
              48.3238248
            ],
            [
              14.2993687,
              48.3237981
            ],
            [
              14.2992274,
              48.3237805
            ],
            [
              14.2990135,
              48.3237633
            ],
            [
              14.2988282,
              48.3237548
            ],
            [
              14.2985942,
              48.3237539
            ],
            [
              14.2985391,
              48.3237537
            ],
            [
              14.2983187,
              48.3237577
            ],
            [
              14.2981553,
              48.3237591
            ],
            [
              14.2980194,
              48.3237538
            ],
            [
              14.2978172,
              48.3237417
            ],
            [
              14.2976873,
              48.3237299
            ],
            [
              14.2975408,
              48.3237118
            ],
            [
              14.2974079,
              48.3236882
            ],
            [
              14.2972719,
              48.3236588
            ],
            [
              14.2971609,
              48.3236305
            ],
            [
              14.2970722,
              48.3236031
            ],
            [
              14.2969638,
              48.3235697
            ],
            [
              14.296843,
              48.3235238
            ],
            [
              14.2967055,
              48.3234677
            ],
            [
              14.2966178,
              48.3234235
            ],
            [
              14.2965268,
              48.3233753
            ],
            [
              14.2964306,
              48.3233199
            ],
            [
              14.296335,
              48.3232568
            ],
            [
              14.2962381,
              48.3231878
            ],
            [
              14.2961324,
              48.3231002
            ],
            [
              14.2960021,
              48.3229754
            ],
            [
              14.2959299,
              48.3228878
            ],
            [
              14.295828,
              48.3227417
            ],
            [
              14.2957625,
              48.3226329
            ],
            [
              14.2957326,
              48.3225613
            ],
            [
              14.2956898,
              48.3224431
            ],
            [
              14.2956603,
              48.3223174
            ],
            [
              14.2956479,
              48.3222155
            ],
            [
              14.2956462,
              48.3220881
            ],
            [
              14.2956555,
              48.3219758
            ],
            [
              14.2956787,
              48.3218572
            ],
            [
              14.2957141,
              48.3217469
            ],
            [
              14.2957584,
              48.3216362
            ],
            [
              14.2958082,
              48.32154
            ],
            [
              14.2958593,
              48.3214602
            ],
            [
              14.2959174,
              48.3213749
            ],
            [
              14.2960177,
              48.3212553
            ],
            [
              14.2961508,
              48.3211286
            ],
            [
              14.2962263,
              48.3210678
            ],
            [
              14.2963398,
              48.3209836
            ],
            [
              14.2964365,
              48.3209189
            ],
            [
              14.2965863,
              48.3208242
            ],
            [
              14.2966493,
              48.3207871
            ],
            [
              14.2967327,
              48.3207379
            ],
            [
              14.2971535,
              48.3204939
            ],
            [
              14.2993862,
              48.3191937
            ],
            [
              14.3003098,
              48.3186479
            ],
            [
              14.3005728,
              48.3184924
            ],
            [
              14.3010323,
              48.3182332
            ],
            [
              14.3012495,
              48.3181061
            ],
            [
              14.301616,
              48.3178963
            ],
            [
              14.3019852,
              48.3176866
            ],
            [
              14.3025198,
              48.3173432
            ],
            [
              14.3027706,
              48.3171958
            ],
            [
              14.3031434,
              48.316959
            ],
            [
              14.3037489,
              48.3166107
            ],
            [
              14.3043861,
              48.3162287
            ],
            [
              14.3046755,
              48.3160513
            ],
            [
              14.3048381,
              48.3159474
            ],
            [
              14.3050595,
              48.3158052
            ],
            [
              14.3052348,
              48.315679
            ],
            [
              14.3054634,
              48.3155131
            ],
            [
              14.3057022,
              48.3153285
            ],
            [
              14.3058556,
              48.3152041
            ],
            [
              14.3059881,
              48.315095
            ],
            [
              14.3060966,
              48.3150031
            ],
            [
              14.3067093,
              48.3144427
            ],
            [
              14.3070804,
              48.3141346
            ],
            [
              14.3075394,
              48.313777
            ],
            [
              14.3082506,
              48.3132496
            ],
            [
              14.3087158,
              48.312893
            ],
            [
              14.3089522,
              48.3127032
            ],
            [
              14.3091967,
              48.3125049
            ],
            [
              14.3094313,
              48.312296
            ],
            [
              14.3096337,
              48.3120999
            ],
            [
              14.3097689,
              48.3119658
            ],
            [
              14.3098868,
              48.3118368
            ],
            [
              14.3100957,
              48.3115902
            ],
            [
              14.3102509,
              48.3113791
            ],
            [
              14.3104357,
              48.3111198
            ],
            [
              14.3105918,
              48.3108743
            ],
            [
              14.3108006,
              48.3105181
            ],
            [
              14.3113284,
              48.3095938
            ],
            [
              14.3117721,
              48.3088064
            ],
            [
              14.3120941,
              48.308235
            ],
            [
              14.3123223,
              48.3078076
            ],
            [
              14.3125457,
              48.3073655
            ],
            [
              14.31272,
              48.3070039
            ],
            [
              14.3129645,
              48.3064574
            ],
            [
              14.3131788,
              48.305916
            ],
            [
              14.3133815,
              48.3053033
            ],
            [
              14.3135896,
              48.3046626
            ],
            [
              14.313685,
              48.3043715
            ],
            [
              14.3138232,
              48.3039371
            ],
            [
              14.314196,
              48.3029482
            ],
            [
              14.3142448,
              48.3026167
            ],
            [
              14.3145288,
              48.3017006
            ],
            [
              14.3145934,
              48.301495
            ],
            [
              14.3146963,
              48.3011676
            ],
            [
              14.3147214,
              48.3010878
            ],
            [
              14.3145932,
              48.3010703
            ],
            [
              14.3145245,
              48.3010609
            ],
            [
              14.3142089,
              48.3010178
            ],
            [
              14.3134456,
              48.3009242
            ],
            [
              14.3132186,
              48.3008963
            ],
            [
              14.3131104,
              48.3008842
            ],
            [
              14.312698,
              48.3008348
            ],
            [
              14.3124504,
              48.3008052
            ],
            [
              14.3123997,
              48.3007992
            ],
            [
              14.3121671,
              48.3007726
            ],
            [
              14.311499,
              48.300696
            ],
            [
              14.3114256,
              48.3006876
            ],
            [
              14.3113232,
              48.3006759
            ],
            [
              14.3110392,
              48.3006427
            ],
            [
              14.3109854,
              48.3006364
            ],
            [
              14.3105597,
              48.3005866
            ],
            [
              14.3104752,
              48.3005767
            ],
            [
              14.3101645,
              48.3005404
            ],
            [
              14.3100669,
              48.3005291
            ],
            [
              14.3090426,
              48.3004092
            ],
            [
              14.3087832,
              48.3003789
            ],
            [
              14.3086477,
              48.3003642
            ],
            [
              14.308605,
              48.3003595
            ],
            [
              14.3082818,
              48.3003244
            ],
            [
              14.3080166,
              48.3002955
            ],
            [
              14.3079655,
              48.30029
            ],
            [
              14.3076171,
              48.3002521
            ],
            [
              14.3074834,
              48.3002375
            ],
            [
              14.3072412,
              48.3002112
            ],
            [
              14.3061038,
              48.3000836
            ],
            [
              14.3060233,
              48.3000734
            ],
            [
              14.3059267,
              48.3000612
            ],
            [
              14.3057388,
              48.3000189
            ],
            [
              14.3055842,
              48.2999654
            ],
            [
              14.3055407,
              48.2999491
            ],
            [
              14.3054709,
              48.299923
            ],
            [
              14.3051068,
              48.2997867
            ],
            [
              14.3050859,
              48.2997789
            ],
            [
              14.3045838,
              48.2995909
            ],
            [
              14.3044214,
              48.2995281
            ],
            [
              14.3041186,
              48.299411
            ],
            [
              14.3039758,
              48.2993475
            ],
            [
              14.3038129,
              48.299275
            ],
            [
              14.3033407,
              48.2990655
            ],
            [
              14.3032929,
              48.2990443
            ],
            [
              14.3031606,
              48.2989902
            ],
            [
              14.3030241,
              48.298934
            ],
            [
              14.3029744,
              48.2989044
            ],
            [
              14.3028526,
              48.2988318
            ],
            [
              14.3027652,
              48.2987665
            ],
            [
              14.3026662,
              48.2986781
            ],
            [
              14.3025501,
              48.2985673
            ],
            [
              14.302521,
              48.2985396
            ],
            [
              14.3024759,
              48.2984976
            ],
            [
              14.3023775,
              48.2983867
            ],
            [
              14.3023075,
              48.2983059
            ],
            [
              14.3021877,
              48.2981614
            ],
            [
              14.3021079,
              48.2980574
            ],
            [
              14.302045,
              48.2979519
            ],
            [
              14.3019895,
              48.2978494
            ],
            [
              14.3019374,
              48.2977635
            ],
            [
              14.3018819,
              48.2976944
            ],
            [
              14.3018218,
              48.2976324
            ],
            [
              14.3017606,
              48.2975804
            ],
            [
              14.3016969,
              48.2975366
            ],
            [
              14.3016406,
              48.2975026
            ],
            [
              14.301187,
              48.297335
            ],
            [
              14.3010626,
              48.2972891
            ],
            [
              14.3008097,
              48.2971955
            ],
            [
              14.3006978,
              48.2971998
            ],
            [
              14.3006802,
              48.2971934
            ],
            [
              14.3005513,
              48.2971467
            ],
            [
              14.3004545,
              48.2971116
            ],
            [
              14.3003861,
              48.2970408
            ],
            [
              14.2996825,
              48.2967846
            ],
            [
              14.2994164,
              48.2966933
            ],
            [
              14.2993407,
              48.2966673
            ],
            [
              14.2992158,
              48.2966244
            ],
            [
              14.2991659,
              48.2966059
            ],
            [
              14.2991054,
              48.2965851
            ],
            [
              14.2990443,
              48.2965655
            ],
            [
              14.2988844,
              48.2965114
            ],
            [
              14.2982824,
              48.2962971
            ],
            [
              14.2978142,
              48.2961301
            ],
            [
              14.2973977,
              48.2959783
            ],
            [
              14.2971575,
              48.2958907
            ],
            [
              14.2969078,
              48.2957996
            ],
            [
              14.2967227,
              48.2957363
            ],
            [
              14.2966435,
              48.2957092
            ],
            [
              14.2965275,
              48.2956739
            ],
            [
              14.2964246,
              48.2956426
            ],
            [
              14.2962575,
              48.2955927
            ],
            [
              14.2961437,
              48.2955514
            ],
            [
              14.2960406,
              48.2954906
            ],
            [
              14.2958731,
              48.2953547
            ],
            [
              14.2958469,
              48.2953329
            ],
            [
              14.2957219,
              48.2952391
            ],
            [
              14.2955806,
              48.2951428
            ],
            [
              14.2954355,
              48.2950465
            ],
            [
              14.2953786,
              48.2950021
            ],
            [
              14.2951019,
              48.2947955
            ],
            [
              14.2948721,
              48.2945999
            ],
            [
              14.2947548,
              48.2944863
            ],
            [
              14.2946608,
              48.2944029
            ],
            [
              14.2945718,
              48.2943393
            ],
            [
              14.2944835,
              48.2942999
            ],
            [
              14.2943864,
              48.2942698
            ],
            [
              14.2942834,
              48.2942535
            ],
            [
              14.2942316,
              48.2942525
            ],
            [
              14.294056,
              48.2942492
            ],
            [
              14.293855,
              48.2942503
            ],
            [
              14.2934682,
              48.2942449
            ],
            [
              14.2932839,
              48.2942418
            ],
            [
              14.2931566,
              48.2942396
            ],
            [
              14.2930392,
              48.2942271
            ],
            [
              14.2929266,
              48.2942008
            ],
            [
              14.2927807,
              48.2941425
            ],
            [
              14.2926721,
              48.2940767
            ],
            [
              14.2925551,
              48.2939853
            ],
            [
              14.2924717,
              48.2938934
            ],
            [
              14.2922162,
              48.2935912
            ],
            [
              14.2921831,
              48.2935522
            ],
            [
              14.2921216,
              48.2933496
            ],
            [
              14.2922475,
              48.2932258
            ],
            [
              14.2922834,
              48.2932121
            ],
            [
              14.2925016,
              48.293139
            ],
            [
              14.292688,
              48.2930574
            ],
            [
              14.2928549,
              48.2929529
            ],
            [
              14.2928224,
              48.2929164
            ],
            [
              14.2927675,
              48.2928519
            ],
            [
              14.2927036,
              48.2927813
            ],
            [
              14.2926559,
              48.2927247
            ],
            [
              14.2926262,
              48.2926905
            ],
            [
              14.292576,
              48.2926326
            ],
            [
              14.2925059,
              48.2925525
            ],
            [
              14.2924544,
              48.2924955
            ]
          ],
          [
            [
              14.292348,
              48.2924458
            ],
            [
              14.2924685,
              48.2925871
            ]
          ],
          [
            [
              14.29385,
              48.2943113
            ],
            [
              14.293405,
              48.2942954
            ],
            [
              14.2931606,
              48.2942927
            ],
            [
              14.2930855,
              48.2942847
            ],
            [
              14.2930803,
              48.2943029
            ]
          ],
          [
            [
              14.2954984,
              48.2951852
            ],
            [
              14.2955142,
              48.2951747
            ],
            [
              14.2957737,
              48.2953496
            ],
            [
              14.2958569,
              48.2954245
            ],
            [
              14.2959608,
              48.295512
            ],
            [
              14.2959336,
              48.2955268
            ]
          ],
          [
            [
              14.3026656,
              48.2988335
            ],
            [
              14.3023586,
              48.2986042
            ]
          ],
          [
            [
              14.3101332,
              48.3006146
            ],
            [
              14.3103764,
              48.3006439
            ]
          ],
          [
            [
              14.3174609,
              48.3300959
            ],
            [
              14.31749,
              48.3300963
            ],
            [
              14.3174844,
              48.330299
            ],
            [
              14.3174589,
              48.3302987
            ]
          ]
        ]
      },
      "id": "relation/1147448"
    }
  ]
}