{
  "type": "FeatureCollection",
  "features": [
    {
      "type": "Feature",
      "properties": {
        "@id": "relation/32260",
        "alternate": "no",
        "colour": "#de7a36",
        "from": "Rudolfstraße",
        "gtfs:feed": "AT-Linz_AG",
        "gtfs:route_id": "at:esg:38:",
        "gtfs:shape_id": "2-38-E-e25-1.2.H",
        "gtfs:trip_id:like": "%2-38-E-e25-1.2.H",
        "gtfs:trip_id:sample": "497.TA.2-38-E-e25-1.2.H",
        "name": "Bus 38: Rudolfstraße => Jäger im Tal",
        "network": "Oberösterreichischer Verkehrsverbund",
        "network:short": "OÖVV",
        "network:wikidata": "Q2011605",
        "network:wikipedia": "de:Oberösterreichischer Verkehrsverbund",
        "operator": "Linz Linien GmbH",
        "public_transport:version": "2",
        "ref": "38",
        "route": "bus",
        "to": "Jäger im Tal",
        "type": "route"
      },
      "geometry": {
        "type": "MultiLineString",
        "coordinates": [
          [
            [
              14.2832749,
              48.3116422
            ],
            [
              14.2831246,
              48.3115778
            ],
            [
              14.2831033,
              48.3115675
            ],
            [
              14.2829774,
              48.3115069
            ],
            [
              14.2827858,
              48.311412
            ],
            [
              14.2826641,
              48.3115502
            ],
            [
              14.2826031,
              48.3116339
            ],
            [
              14.2825243,
              48.3117432
            ],
            [
              14.282479,
              48.3118184
            ],
            [
              14.2824137,
              48.3119433
            ],
            [
              14.2823525,
              48.3120713
            ],
            [
              14.2822118,
              48.3124079
            ],
            [
              14.2821505,
              48.3125252
            ],
            [
              14.2821462,
              48.3125318
            ],
            [
              14.2821279,
              48.3125664
            ],
            [
              14.2821094,
              48.3126013
            ],
            [
              14.2820867,
              48.3126443
            ],
            [
              14.2820405,
              48.3127315
            ],
            [
              14.2819858,
              48.3128179
            ],
            [
              14.2819453,
              48.3128838
            ],
            [
              14.2819177,
              48.3129266
            ],
            [
              14.2818995,
              48.3129554
            ],
            [
              14.2818666,
              48.3130121
            ],
            [
              14.281768,
              48.313182
            ],
            [
              14.2815586,
              48.3135484
            ],
            [
              14.281538,
              48.3135845
            ],
            [
              14.2815068,
              48.3136372
            ],
            [
              14.281004,
              48.3145288
            ],
            [
              14.280977,
              48.3145766
            ],
            [
              14.280945,
              48.3146333
            ],
            [
              14.2808343,
              48.3148296
            ],
            [
              14.2806584,
              48.3151402
            ],
            [
              14.2805752,
              48.315287
            ],
            [
              14.2805255,
              48.3154152
            ],
            [
              14.2804878,
              48.3155042
            ],
            [
              14.2808322,
              48.3157494
            ],
            [
              14.280852,
              48.3157613
            ],
            [
              14.2810145,
              48.3158694
            ],
            [
              14.2810673,
              48.3159045
            ],
            [
              14.2814438,
              48.3161551
            ],
            [
              14.281623,
              48.3162743
            ],
            [
              14.2820421,
              48.3165602
            ],
            [
              14.2821005,
              48.3166001
            ],
            [
              14.2825949,
              48.316955
            ],
            [
              14.2826221,
              48.3169761
            ],
            [
              14.2827116,
              48.3170454
            ],
            [
              14.2828159,
              48.3171263
            ],
            [
              14.2829892,
              48.3172666
            ],
            [
              14.2830214,
              48.3172926
            ],
            [
              14.2830774,
              48.3173386
            ],
            [
              14.2831921,
              48.3174329
            ],
            [
              14.2832904,
              48.3175046
            ],
            [
              14.2832346,
              48.3175898
            ],
            [
              14.2832203,
              48.3176227
            ],
            [
              14.2832144,
              48.3176514
            ],
            [
              14.283212,
              48.3176737
            ],
            [
              14.2832078,
              48.3177128
            ],
            [
              14.2832073,
              48.3177314
            ],
            [
              14.2832053,
              48.3178109
            ],
            [
              14.2831995,
              48.3180447
            ],
            [
              14.2831917,
              48.3181686
            ],
            [
              14.2831905,
              48.3182177
            ],
            [
              14.2831883,
              48.3183053
            ],
            [
              14.283182,
              48.3185577
            ],
            [
              14.2831817,
              48.318573
            ],
            [
              14.2831802,
              48.3186389
            ],
            [
              14.2831684,
              48.3191838
            ],
            [
              14.2831581,
              48.3196544
            ],
            [
              14.2831434,
              48.3203323
            ],
            [
              14.283139,
              48.3206901
            ],
            [
              14.2831355,
              48.3209645
            ],
            [
              14.283133,
              48.321173
            ],
            [
              14.2831303,
              48.3213854
            ],
            [
              14.2831292,
              48.3215945
            ],
            [
              14.2831282,
              48.3218042
            ],
            [
              14.2831232,
              48.3224941
            ],
            [
              14.2831219,
              48.3226771
            ],
            [
              14.2831377,
              48.3229321
            ],
            [
              14.283162,
              48.3231164
            ],
            [
              14.2832654,
              48.3233654
            ],
            [
              14.2832848,
              48.3234085
            ],
            [
              14.2833263,
              48.3234854
            ],
            [
              14.2833698,
              48.3235597
            ],
            [
              14.2834006,
              48.3236084
            ],
            [
              14.2834035,
              48.323612
            ],
            [
              14.2835035,
              48.3237363
            ],
            [
              14.2835958,
              48.3238226
            ],
            [
              14.2836836,
              48.323892
            ],
            [
              14.283809,
              48.3239797
            ],
            [
              14.2839077,
              48.3240554
            ],
            [
              14.2839725,
              48.3241094
            ],
            [
              14.2840363,
              48.3241672
            ],
            [
              14.2840987,
              48.3242349
            ],
            [
              14.284151,
              48.3243026
            ],
            [
              14.2841917,
              48.3243712
            ],
            [
              14.2842273,
              48.3244491
            ],
            [
              14.2842586,
              48.3245403
            ],
            [
              14.2842721,
              48.3246384
            ],
            [
              14.2842713,
              48.324719
            ],
            [
              14.2842545,
              48.3248705
            ],
            [
              14.2842345,
              48.3250174
            ],
            [
              14.2842189,
              48.3251829
            ],
            [
              14.2842229,
              48.3252895
            ],
            [
              14.2842253,
              48.3253894
            ],
            [
              14.2842209,
              48.3255124
            ],
            [
              14.2842096,
              48.3256689
            ],
            [
              14.2843605,
              48.3261361
            ],
            [
              14.2844114,
              48.3262935
            ],
            [
              14.2845419,
              48.3266756
            ],
            [
              14.2845867,
              48.3267816
            ],
            [
              14.2846084,
              48.3268191
            ],
            [
              14.2846688,
              48.3269127
            ],
            [
              14.284734,
              48.3269963
            ],
            [
              14.2847949,
              48.3270662
            ],
            [
              14.2849194,
              48.3272195
            ],
            [
              14.2850518,
              48.3273653
            ],
            [
              14.285167,
              48.327486
            ],
            [
              14.2854147,
              48.3277077
            ],
            [
              14.2862098,
              48.3283402
            ],
            [
              14.2870007,
              48.3290379
            ],
            [
              14.2873276,
              48.3293759
            ],
            [
              14.2875773,
              48.329639
            ],
            [
              14.2876945,
              48.3297432
            ],
            [
              14.2877538,
              48.329796
            ],
            [
              14.2879808,
              48.3300675
            ],
            [
              14.2881602,
              48.3302913
            ],
            [
              14.2885034,
              48.3306938
            ],
            [
              14.2890749,
              48.3313358
            ],
            [
              14.2896958,
              48.3320027
            ],
            [
              14.2899398,
              48.3322597
            ],
            [
              14.290059,
              48.3323833
            ],
            [
              14.290125,
              48.3324525
            ],
            [
              14.2904753,
              48.3328196
            ],
            [
              14.290616,
              48.3329538
            ],
            [
              14.2907222,
              48.3330596
            ],
            [
              14.2907987,
              48.3331344
            ],
            [
              14.2909176,
              48.3332593
            ],
            [
              14.2911291,
              48.3334777
            ],
            [
              14.2912887,
              48.3337181
            ],
            [
              14.2913391,
              48.3337703
            ],
            [
              14.2919159,
              48.3343673
            ],
            [
              14.2925663,
              48.3350404
            ],
            [
              14.2926233,
              48.3351001
            ],
            [
              14.2926696,
              48.3351513
            ],
            [
              14.2927591,
              48.3352723
            ],
            [
              14.2928107,
              48.335353
            ],
            [
              14.2928344,
              48.3353934
            ],
            [
              14.2928846,
              48.3355046
            ],
            [
              14.2929171,
              48.3355866
            ],
            [
              14.292938,
              48.3356397
            ],
            [
              14.292984,
              48.3357819
            ],
            [
              14.2930004,
              48.3358374
            ],
            [
              14.2930361,
              48.3359579
            ],
            [
              14.293066,
              48.3360591
            ],
            [
              14.2930798,
              48.3361092
            ],
            [
              14.2931205,
              48.3362566
            ],
            [
              14.2931334,
              48.3363201
            ],
            [
              14.2931409,
              48.3363572
            ],
            [
              14.293157,
              48.3364637
            ],
            [
              14.2931719,
              48.3366379
            ],
            [
              14.2931741,
              48.3366914
            ],
            [
              14.2931806,
              48.3368488
            ],
            [
              14.2931929,
              48.3371435
            ],
            [
              14.2932065,
              48.3374726
            ],
            [
              14.2932081,
              48.3375413
            ],
            [
              14.2932062,
              48.3375794
            ],
            [
              14.2932026,
              48.3376363
            ],
            [
              14.2932015,
              48.3376546
            ],
            [
              14.2931969,
              48.3377269
            ],
            [
              14.2931927,
              48.3377477
            ],
            [
              14.2931774,
              48.3378221
            ],
            [
              14.2931596,
              48.3378942
            ],
            [
              14.2931365,
              48.3379622
            ],
            [
              14.2931173,
              48.3380143
            ],
            [
              14.2931126,
              48.3380272
            ],
            [
              14.2930879,
              48.3380834
            ],
            [
              14.2930344,
              48.3382019
            ],
            [
              14.2930083,
              48.3382531
            ],
            [
              14.292987,
              48.3382949
            ],
            [
              14.2929572,
              48.3383529
            ],
            [
              14.2927734,
              48.3386559
            ],
            [
              14.2925083,
              48.339071
            ],
            [
              14.2923893,
              48.3392831
            ],
            [
              14.292331,
              48.3394084
            ],
            [
              14.2922938,
              48.3394985
            ],
            [
              14.2922789,
              48.3395438
            ],
            [
              14.2922585,
              48.3396057
            ],
            [
              14.2922311,
              48.3397071
            ],
            [
              14.292197,
              48.3398683
            ],
            [
              14.2921811,
              48.3399885
            ],
            [
              14.2921801,
              48.3400194
            ],
            [
              14.2921765,
              48.340129
            ],
            [
              14.2921812,
              48.3402899
            ],
            [
              14.2921956,
              48.3404097
            ],
            [
              14.2922083,
              48.3404762
            ],
            [
              14.2922205,
              48.3405378
            ],
            [
              14.292241,
              48.3406226
            ],
            [
              14.2922775,
              48.3407499
            ],
            [
              14.2923138,
              48.3408416
            ],
            [
              14.2923675,
              48.3409653
            ],
            [
              14.2924023,
              48.3410319
            ],
            [
              14.2924268,
              48.3410788
            ],
            [
              14.2924883,
              48.3411859
            ],
            [
              14.2925484,
              48.3412759
            ],
            [
              14.2926072,
              48.3413598
            ],
            [
              14.2927045,
              48.3414931
            ],
            [
              14.2927548,
              48.3415622
            ],
            [
              14.2928597,
              48.3417062
            ],
            [
              14.2929585,
              48.3418371
            ],
            [
              14.2930147,
              48.3419117
            ],
            [
              14.2931124,
              48.3420411
            ],
            [
              14.2931608,
              48.3421059
            ],
            [
              14.2933446,
              48.3423499
            ],
            [
              14.29344,
              48.3424795
            ],
            [
              14.29352,
              48.3425958
            ],
            [
              14.2935721,
              48.3426826
            ],
            [
              14.293599,
              48.3427314
            ],
            [
              14.2936574,
              48.3428473
            ],
            [
              14.2936906,
              48.3429169
            ],
            [
              14.293726,
              48.342991
            ],
            [
              14.2937405,
              48.3430266
            ],
            [
              14.2937727,
              48.3431055
            ],
            [
              14.2938043,
              48.3431993
            ],
            [
              14.2938309,
              48.3432982
            ],
            [
              14.2938502,
              48.3433925
            ],
            [
              14.2938678,
              48.3434985
            ],
            [
              14.2938826,
              48.3436175
            ],
            [
              14.2938977,
              48.3437577
            ],
            [
              14.2939122,
              48.3439237
            ],
            [
              14.2939197,
              48.344021
            ],
            [
              14.2939282,
              48.3442075
            ],
            [
              14.2938894,
              48.3442097
            ],
            [
              14.2938502,
              48.3442236
            ],
            [
              14.2938091,
              48.3442521
            ],
            [
              14.2935775,
              48.3445132
            ],
            [
              14.2934953,
              48.344606
            ],
            [
              14.2934583,
              48.3446572
            ],
            [
              14.2934418,
              48.3446929
            ],
            [
              14.2934284,
              48.3447358
            ],
            [
              14.293424,
              48.3447807
            ],
            [
              14.2934278,
              48.344846
            ],
            [
              14.293449,
              48.3450567
            ],
            [
              14.2934512,
              48.3451449
            ],
            [
              14.2934504,
              48.3451611
            ],
            [
              14.2934469,
              48.3452347
            ],
            [
              14.293435,
              48.345331
            ],
            [
              14.2933982,
              48.3455731
            ],
            [
              14.2933411,
              48.3459464
            ],
            [
              14.2933255,
              48.34601
            ],
            [
              14.2933118,
              48.3460535
            ],
            [
              14.2932838,
              48.3461015
            ],
            [
              14.2932515,
              48.3461384
            ],
            [
              14.2931883,
              48.346197
            ],
            [
              14.2930723,
              48.3462974
            ],
            [
              14.292988,
              48.3463739
            ],
            [
              14.2929341,
              48.3464253
            ],
            [
              14.2929015,
              48.3464568
            ],
            [
              14.2928774,
              48.346484
            ],
            [
              14.2928488,
              48.3465217
            ],
            [
              14.292773,
              48.3466302
            ],
            [
              14.2927045,
              48.3467281
            ],
            [
              14.2926532,
              48.3468039
            ]
          ],
          [
            [
              14.2932802,
              48.3420869
            ],
            [
              14.2931856,
              48.3419534
            ]
          ],
          [
            [
              14.293311,
              48.3376084
            ],
            [
              14.2933083,
              48.3377036
            ]
          ],
          [
            [
              14.2899243,
              48.3321087
            ],
            [
              14.2901436,
              48.3323603
            ]
          ],
          [
            [
              14.2880982,
              48.3300877
            ],
            [
              14.2878218,
              48.3297686
            ]
          ],
          [
            [
              14.2851628,
              48.3273567
            ],
            [
              14.284998,
              48.327164
            ],
            [
              14.2849808,
              48.3271439
            ],
            [
              14.284972,
              48.3271336
            ]
          ],
          [
            [
              14.2833597,
              48.3233561
            ],
            [
              14.2833208,
              48.3233596
            ],
            [
              14.2832763,
              48.3231382
            ],
            [
              14.283316,
              48.3231346
            ]
          ],
          [
            [
              14.2832714,
              48.3209905
            ],
            [
              14.2832475,
              48.3209907
            ],
            [
              14.2832453,
              48.3211907
            ],
            [
              14.2832695,
              48.3211907
            ]
          ],
          [
            [
              14.2833003,
              48.3181955
            ],
            [
              14.2832892,
              48.3181735
            ],
            [
              14.2832918,
              48.3179832
            ],
            [
              14.2833141,
              48.3179677
            ]
          ]
        ]
      },
      "id": "relation/32260"
    },
    {
      "type": "Feature",
      "properties": {
        "@id": "relation/1148636",
        "alternate": "no",
        "colour": "#de7a36",
        "from": "Jäger im Tal",
        "gtfs:feed": "AT-Linz_AG",
        "gtfs:route_id": "at:esg:38:",
        "gtfs:shape_id": "2-38-E-e25-1.1.R",
        "gtfs:trip_id:like": "%2-38-E-e25-1.1.R",
        "gtfs:trip_id:sample": "2.TA.2-38-E-e25-1.1.R",
        "name": "Bus 38: Jäger im Tal => Rudolfstraße",
        "network": "Oberösterreichischer Verkehrsverbund",
        "network:short": "OÖVV",
        "network:wikidata": "Q2011605",
        "network:wikipedia": "de:Oberösterreichischer Verkehrsverbund",
        "operator": "Linz Linien GmbH",
        "public_transport:version": "2",
        "ref": "38",
        "route": "bus",
        "to": "Rudolfstraße",
        "type": "route"
      },
      "geometry": {
        "type": "MultiLineString",
        "coordinates": [
          [
            [
              14.2926532,
              48.3468039
            ],
            [
              14.2925648,
              48.3469346
            ],
            [
              14.2924806,
              48.3469242
            ],
            [
              14.2924496,
              48.3469177
            ],
            [
              14.2924222,
              48.3469082
            ],
            [
              14.292401,
              48.3468968
            ],
            [
              14.2923859,
              48.3468848
            ],
            [
              14.292374,
              48.3468693
            ],
            [
              14.2923668,
              48.3468528
            ],
            [
              14.2923647,
              48.3468362
            ],
            [
              14.2923645,
              48.3468222
            ],
            [
              14.2923709,
              48.3468059
            ],
            [
              14.2923867,
              48.3467864
            ],
            [
              14.2924151,
              48.3467694
            ],
            [
              14.2924525,
              48.3467553
            ],
            [
              14.2925238,
              48.3467386
            ],
            [
              14.2925881,
              48.346729
            ],
            [
              14.2926462,
              48.346726
            ],
            [
              14.2927045,
              48.3467281
            ],
            [
              14.292773,
              48.3466302
            ],
            [
              14.2928488,
              48.3465217
            ],
            [
              14.2928774,
              48.346484
            ],
            [
              14.2929015,
              48.3464568
            ],
            [
              14.2929341,
              48.3464253
            ],
            [
              14.292988,
              48.3463739
            ],
            [
              14.2930723,
              48.3462974
            ],
            [
              14.2931883,
              48.346197
            ],
            [
              14.2932515,
              48.3461384
            ],
            [
              14.2932838,
              48.3461015
            ],
            [
              14.2933118,
              48.3460535
            ],
            [
              14.2933255,
              48.34601
            ],
            [
              14.2933411,
              48.3459464
            ],
            [
              14.2933982,
              48.3455731
            ],
            [
              14.293435,
              48.345331
            ],
            [
              14.2934469,
              48.3452347
            ],
            [
              14.2934504,
              48.3451611
            ],
            [
              14.2934512,
              48.3451449
            ],
            [
              14.293449,
              48.3450567
            ],
            [
              14.2934278,
              48.344846
            ],
            [
              14.293424,
              48.3447807
            ],
            [
              14.2934284,
              48.3447358
            ],
            [
              14.2934418,
              48.3446929
            ],
            [
              14.2934583,
              48.3446572
            ],
            [
              14.2934953,
              48.344606
            ],
            [
              14.2935775,
              48.3445132
            ],
            [
              14.2938091,
              48.3442521
            ],
            [
              14.2938502,
              48.3442236
            ],
            [
              14.2938894,
              48.3442097
            ],
            [
              14.2939282,
              48.3442075
            ],
            [
              14.2939197,
              48.344021
            ],
            [
              14.2939122,
              48.3439237
            ],
            [
              14.2938977,
              48.3437577
            ],
            [
              14.2938826,
              48.3436175
            ],
            [
              14.2938678,
              48.3434985
            ],
            [
              14.2938502,
              48.3433925
            ],
            [
              14.2938309,
              48.3432982
            ],
            [
              14.2938043,
              48.3431993
            ],
            [
              14.2937727,
              48.3431055
            ],
            [
              14.2937405,
              48.3430266
            ],
            [
              14.293726,
              48.342991
            ],
            [
              14.2936906,
              48.3429169
            ],
            [
              14.2936574,
              48.3428473
            ],
            [
              14.293599,
              48.3427314
            ],
            [
              14.2935721,
              48.3426826
            ],
            [
              14.29352,
              48.3425958
            ],
            [
              14.29344,
              48.3424795
            ],
            [
              14.2933446,
              48.3423499
            ],
            [
              14.2931608,
              48.3421059
            ],
            [
              14.2931124,
              48.3420411
            ],
            [
              14.2930147,
              48.3419117
            ],
            [
              14.2929585,
              48.3418371
            ],
            [
              14.2928597,
              48.3417062
            ],
            [
              14.2927548,
              48.3415622
            ],
            [
              14.2927045,
              48.3414931
            ],
            [
              14.2926072,
              48.3413598
            ],
            [
              14.2925484,
              48.3412759
            ],
            [
              14.2924883,
              48.3411859
            ],
            [
              14.2924268,
              48.3410788
            ],
            [
              14.2924023,
              48.3410319
            ],
            [
              14.2923675,
              48.3409653
            ],
            [
              14.2923138,
              48.3408416
            ],
            [
              14.2922775,
              48.3407499
            ],
            [
              14.292241,
              48.3406226
            ],
            [
              14.2922205,
              48.3405378
            ],
            [
              14.2922083,
              48.3404762
            ],
            [
              14.2921956,
              48.3404097
            ],
            [
              14.2921812,
              48.3402899
            ],
            [
              14.2921765,
              48.340129
            ],
            [
              14.2921801,
              48.3400194
            ],
            [
              14.2921811,
              48.3399885
            ],
            [
              14.292197,
              48.3398683
            ],
            [
              14.2922311,
              48.3397071
            ],
            [
              14.2922585,
              48.3396057
            ],
            [
              14.2922789,
              48.3395438
            ],
            [
              14.2922938,
              48.3394985
            ],
            [
              14.292331,
              48.3394084
            ],
            [
              14.2923893,
              48.3392831
            ],
            [
              14.2925083,
              48.339071
            ],
            [
              14.2927734,
              48.3386559
            ],
            [
              14.2929572,
              48.3383529
            ],
            [
              14.292987,
              48.3382949
            ],
            [
              14.2930083,
              48.3382531
            ],
            [
              14.2930344,
              48.3382019
            ],
            [
              14.2930879,
              48.3380834
            ],
            [
              14.2931126,
              48.3380272
            ],
            [
              14.2931173,
              48.3380143
            ],
            [
              14.2931365,
              48.3379622
            ],
            [
              14.2931596,
              48.3378942
            ],
            [
              14.2931774,
              48.3378221
            ],
            [
              14.2931927,
              48.3377477
            ],
            [
              14.2931969,
              48.3377269
            ],
            [
              14.2932015,
              48.3376546
            ],
            [
              14.2932026,
              48.3376363
            ],
            [
              14.2932062,
              48.3375794
            ],
            [
              14.2932081,
              48.3375413
            ],
            [
              14.2932065,
              48.3374726
            ],
            [
              14.2931929,
              48.3371435
            ],
            [
              14.2931806,
              48.3368488
            ],
            [
              14.2931741,
              48.3366914
            ],
            [
              14.2931719,
              48.3366379
            ],
            [
              14.293157,
              48.3364637
            ],
            [
              14.2931409,
              48.3363572
            ],
            [
              14.2931334,
              48.3363201
            ],
            [
              14.2931205,
              48.3362566
            ],
            [
              14.2930798,
              48.3361092
            ],
            [
              14.293066,
              48.3360591
            ],
            [
              14.2930361,
              48.3359579
            ],
            [
              14.2930004,
              48.3358374
            ],
            [
              14.292984,
              48.3357819
            ],
            [
              14.292938,
              48.3356397
            ],
            [
              14.2929171,
              48.3355866
            ],
            [
              14.2928846,
              48.3355046
            ],
            [
              14.2928344,
              48.3353934
            ],
            [
              14.2928107,
              48.335353
            ],
            [
              14.2927591,
              48.3352723
            ],
            [
              14.2926696,
              48.3351513
            ],
            [
              14.2926233,
              48.3351001
            ],
            [
              14.2925663,
              48.3350404
            ],
            [
              14.2919159,
              48.3343673
            ],
            [
              14.2913391,
              48.3337703
            ],
            [
              14.2912887,
              48.3337181
            ],
            [
              14.291018,
              48.3335151
            ],
            [
              14.2907247,
              48.333218
            ],
            [
              14.2906747,
              48.3331674
            ],
            [
              14.2905817,
              48.33307
            ],
            [
              14.2904958,
              48.33298
            ],
            [
              14.29033,
              48.3328065
            ],
            [
              14.2901063,
              48.3325721
            ],
            [
              14.2898805,
              48.332342
            ],
            [
              14.2895972,
              48.3320409
            ],
            [
              14.2889673,
              48.33138
            ],
            [
              14.2883911,
              48.3307393
            ],
            [
              14.2882488,
              48.3305768
            ],
            [
              14.2879271,
              48.3301966
            ],
            [
              14.2876477,
              48.3298632
            ],
            [
              14.2876323,
              48.3298448
            ],
            [
              14.2875872,
              48.329799
            ],
            [
              14.2872855,
              48.3294919
            ],
            [
              14.2868644,
              48.3290678
            ],
            [
              14.286254,
              48.3285227
            ],
            [
              14.2859395,
              48.3282592
            ],
            [
              14.2853006,
              48.3277572
            ],
            [
              14.2850103,
              48.3275029
            ],
            [
              14.2848846,
              48.3273764
            ],
            [
              14.284748,
              48.3272369
            ],
            [
              14.2845747,
              48.3270452
            ],
            [
              14.2845529,
              48.3270182
            ],
            [
              14.2845023,
              48.3269445
            ],
            [
              14.2844627,
              48.3268734
            ],
            [
              14.2844176,
              48.3267771
            ],
            [
              14.2843424,
              48.3265572
            ],
            [
              14.284096,
              48.3258369
            ],
            [
              14.2840592,
              48.3257294
            ],
            [
              14.2840158,
              48.3256023
            ],
            [
              14.283803,
              48.325299
            ],
            [
              14.2837653,
              48.3252191
            ],
            [
              14.283623,
              48.324854
            ],
            [
              14.2834922,
              48.3245024
            ],
            [
              14.2834023,
              48.3242577
            ],
            [
              14.2833334,
              48.3240577
            ],
            [
              14.2832517,
              48.323771
            ],
            [
              14.2832105,
              48.3236123
            ],
            [
              14.2831936,
              48.3235567
            ],
            [
              14.28317,
              48.3234182
            ],
            [
              14.2831625,
              48.3233189
            ],
            [
              14.2831648,
              48.3232212
            ],
            [
              14.283162,
              48.3231164
            ],
            [
              14.2831377,
              48.3229321
            ],
            [
              14.2831219,
              48.3226771
            ],
            [
              14.2831232,
              48.3224941
            ],
            [
              14.2831282,
              48.3218042
            ],
            [
              14.2831292,
              48.3215945
            ],
            [
              14.2831303,
              48.3213854
            ],
            [
              14.283133,
              48.321173
            ],
            [
              14.2831355,
              48.3209645
            ],
            [
              14.283139,
              48.3206901
            ],
            [
              14.2831434,
              48.3203323
            ],
            [
              14.2831581,
              48.3196544
            ],
            [
              14.2831684,
              48.3191838
            ],
            [
              14.2831802,
              48.3186389
            ],
            [
              14.2831817,
              48.318573
            ],
            [
              14.283182,
              48.3185577
            ],
            [
              14.2831883,
              48.3183053
            ],
            [
              14.2831905,
              48.3182177
            ],
            [
              14.2831917,
              48.3181686
            ],
            [
              14.2831995,
              48.3180447
            ],
            [
              14.2832053,
              48.3178109
            ],
            [
              14.2832073,
              48.3177314
            ],
            [
              14.2832078,
              48.3177128
            ],
            [
              14.283212,
              48.3176737
            ],
            [
              14.2832144,
              48.3176514
            ],
            [
              14.2832203,
              48.3176227
            ],
            [
              14.2832346,
              48.3175898
            ],
            [
              14.2832904,
              48.3175046
            ],
            [
              14.2831921,
              48.3174329
            ],
            [
              14.2830774,
              48.3173386
            ],
            [
              14.2830214,
              48.3172926
            ],
            [
              14.2829892,
              48.3172666
            ],
            [
              14.2828159,
              48.3171263
            ],
            [
              14.2827116,
              48.3170454
            ],
            [
              14.2826221,
              48.3169761
            ],
            [
              14.2825949,
              48.316955
            ],
            [
              14.2821005,
              48.3166001
            ],
            [
              14.2820421,
              48.3165602
            ],
            [
              14.281623,
              48.3162743
            ],
            [
              14.2814438,
              48.3161551
            ],
            [
              14.2810673,
              48.3159045
            ],
            [
              14.2810145,
              48.3158694
            ],
            [
              14.280852,
              48.3157613
            ],
            [
              14.2808322,
              48.3157494
            ],
            [
              14.2804878,
              48.3155042
            ],
            [
              14.2805255,
              48.3154152
            ],
            [
              14.2805752,
              48.315287
            ],
            [
              14.2806584,
              48.3151402
            ],
            [
              14.2808343,
              48.3148296
            ],
            [
              14.280945,
              48.3146333
            ],
            [
              14.280977,
              48.3145766
            ],
            [
              14.281004,
              48.3145288
            ],
            [
              14.2815068,
              48.3136372
            ],
            [
              14.281538,
              48.3135845
            ],
            [
              14.2815586,
              48.3135484
            ],
            [
              14.281768,
              48.313182
            ],
            [
              14.2818666,
              48.3130121
            ],
            [
              14.2818995,
              48.3129554
            ],
            [
              14.2819177,
              48.3129266
            ],
            [
              14.2819453,
              48.3128838
            ],
            [
              14.2820153,
              48.3129055
            ],
            [
              14.2822223,
              48.3129682
            ],
            [
              14.282362,
              48.3130079
            ],
            [
              14.2827974,
              48.3131317
            ],
            [
              14.2828464,
              48.313056
            ],
            [
              14.2832104,
              48.3125547
            ],
            [
              14.2832218,
              48.3124934
            ],
            [
              14.2832265,
              48.3124684
            ],
            [
              14.2832464,
              48.3124149
            ],
            [
              14.283299,
              48.3123549
            ],
            [
              14.2833839,
              48.3122828
            ],
            [
              14.2834439,
              48.3122221
            ],
            [
              14.2836342,
              48.3119511
            ],
            [
              14.2836757,
              48.3118847
            ],
            [
              14.2836922,
              48.3118468
            ],
            [
              14.2837024,
              48.3118015
            ],
            [
              14.283629,
              48.3117791
            ],
            [
              14.2835677,
              48.3117578
            ],
            [
              14.2834514,
              48.3117163
            ],
            [
              14.2834053,
              48.311697
            ],
            [
              14.2832749,
              48.3116422
            ]
          ],
          [
            [
              14.2816971,
              48.3131242
            ],
            [
              14.2817463,
              48.313103
            ],
            [
              14.2818083,
              48.3129955
            ],
            [
              14.2817744,
              48.3129859
            ]
          ],
          [
            [
              14.282992,
              48.3211008
            ],
            [
              14.2830091,
              48.3211007
            ],
            [
              14.2830091,
              48.3209598
            ],
            [
              14.2829927,
              48.3209598
            ]
          ],
          [
            [
              14.2831159,
              48.3234228
            ],
            [
              14.2830697,
              48.3231554
            ],
            [
              14.2830315,
              48.3231583
            ]
          ],
          [
            [
              14.2843101,
              48.3267854
            ],
            [
              14.284322,
              48.326764
            ],
            [
              14.2842402,
              48.3265545
            ],
            [
              14.2842256,
              48.3265467
            ]
          ],
          [
            [
              14.2871913,
              48.3295346
            ],
            [
              14.287214,
              48.3295252
            ],
            [
              14.2874351,
              48.3297597
            ],
            [
              14.2874127,
              48.3297691
            ]
          ],
          [
            [
              14.2897863,
              48.3323901
            ],
            [
              14.2898088,
              48.3323801
            ],
            [
              14.2899316,
              48.3325028
            ],
            [
              14.289911,
              48.3325119
            ]
          ],
          [
            [
              14.2929406,
              48.3381367
            ],
            [
              14.2929941,
              48.3380088
            ]
          ],
          [
            [
              14.2931184,
              48.3422198
            ],
            [
              14.2929949,
              48.3420567
            ]
          ]
        ]
      },
      "id": "relation/1148636"
    }
  ]
}