{
  "type": "FeatureCollection",
  "features": [
    {
      "type": "Feature",
      "properties": {
        "@id": "relation/403813",
        "colour": "#0072BC",
        "from": "Turmstraße",
        "name": "Bus 18: Turmstraße => Stahlwerk",
        "network": "Oberösterreichischer Verkehrsverbund",
        "network:short": "OÖVV",
        "network:wikidata": "Q2011605",
        "network:wikipedia": "de:Oberösterreichischer Verkehrsverbund",
        "operator": "Linz Linien GmbH",
        "public_transport:version": "2",
        "ref": "18",
        "route": "bus",
        "to": "Stahlwerk",
        "type": "route"
      },
      "geometry": {
        "type": "MultiLineString",
        "coordinates": [
          [
            [
              14.3359772,
              48.2758857
            ],
            [
              14.3376821,
              48.2761146
            ],
            [
              14.3382197,
              48.2761899
            ],
            [
              14.3389571,
              48.2762859
            ],
            [
              14.3391629,
              48.2763136
            ],
            [
              14.3392362,
              48.2763234
            ],
            [
              14.3394236,
              48.2763464
            ],
            [
              14.3398545,
              48.2764064
            ],
            [
              14.3399114,
              48.2762048
            ],
            [
              14.3399958,
              48.2759171
            ],
            [
              14.3400377,
              48.2757998
            ],
            [
              14.3400658,
              48.2757078
            ],
            [
              14.340113,
              48.2755771
            ],
            [
              14.3401329,
              48.2755222
            ],
            [
              14.3401774,
              48.2754332
            ],
            [
              14.3402443,
              48.2753312
            ],
            [
              14.3403006,
              48.2752483
            ],
            [
              14.340347,
              48.2751495
            ],
            [
              14.3404028,
              48.2749702
            ],
            [
              14.340526,
              48.2745736
            ],
            [
              14.3405275,
              48.2745271
            ],
            [
              14.3405246,
              48.2744718
            ],
            [
              14.3405083,
              48.2744454
            ],
            [
              14.3404788,
              48.2744186
            ],
            [
              14.3404325,
              48.2744007
            ],
            [
              14.340348,
              48.2743811
            ],
            [
              14.3397645,
              48.2743019
            ],
            [
              14.3396261,
              48.2742661
            ],
            [
              14.3395679,
              48.2742409
            ],
            [
              14.3395282,
              48.274203
            ],
            [
              14.3395009,
              48.2741546
            ],
            [
              14.339498,
              48.2741022
            ],
            [
              14.3395169,
              48.2739985
            ],
            [
              14.3395541,
              48.2738821
            ],
            [
              14.3396358,
              48.2736083
            ],
            [
              14.339691,
              48.273427
            ],
            [
              14.3397337,
              48.2732871
            ],
            [
              14.339768,
              48.2731745
            ],
            [
              14.3398241,
              48.2729903
            ],
            [
              14.3398543,
              48.2728859
            ],
            [
              14.3398701,
              48.2728314
            ],
            [
              14.3398866,
              48.2727748
            ],
            [
              14.3398983,
              48.2727344
            ],
            [
              14.3399811,
              48.272449
            ],
            [
              14.3400044,
              48.2723685
            ],
            [
              14.3400158,
              48.2723291
            ],
            [
              14.3400604,
              48.2721755
            ],
            [
              14.3400874,
              48.2720763
            ],
            [
              14.3401285,
              48.2719257
            ],
            [
              14.3401648,
              48.2717927
            ],
            [
              14.3402128,
              48.2716167
            ],
            [
              14.3402355,
              48.2714799
            ],
            [
              14.3403175,
              48.2712138
            ],
            [
              14.3403617,
              48.2710701
            ],
            [
              14.3404294,
              48.2708503
            ],
            [
              14.3404673,
              48.2707273
            ],
            [
              14.3405116,
              48.2705837
            ],
            [
              14.340894,
              48.2693421
            ],
            [
              14.3410018,
              48.268992
            ],
            [
              14.3410739,
              48.2687579
            ],
            [
              14.3410873,
              48.2687145
            ],
            [
              14.341109,
              48.2686362
            ],
            [
              14.3411197,
              48.2685433
            ],
            [
              14.3411155,
              48.2684931
            ],
            [
              14.341105,
              48.2684294
            ],
            [
              14.3410851,
              48.2683723
            ],
            [
              14.3410421,
              48.2683099
            ],
            [
              14.340967,
              48.2682171
            ],
            [
              14.3409071,
              48.2681581
            ],
            [
              14.3408261,
              48.2681044
            ],
            [
              14.3407433,
              48.2680673
            ],
            [
              14.340641,
              48.2680359
            ],
            [
              14.3404992,
              48.2680045
            ],
            [
              14.3404337,
              48.2679939
            ],
            [
              14.3402273,
              48.2679723
            ],
            [
              14.340089,
              48.2679531
            ],
            [
              14.3396016,
              48.2678855
            ],
            [
              14.3394818,
              48.2678689
            ],
            [
              14.3393231,
              48.2678469
            ],
            [
              14.3392337,
              48.2678345
            ],
            [
              14.339178,
              48.2678268
            ],
            [
              14.3389297,
              48.2677923
            ],
            [
              14.3387571,
              48.2677684
            ],
            [
              14.3385536,
              48.2677402
            ],
            [
              14.3383244,
              48.2677084
            ],
            [
              14.3378089,
              48.2676369
            ],
            [
              14.3376272,
              48.2676117
            ],
            [
              14.3376004,
              48.267608
            ],
            [
              14.3370437,
              48.2675308
            ],
            [
              14.3369953,
              48.2675241
            ],
            [
              14.3365439,
              48.2674744
            ],
            [
              14.3363276,
              48.2674506
            ],
            [
              14.336124,
              48.2674282
            ],
            [
              14.3350771,
              48.26729
            ],
            [
              14.3349034,
              48.2672671
            ],
            [
              14.3346805,
              48.2672377
            ],
            [
              14.3342658,
              48.267183
            ],
            [
              14.3340765,
              48.267158
            ],
            [
              14.3339659,
              48.2671434
            ],
            [
              14.3338559,
              48.2671289
            ],
            [
              14.3336318,
              48.2671019
            ],
            [
              14.3333749,
              48.2670654
            ],
            [
              14.3332643,
              48.2670508
            ],
            [
              14.3331677,
              48.2670458
            ],
            [
              14.3330193,
              48.267038
            ],
            [
              14.3328944,
              48.2669906
            ],
            [
              14.3327495,
              48.2669658
            ],
            [
              14.3323403,
              48.2669116
            ],
            [
              14.3322722,
              48.2669024
            ],
            [
              14.3322263,
              48.2668954
            ],
            [
              14.3321412,
              48.2668832
            ],
            [
              14.3320156,
              48.2668565
            ],
            [
              14.3318813,
              48.2668076
            ]
          ],
          [
            [
              14.3390229,
              48.2674225
            ],
            [
              14.3390093,
              48.2675167
            ],
            [
              14.3389568,
              48.2676986
            ],
            [
              14.3389297,
              48.2677923
            ],
            [
              14.3389568,
              48.2676986
            ],
            [
              14.3390093,
              48.2675167
            ],
            [
              14.3390229,
              48.2674225
            ]
          ],
          [
            [
              14.3392731,
              48.2665811
            ],
            [
              14.3391306,
              48.2670627
            ],
            [
              14.3390229,
              48.2674225
            ],
            [
              14.3391306,
              48.2670627
            ],
            [
              14.3392731,
              48.2665811
            ]
          ],
          [
            [
              14.3395912,
              48.2655238
            ],
            [
              14.3392731,
              48.2665811
            ],
            [
              14.3395912,
              48.2655238
            ]
          ],
          [
            [
              14.3396198,
              48.265437
            ],
            [
              14.3395912,
              48.2655238
            ],
            [
              14.3395816,
              48.265445
            ],
            [
              14.3395695,
              48.2653986
            ],
            [
              14.339489,
              48.2653116
            ],
            [
              14.3394488,
              48.2652567
            ],
            [
              14.3394221,
              48.265193
            ],
            [
              14.3393862,
              48.2650189
            ],
            [
              14.3393836,
              48.2649886
            ],
            [
              14.3393968,
              48.2649449
            ],
            [
              14.3394208,
              48.2649082
            ],
            [
              14.3394109,
              48.2648192
            ],
            [
              14.3393769,
              48.2647881
            ],
            [
              14.3393555,
              48.2647524
            ],
            [
              14.3393481,
              48.2647143
            ],
            [
              14.339355,
              48.2646761
            ],
            [
              14.3393833,
              48.2646319
            ],
            [
              14.3394307,
              48.2645957
            ],
            [
              14.3394926,
              48.2645709
            ],
            [
              14.3395629,
              48.26456
            ],
            [
              14.3396349,
              48.2645641
            ],
            [
              14.3396846,
              48.2645764
            ],
            [
              14.3397288,
              48.264596
            ],
            [
              14.3397651,
              48.2646217
            ],
            [
              14.339791,
              48.2646511
            ],
            [
              14.3398092,
              48.2646954
            ],
            [
              14.3398071,
              48.2647413
            ],
            [
              14.3397983,
              48.2647637
            ],
            [
              14.3397846,
              48.264785
            ],
            [
              14.3397553,
              48.2648138
            ],
            [
              14.3397171,
              48.2648375
            ],
            [
              14.339691,
              48.2648486
            ],
            [
              14.3396629,
              48.2648573
            ],
            [
              14.3397013,
              48.264923
            ],
            [
              14.3396453,
              48.2649505
            ],
            [
              14.3396326,
              48.2649775
            ],
            [
              14.3396212,
              48.2650062
            ],
            [
              14.3396166,
              48.2650248
            ],
            [
              14.3396122,
              48.2650561
            ],
            [
              14.339612,
              48.2650956
            ],
            [
              14.3396061,
              48.2651782
            ],
            [
              14.3396104,
              48.265256
            ],
            [
              14.3396198,
              48.265437
            ]
          ],
          [
            [
              14.3315133,
              48.2670096
            ],
            [
              14.331468,
              48.2669782
            ],
            [
              14.3314298,
              48.2669256
            ],
            [
              14.331421,
              48.2668815
            ],
            [
              14.3314298,
              48.2668392
            ],
            [
              14.3314686,
              48.266786
            ],
            [
              14.3315314,
              48.2667465
            ],
            [
              14.3316144,
              48.2667235
            ],
            [
              14.3317094,
              48.2667228
            ],
            [
              14.3317707,
              48.2667361
            ],
            [
              14.3318318,
              48.266764
            ],
            [
              14.3318813,
              48.2668076
            ],
            [
              14.3319055,
              48.2668559
            ],
            [
              14.3319057,
              48.2669079
            ],
            [
              14.3318879,
              48.266948
            ],
            [
              14.3318606,
              48.2669792
            ],
            [
              14.3318204,
              48.2670074
            ],
            [
              14.3317766,
              48.2670267
            ],
            [
              14.3317068,
              48.2670423
            ],
            [
              14.3316413,
              48.267044
            ],
            [
              14.3315759,
              48.2670335
            ],
            [
              14.3315133,
              48.2670096
            ]
          ],
          [
            [
              14.3122147,
              48.2762391
            ],
            [
              14.3123632,
              48.2762916
            ],
            [
              14.312436,
              48.2763154
            ],
            [
              14.3124678,
              48.2763258
            ],
            [
              14.3126147,
              48.2763739
            ],
            [
              14.3127899,
              48.2764313
            ],
            [
              14.3134822,
              48.2766768
            ],
            [
              14.3135197,
              48.2766901
            ],
            [
              14.3136577,
              48.2767392
            ],
            [
              14.31373,
              48.2767649
            ],
            [
              14.3138465,
              48.2768125
            ],
            [
              14.3138664,
              48.2768206
            ],
            [
              14.3140005,
              48.2768829
            ],
            [
              14.3140477,
              48.2769078
            ],
            [
              14.3141985,
              48.2769977
            ],
            [
              14.3142531,
              48.277037
            ],
            [
              14.3143131,
              48.2770803
            ],
            [
              14.3143938,
              48.2771337
            ],
            [
              14.3144608,
              48.2771663
            ],
            [
              14.3145808,
              48.2771932
            ],
            [
              14.3147849,
              48.2772234
            ],
            [
              14.3150527,
              48.277263
            ],
            [
              14.3154864,
              48.2773271
            ],
            [
              14.3158143,
              48.2773719
            ],
            [
              14.3159178,
              48.2773803
            ],
            [
              14.316041,
              48.2773795
            ],
            [
              14.3161454,
              48.2773649
            ],
            [
              14.3162406,
              48.2773384
            ],
            [
              14.3163387,
              48.2772948
            ],
            [
              14.3164335,
              48.2772407
            ],
            [
              14.3165091,
              48.2771707
            ],
            [
              14.3165589,
              48.2771037
            ],
            [
              14.3165886,
              48.2770277
            ],
            [
              14.3166753,
              48.2767484
            ],
            [
              14.3167035,
              48.2766579
            ],
            [
              14.3169611,
              48.2758827
            ],
            [
              14.3170189,
              48.2757057
            ],
            [
              14.3170407,
              48.2756102
            ],
            [
              14.3170497,
              48.2754854
            ],
            [
              14.317037,
              48.2752814
            ],
            [
              14.3169972,
              48.2746434
            ],
            [
              14.3169945,
              48.2745701
            ],
            [
              14.317006,
              48.2745222
            ],
            [
              14.3170243,
              48.2744859
            ],
            [
              14.3170627,
              48.2744501
            ],
            [
              14.3171165,
              48.2744246
            ],
            [
              14.3171575,
              48.2744124
            ],
            [
              14.3172094,
              48.2744044
            ],
            [
              14.3172621,
              48.274401
            ],
            [
              14.317321,
              48.2744074
            ],
            [
              14.3183611,
              48.2745623
            ],
            [
              14.3184245,
              48.2745704
            ],
            [
              14.3185409,
              48.2745514
            ],
            [
              14.3185956,
              48.2745432
            ],
            [
              14.3187058,
              48.2745573
            ],
            [
              14.3189277,
              48.2745895
            ],
            [
              14.3189814,
              48.274597
            ],
            [
              14.3190254,
              48.2746126
            ],
            [
              14.3191571,
              48.2746667
            ],
            [
              14.3193188,
              48.2746837
            ],
            [
              14.319395,
              48.2746918
            ],
            [
              14.3194592,
              48.2747009
            ],
            [
              14.3200399,
              48.2747834
            ],
            [
              14.3202495,
              48.274824
            ],
            [
              14.3204303,
              48.274859
            ],
            [
              14.3205675,
              48.2748855
            ],
            [
              14.3206813,
              48.2749075
            ],
            [
              14.3208443,
              48.2749338
            ],
            [
              14.3210595,
              48.2749637
            ],
            [
              14.321754,
              48.2750628
            ],
            [
              14.3222343,
              48.2751324
            ],
            [
              14.3223338,
              48.2751473
            ],
            [
              14.3226325,
              48.2751303
            ],
            [
              14.3226791,
              48.2751201
            ],
            [
              14.3227702,
              48.2750905
            ],
            [
              14.3228614,
              48.2750272
            ],
            [
              14.3229329,
              48.2747938
            ],
            [
              14.3229862,
              48.2746196
            ],
            [
              14.3230146,
              48.2745264
            ],
            [
              14.3230384,
              48.2744538
            ],
            [
              14.3231532,
              48.2740848
            ],
            [
              14.3232,
              48.2739448
            ],
            [
              14.3232545,
              48.2738407
            ],
            [
              14.3233141,
              48.2737656
            ],
            [
              14.3234178,
              48.2737682
            ],
            [
              14.3234791,
              48.2737845
            ],
            [
              14.3235369,
              48.2738124
            ],
            [
              14.3235721,
              48.2738608
            ],
            [
              14.3236526,
              48.2738478
            ],
            [
              14.3237609,
              48.2738522
            ],
            [
              14.3239184,
              48.2738749
            ],
            [
              14.3240467,
              48.2738933
            ],
            [
              14.3245705,
              48.2739671
            ],
            [
              14.3247919,
              48.2739973
            ],
            [
              14.3249075,
              48.2740117
            ],
            [
              14.3250505,
              48.274018
            ],
            [
              14.3251767,
              48.2740126
            ],
            [
              14.3252941,
              48.2740019
            ],
            [
              14.3255102,
              48.2739746
            ],
            [
              14.325587,
              48.2739628
            ],
            [
              14.3257972,
              48.2739305
            ],
            [
              14.3259975,
              48.2738844
            ],
            [
              14.3260698,
              48.2738654
            ],
            [
              14.3261899,
              48.273834
            ],
            [
              14.3263155,
              48.2737917
            ],
            [
              14.3264545,
              48.2737374
            ],
            [
              14.3266488,
              48.2736345
            ],
            [
              14.3267175,
              48.2735967
            ],
            [
              14.3275918,
              48.273116
            ],
            [
              14.3276994,
              48.2730547
            ],
            [
              14.3278462,
              48.2729628
            ],
            [
              14.3279502,
              48.272882
            ],
            [
              14.328028,
              48.2728021
            ],
            [
              14.3281071,
              48.272707
            ],
            [
              14.3281696,
              48.2726184
            ],
            [
              14.3283237,
              48.2726602
            ],
            [
              14.328443,
              48.2726874
            ],
            [
              14.3285677,
              48.2727079
            ],
            [
              14.3287797,
              48.2727356
            ],
            [
              14.3291957,
              48.2727938
            ],
            [
              14.3292937,
              48.2728069
            ],
            [
              14.3294706,
              48.2728297
            ],
            [
              14.329587,
              48.2728449
            ],
            [
              14.3296473,
              48.2727084
            ],
            [
              14.3297023,
              48.2725709
            ],
            [
              14.3297553,
              48.2724379
            ],
            [
              14.3297962,
              48.2723428
            ],
            [
              14.329819,
              48.2722795
            ],
            [
              14.3298486,
              48.2722022
            ],
            [
              14.3299088,
              48.2719947
            ],
            [
              14.3299545,
              48.2718264
            ],
            [
              14.329984,
              48.2717274
            ],
            [
              14.3300202,
              48.2716336
            ],
            [
              14.3300812,
              48.2715131
            ],
            [
              14.3301429,
              48.2713774
            ],
            [
              14.3301892,
              48.2712324
            ],
            [
              14.3309227,
              48.2687976
            ],
            [
              14.3309348,
              48.2687316
            ],
            [
              14.3309328,
              48.2686745
            ],
            [
              14.3309113,
              48.2685941
            ],
            [
              14.3308899,
              48.2685446
            ],
            [
              14.330975,
              48.2685169
            ],
            [
              14.3310636,
              48.2684727
            ],
            [
              14.3311205,
              48.2684205
            ],
            [
              14.3311699,
              48.2683592
            ],
            [
              14.3312426,
              48.268241
            ],
            [
              14.331311,
              48.2681
            ],
            [
              14.3313714,
              48.2679303
            ],
            [
              14.3315256,
              48.2674608
            ],
            [
              14.3316056,
              48.2671924
            ],
            [
              14.3315648,
              48.2671047
            ],
            [
              14.3315133,
              48.2670096
            ]
          ],
          [
            [
              14.3362932,
              48.2760038
            ],
            [
              14.3357808,
              48.2759431
            ]
          ],
          [
            [
              14.3402988,
              48.2678983
            ],
            [
              14.3404072,
              48.2679048
            ],
            [
              14.340508,
              48.2679167
            ],
            [
              14.3406481,
              48.267948
            ]
          ],
          [
            [
              14.334226,
              48.2671146
            ],
            [
              14.33424,
              48.2671336
            ],
            [
              14.3349151,
              48.2672265
            ]
          ],
          [
            [
              14.3290184,
              48.2727146
            ],
            [
              14.3293084,
              48.2727546
            ]
          ],
          [
            [
              14.323952,
              48.273837
            ],
            [
              14.3240592,
              48.2738529
            ],
            [
              14.3248042,
              48.2739574
            ],
            [
              14.3249555,
              48.2739763
            ],
            [
              14.324959,
              48.2739678
            ]
          ],
          [
            [
              14.3204351,
              48.2747412
            ],
            [
              14.3204138,
              48.2747538
            ],
            [
              14.3201812,
              48.2747131
            ],
            [
              14.3201823,
              48.274701
            ]
          ],
          [
            [
              14.3124256,
              48.2761555
            ],
            [
              14.3121648,
              48.2760725
            ]
          ]
        ]
      },
      "id": "relation/403813"
    },
    {
      "type": "Feature",
      "properties": {
        "@id": "relation/1149400",
        "colour": "#0072BC",
        "from": "Stahlwerk",
        "name": "Bus 18: Stahlwerk => Turmstraße",
        "network": "Oberösterreichischer Verkehrsverbund",
        "network:short": "OÖVV",
        "network:wikidata": "Q2011605",
        "network:wikipedia": "de:Oberösterreichischer Verkehrsverbund",
        "operator": "Linz Linien GmbH",
        "public_transport:version": "2",
        "ref": "18",
        "route": "bus",
        "to": "Turmstraße",
        "type": "route"
      },
      "geometry": {
        "type": "MultiLineString",
        "coordinates": [
          [
            [
              14.3317766,
              48.2670267
            ],
            [
              14.3316746,
              48.2671183
            ],
            [
              14.3316056,
              48.2671924
            ],
            [
              14.3315256,
              48.2674608
            ],
            [
              14.3313714,
              48.2679303
            ],
            [
              14.331311,
              48.2681
            ],
            [
              14.3312426,
              48.268241
            ],
            [
              14.3311699,
              48.2683592
            ],
            [
              14.3311205,
              48.2684205
            ],
            [
              14.3310636,
              48.2684727
            ],
            [
              14.330975,
              48.2685169
            ],
            [
              14.3308899,
              48.2685446
            ],
            [
              14.3309113,
              48.2685941
            ],
            [
              14.3309328,
              48.2686745
            ],
            [
              14.3309348,
              48.2687316
            ],
            [
              14.3309227,
              48.2687976
            ],
            [
              14.3301892,
              48.2712324
            ],
            [
              14.3301429,
              48.2713774
            ],
            [
              14.3300812,
              48.2715131
            ],
            [
              14.3300202,
              48.2716336
            ],
            [
              14.329984,
              48.2717274
            ],
            [
              14.3299545,
              48.2718264
            ],
            [
              14.3299088,
              48.2719947
            ],
            [
              14.3298486,
              48.2722022
            ],
            [
              14.329819,
              48.2722795
            ],
            [
              14.3297962,
              48.2723428
            ],
            [
              14.3297553,
              48.2724379
            ],
            [
              14.3297023,
              48.2725709
            ],
            [
              14.3296473,
              48.2727084
            ],
            [
              14.329587,
              48.2728449
            ],
            [
              14.3294706,
              48.2728297
            ],
            [
              14.3292937,
              48.2728069
            ],
            [
              14.3291957,
              48.2727938
            ],
            [
              14.3287797,
              48.2727356
            ],
            [
              14.3285677,
              48.2727079
            ],
            [
              14.328443,
              48.2726874
            ],
            [
              14.3283237,
              48.2726602
            ],
            [
              14.3281696,
              48.2726184
            ],
            [
              14.3281071,
              48.272707
            ],
            [
              14.328028,
              48.2728021
            ],
            [
              14.3279502,
              48.272882
            ],
            [
              14.3278462,
              48.2729628
            ],
            [
              14.3276994,
              48.2730547
            ],
            [
              14.3275918,
              48.273116
            ],
            [
              14.3267175,
              48.2735967
            ],
            [
              14.3266488,
              48.2736345
            ],
            [
              14.3264545,
              48.2737374
            ],
            [
              14.3263155,
              48.2737917
            ],
            [
              14.3261899,
              48.273834
            ],
            [
              14.3260698,
              48.2738654
            ],
            [
              14.3259975,
              48.2738844
            ],
            [
              14.3257972,
              48.2739305
            ],
            [
              14.325587,
              48.2739628
            ],
            [
              14.3255102,
              48.2739746
            ],
            [
              14.3252941,
              48.2740019
            ],
            [
              14.3251767,
              48.2740126
            ],
            [
              14.3250505,
              48.274018
            ],
            [
              14.3249075,
              48.2740117
            ],
            [
              14.3247919,
              48.2739973
            ],
            [
              14.3245705,
              48.2739671
            ],
            [
              14.3240467,
              48.2738933
            ],
            [
              14.3239184,
              48.2738749
            ],
            [
              14.3237609,
              48.2738522
            ],
            [
              14.3236526,
              48.2738478
            ],
            [
              14.3235721,
              48.2738608
            ],
            [
              14.3235369,
              48.2738124
            ],
            [
              14.3234791,
              48.2737845
            ],
            [
              14.3234178,
              48.2737682
            ],
            [
              14.3233141,
              48.2737656
            ],
            [
              14.3232545,
              48.2738407
            ],
            [
              14.3232,
              48.2739448
            ],
            [
              14.3231532,
              48.2740848
            ],
            [
              14.3230384,
              48.2744538
            ],
            [
              14.3230146,
              48.2745264
            ],
            [
              14.3229862,
              48.2746196
            ],
            [
              14.3229329,
              48.2747938
            ],
            [
              14.3228614,
              48.2750272
            ],
            [
              14.3228314,
              48.275125
            ],
            [
              14.3228123,
              48.2751876
            ],
            [
              14.3228039,
              48.275215
            ],
            [
              14.3226556,
              48.275193
            ],
            [
              14.3223338,
              48.2751473
            ],
            [
              14.3222343,
              48.2751324
            ],
            [
              14.321754,
              48.2750628
            ],
            [
              14.3210595,
              48.2749637
            ],
            [
              14.3208443,
              48.2749338
            ],
            [
              14.3206813,
              48.2749075
            ],
            [
              14.3205675,
              48.2748855
            ],
            [
              14.3204303,
              48.274859
            ],
            [
              14.3202495,
              48.274824
            ],
            [
              14.3200399,
              48.2747834
            ],
            [
              14.3194592,
              48.2747009
            ],
            [
              14.319395,
              48.2746918
            ],
            [
              14.3193188,
              48.2746837
            ],
            [
              14.3191571,
              48.2746667
            ],
            [
              14.3189511,
              48.2746908
            ],
            [
              14.3189132,
              48.2746857
            ],
            [
              14.3186732,
              48.2746512
            ],
            [
              14.3185579,
              48.2746352
            ],
            [
              14.3185197,
              48.2746183
            ],
            [
              14.3184245,
              48.2745704
            ],
            [
              14.3183611,
              48.2745623
            ],
            [
              14.317321,
              48.2744074
            ],
            [
              14.3172621,
              48.274401
            ],
            [
              14.3172094,
              48.2744044
            ],
            [
              14.3171575,
              48.2744124
            ],
            [
              14.3171165,
              48.2744246
            ],
            [
              14.3170627,
              48.2744501
            ],
            [
              14.3170243,
              48.2744859
            ],
            [
              14.317006,
              48.2745222
            ],
            [
              14.3169945,
              48.2745701
            ],
            [
              14.3169972,
              48.2746434
            ],
            [
              14.317037,
              48.2752814
            ],
            [
              14.3170497,
              48.2754854
            ],
            [
              14.3170407,
              48.2756102
            ],
            [
              14.3170189,
              48.2757057
            ],
            [
              14.3169611,
              48.2758827
            ],
            [
              14.3167035,
              48.2766579
            ],
            [
              14.3166753,
              48.2767484
            ],
            [
              14.3165886,
              48.2770277
            ],
            [
              14.3165589,
              48.2771037
            ],
            [
              14.3165091,
              48.2771707
            ],
            [
              14.3164335,
              48.2772407
            ],
            [
              14.3163387,
              48.2772948
            ],
            [
              14.3162406,
              48.2773384
            ],
            [
              14.3161454,
              48.2773649
            ],
            [
              14.316041,
              48.2773795
            ],
            [
              14.3159178,
              48.2773803
            ],
            [
              14.3158143,
              48.2773719
            ],
            [
              14.3154864,
              48.2773271
            ],
            [
              14.3150527,
              48.277263
            ],
            [
              14.3147849,
              48.2772234
            ],
            [
              14.3145808,
              48.2771932
            ],
            [
              14.3144608,
              48.2771663
            ],
            [
              14.3143938,
              48.2771337
            ],
            [
              14.3143131,
              48.2770803
            ],
            [
              14.3142531,
              48.277037
            ],
            [
              14.3141985,
              48.2769977
            ],
            [
              14.3140477,
              48.2769078
            ],
            [
              14.3140005,
              48.2768829
            ],
            [
              14.3138664,
              48.2768206
            ],
            [
              14.3138465,
              48.2768125
            ],
            [
              14.31373,
              48.2767649
            ],
            [
              14.3136577,
              48.2767392
            ],
            [
              14.3135197,
              48.2766901
            ],
            [
              14.3134822,
              48.2766768
            ],
            [
              14.3127899,
              48.2764313
            ],
            [
              14.3126147,
              48.2763739
            ],
            [
              14.3124901,
              48.2765077
            ],
            [
              14.3123595,
              48.2766602
            ]
          ],
          [
            [
              14.3315133,
              48.2670096
            ],
            [
              14.331468,
              48.2669782
            ],
            [
              14.3314298,
              48.2669256
            ],
            [
              14.331421,
              48.2668815
            ],
            [
              14.3314298,
              48.2668392
            ],
            [
              14.3314686,
              48.266786
            ],
            [
              14.3315314,
              48.2667465
            ],
            [
              14.3316144,
              48.2667235
            ],
            [
              14.3317094,
              48.2667228
            ],
            [
              14.3317707,
              48.2667361
            ],
            [
              14.3318318,
              48.266764
            ],
            [
              14.3318813,
              48.2668076
            ],
            [
              14.3319055,
              48.2668559
            ],
            [
              14.3319057,
              48.2669079
            ],
            [
              14.3318879,
              48.266948
            ],
            [
              14.3318606,
              48.2669792
            ],
            [
              14.3318204,
              48.2670074
            ],
            [
              14.3317766,
              48.2670267
            ],
            [
              14.3317068,
              48.2670423
            ],
            [
              14.3316413,
              48.267044
            ],
            [
              14.3315759,
              48.2670335
            ],
            [
              14.3315133,
              48.2670096
            ]
          ],
          [
            [
              14.3359772,
              48.2758857
            ],
            [
              14.3376821,
              48.2761146
            ],
            [
              14.3382197,
              48.2761899
            ],
            [
              14.3389571,
              48.2762859
            ],
            [
              14.3391629,
              48.2763136
            ],
            [
              14.3392362,
              48.2763234
            ],
            [
              14.3394236,
              48.2763464
            ],
            [
              14.3398545,
              48.2764064
            ],
            [
              14.3399114,
              48.2762048
            ],
            [
              14.3399958,
              48.2759171
            ],
            [
              14.3400377,
              48.2757998
            ],
            [
              14.3400658,
              48.2757078
            ],
            [
              14.340113,
              48.2755771
            ],
            [
              14.3401329,
              48.2755222
            ],
            [
              14.3401774,
              48.2754332
            ],
            [
              14.3402443,
              48.2753312
            ],
            [
              14.3403006,
              48.2752483
            ],
            [
              14.340347,
              48.2751495
            ],
            [
              14.3404028,
              48.2749702
            ],
            [
              14.340526,
              48.2745736
            ],
            [
              14.3405275,
              48.2745271
            ],
            [
              14.3405246,
              48.2744718
            ],
            [
              14.3405083,
              48.2744454
            ],
            [
              14.3404788,
              48.2744186
            ],
            [
              14.3404325,
              48.2744007
            ],
            [
              14.340348,
              48.2743811
            ],
            [
              14.3397645,
              48.2743019
            ],
            [
              14.3396261,
              48.2742661
            ],
            [
              14.3395679,
              48.2742409
            ],
            [
              14.3395282,
              48.274203
            ],
            [
              14.3395009,
              48.2741546
            ],
            [
              14.339498,
              48.2741022
            ],
            [
              14.3395169,
              48.2739985
            ],
            [
              14.3395541,
              48.2738821
            ],
            [
              14.3396358,
              48.2736083
            ],
            [
              14.339691,
              48.273427
            ],
            [
              14.3397337,
              48.2732871
            ],
            [
              14.339768,
              48.2731745
            ],
            [
              14.3398241,
              48.2729903
            ],
            [
              14.3398543,
              48.2728859
            ],
            [
              14.3398701,
              48.2728314
            ],
            [
              14.3398866,
              48.2727748
            ],
            [
              14.3398983,
              48.2727344
            ],
            [
              14.3399811,
              48.272449
            ],
            [
              14.3400044,
              48.2723685
            ],
            [
              14.3400158,
              48.2723291
            ],
            [
              14.3400604,
              48.2721755
            ],
            [
              14.3400874,
              48.2720763
            ],
            [
              14.3401285,
              48.2719257
            ],
            [
              14.3401648,
              48.2717927
            ],
            [
              14.3402128,
              48.2716167
            ],
            [
              14.3402355,
              48.2714799
            ],
            [
              14.3403175,
              48.2712138
            ],
            [
              14.3403617,
              48.2710701
            ],
            [
              14.3404294,
              48.2708503
            ],
            [
              14.3404673,
              48.2707273
            ],
            [
              14.3405116,
              48.2705837
            ],
            [
              14.340894,
              48.2693421
            ],
            [
              14.3410018,
              48.268992
            ],
            [
              14.3410739,
              48.2687579
            ],
            [
              14.3410873,
              48.2687145
            ],
            [
              14.341109,
              48.2686362
            ],
            [
              14.3411197,
              48.2685433
            ],
            [
              14.3411155,
              48.2684931
            ],
            [
              14.341105,
              48.2684294
            ],
            [
              14.3410851,
              48.2683723
            ],
            [
              14.3410421,
              48.2683099
            ],
            [
              14.340967,
              48.2682171
            ],
            [
              14.3409071,
              48.2681581
            ],
            [
              14.3408261,
              48.2681044
            ],
            [
              14.3407433,
              48.2680673
            ],
            [
              14.340641,
              48.2680359
            ],
            [
              14.3404992,
              48.2680045
            ],
            [
              14.3404337,
              48.2679939
            ],
            [
              14.3402273,
              48.2679723
            ],
            [
              14.340089,
              48.2679531
            ],
            [
              14.3396016,
              48.2678855
            ],
            [
              14.3394818,
              48.2678689
            ],
            [
              14.3393231,
              48.2678469
            ],
            [
              14.3392337,
              48.2678345
            ],
            [
              14.339178,
              48.2678268
            ],
            [
              14.3389297,
              48.2677923
            ],
            [
              14.3387571,
              48.2677684
            ],
            [
              14.3385536,
              48.2677402
            ],
            [
              14.3383244,
              48.2677084
            ],
            [
              14.3378089,
              48.2676369
            ],
            [
              14.3376272,
              48.2676117
            ],
            [
              14.3376004,
              48.267608
            ],
            [
              14.3370437,
              48.2675308
            ],
            [
              14.3369953,
              48.2675241
            ],
            [
              14.3365439,
              48.2674744
            ],
            [
              14.3363276,
              48.2674506
            ],
            [
              14.336124,
              48.2674282
            ],
            [
              14.3350771,
              48.26729
            ],
            [
              14.3349034,
              48.2672671
            ],
            [
              14.3346805,
              48.2672377
            ],
            [
              14.3342658,
              48.267183
            ],
            [
              14.3340765,
              48.267158
            ],
            [
              14.3339659,
              48.2671434
            ],
            [
              14.3338559,
              48.2671289
            ],
            [
              14.3336318,
              48.2671019
            ],
            [
              14.3333749,
              48.2670654
            ],
            [
              14.3332643,
              48.2670508
            ],
            [
              14.3331677,
              48.2670458
            ],
            [
              14.3330193,
              48.267038
            ],
            [
              14.332758,
              48.2670301
            ],
            [
              14.3326116,
              48.2670168
            ],
            [
              14.3324117,
              48.2669917
            ],
            [
              14.3322056,
              48.2669641
            ],
            [
              14.3320932,
              48.2669521
            ],
            [
              14.3319892,
              48.2669559
            ],
            [
              14.3318606,
              48.2669792
            ]
          ],
          [
            [
              14.3390229,
              48.2674225
            ],
            [
              14.3390093,
              48.2675167
            ],
            [
              14.3389568,
              48.2676986
            ],
            [
              14.3389297,
              48.2677923
            ],
            [
              14.3389568,
              48.2676986
            ],
            [
              14.3390093,
              48.2675167
            ],
            [
              14.3390229,
              48.2674225
            ]
          ],
          [
            [
              14.3392731,
              48.2665811
            ],
            [
              14.3391306,
              48.2670627
            ],
            [
              14.3390229,
              48.2674225
            ],
            [
              14.3391306,
              48.2670627
            ],
            [
              14.3392731,
              48.2665811
            ]
          ],
          [
            [
              14.3395912,
              48.2655238
            ],
            [
              14.3392731,
              48.2665811
            ],
            [
              14.3395912,
              48.2655238
            ]
          ],
          [
            [
              14.3396198,
              48.265437
            ],
            [
              14.3395912,
              48.2655238
            ],
            [
              14.3395816,
              48.265445
            ],
            [
              14.3395695,
              48.2653986
            ],
            [
              14.339489,
              48.2653116
            ],
            [
              14.3394488,
              48.2652567
            ],
            [
              14.3394221,
              48.265193
            ],
            [
              14.3393862,
              48.2650189
            ],
            [
              14.3393836,
              48.2649886
            ],
            [
              14.3393968,
              48.2649449
            ],
            [
              14.3394208,
              48.2649082
            ],
            [
              14.3394109,
              48.2648192
            ],
            [
              14.3393769,
              48.2647881
            ],
            [
              14.3393555,
              48.2647524
            ],
            [
              14.3393481,
              48.2647143
            ],
            [
              14.339355,
              48.2646761
            ],
            [
              14.3393833,
              48.2646319
            ],
            [
              14.3394307,
              48.2645957
            ],
            [
              14.3394926,
              48.2645709
            ],
            [
              14.3395629,
              48.26456
            ],
            [
              14.3396349,
              48.2645641
            ],
            [
              14.3396846,
              48.2645764
            ],
            [
              14.3397288,
              48.264596
            ],
            [
              14.3397651,
              48.2646217
            ],
            [
              14.339791,
              48.2646511
            ],
            [
              14.3398092,
              48.2646954
            ],
            [
              14.3398071,
              48.2647413
            ],
            [
              14.3397983,
              48.2647637
            ],
            [
              14.3397846,
              48.264785
            ],
            [
              14.3397553,
              48.2648138
            ],
            [
              14.3397171,
              48.2648375
            ],
            [
              14.339691,
              48.2648486
            ],
            [
              14.3396629,
              48.2648573
            ],
            [
              14.3397013,
              48.264923
            ],
            [
              14.3396453,
              48.2649505
            ],
            [
              14.3396326,
              48.2649775
            ],
            [
              14.3396212,
              48.2650062
            ],
            [
              14.3396166,
              48.2650248
            ],
            [
              14.3396122,
              48.2650561
            ],
            [
              14.339612,
              48.2650956
            ],
            [
              14.3396061,
              48.2651782
            ],
            [
              14.3396104,
              48.265256
            ],
            [
              14.3396198,
              48.265437
            ]
          ],
          [
            [
              14.3201567,
              48.2749091
            ],
            [
              14.3201731,
              48.2749015
            ],
            [
              14.3202918,
              48.2749358
            ],
            [
              14.3204782,
              48.2749747
            ],
            [
              14.3205976,
              48.2749876
            ],
            [
              14.3205974,
              48.2749973
            ]
          ],
          [
            [
              14.3239226,
              48.2739615
            ],
            [
              14.3239262,
              48.2739513
            ],
            [
              14.3240243,
              48.2739662
            ],
            [
              14.3247675,
              48.274069
            ],
            [
              14.3248636,
              48.2740803
            ],
            [
              14.3248594,
              48.2740887
            ]
          ],
          [
            [
              14.3292544,
              48.2728534
            ],
            [
              14.3292571,
              48.272844
            ],
            [
              14.3290928,
              48.2728244
            ],
            [
              14.3290834,
              48.2728298
            ]
          ],
          [
            [
              14.3332369,
              48.2671173
            ],
            [
              14.3332388,
              48.2671091
            ],
            [
              14.3337619,
              48.2671836
            ],
            [
              14.3337586,
              48.2671903
            ]
          ],
          [
            [
              14.33922,
              48.2679154
            ],
            [
              14.3393969,
              48.2679397
            ]
          ],
          [
            [
              14.3362932,
              48.2760038
            ],
            [
              14.3357808,
              48.2759431
            ]
          ]
        ]
      },
      "id": "relation/1149400"
    }
  ]
}