{
  "type": "FeatureCollection",
  "features": [
    {
      "type": "Feature",
      "properties": {
        "@id": "relation/3300284",
        "alternate": "no",
        "colour": "#51bc4a",
        "name": "Bus 106: Florianer Straße => Wambacherberg",
        "network": "Oberösterreichischer Verkehrsverbund",
        "network:short": "OÖVV",
        "network:wikidata": "Q2011605",
        "network:wikipedia": "de:Oberösterreichischer Verkehrsverbund",
        "operator": "Linz Linien GmbH",
        "public_transport:version": "2",
        "ref": "106",
        "route": "bus",
        "type": "route"
      },
      "geometry": {
        "type": "MultiLineString",
        "coordinates": [
          [
            [
              14.3287954,
              48.211646
            ],
            [
              14.3288029,
              48.2116941
            ],
            [
              14.3288271,
              48.2117575
            ],
            [
              14.3285628,
              48.2118012
            ],
            [
              14.3284077,
              48.2118424
            ],
            [
              14.3281187,
              48.2119304
            ],
            [
              14.3278482,
              48.2120146
            ],
            [
              14.3276009,
              48.2120747
            ],
            [
              14.3273874,
              48.2121219
            ],
            [
              14.3271914,
              48.2121561
            ],
            [
              14.3269891,
              48.2121918
            ],
            [
              14.3268141,
              48.2122062
            ],
            [
              14.326622,
              48.212206
            ],
            [
              14.3263839,
              48.2122002
            ],
            [
              14.3261263,
              48.212211
            ],
            [
              14.3259234,
              48.2122312
            ],
            [
              14.3258167,
              48.2122439
            ],
            [
              14.3256144,
              48.2122733
            ],
            [
              14.3254058,
              48.2123125
            ],
            [
              14.325252,
              48.2123569
            ],
            [
              14.3250773,
              48.2124263
            ],
            [
              14.3248964,
              48.2125205
            ],
            [
              14.3247141,
              48.2126145
            ],
            [
              14.3245555,
              48.2126844
            ],
            [
              14.3243825,
              48.212749
            ],
            [
              14.3242271,
              48.2127951
            ],
            [
              14.3239999,
              48.2128566
            ],
            [
              14.3237117,
              48.2129316
            ],
            [
              14.3232931,
              48.2130488
            ],
            [
              14.3230847,
              48.2131186
            ],
            [
              14.3217709,
              48.2136266
            ],
            [
              14.3216433,
              48.2136976
            ],
            [
              14.3215359,
              48.2137758
            ],
            [
              14.3214722,
              48.2138498
            ],
            [
              14.3214248,
              48.2139363
            ],
            [
              14.3213995,
              48.2140078
            ],
            [
              14.3213836,
              48.2141028
            ],
            [
              14.3213811,
              48.2141876
            ],
            [
              14.321391,
              48.2143049
            ],
            [
              14.3214198,
              48.2144215
            ],
            [
              14.321512,
              48.2147021
            ],
            [
              14.3215383,
              48.2147863
            ],
            [
              14.3215474,
              48.2148671
            ],
            [
              14.321539,
              48.2149858
            ],
            [
              14.3215364,
              48.2150223
            ],
            [
              14.3215315,
              48.215092
            ],
            [
              14.321529,
              48.2151276
            ],
            [
              14.3215217,
              48.2152652
            ],
            [
              14.3215234,
              48.2154346
            ],
            [
              14.3215417,
              48.2156151
            ],
            [
              14.3215469,
              48.2156666
            ],
            [
              14.3215835,
              48.2158139
            ],
            [
              14.3216248,
              48.2159382
            ],
            [
              14.3216705,
              48.2160755
            ],
            [
              14.3215866,
              48.2161238
            ],
            [
              14.3214557,
              48.2161848
            ],
            [
              14.3214124,
              48.216205
            ],
            [
              14.3213069,
              48.216249
            ],
            [
              14.3212526,
              48.2162717
            ],
            [
              14.320979,
              48.2163646
            ],
            [
              14.320659,
              48.2164673
            ],
            [
              14.3205566,
              48.2164938
            ],
            [
              14.3204574,
              48.2165195
            ],
            [
              14.3200025,
              48.2165925
            ],
            [
              14.3200264,
              48.2166538
            ],
            [
              14.3200396,
              48.2167154
            ],
            [
              14.320087,
              48.2167947
            ],
            [
              14.3201638,
              48.2168886
            ],
            [
              14.3202581,
              48.2169783
            ],
            [
              14.3203131,
              48.2170137
            ],
            [
              14.3203537,
              48.217033
            ],
            [
              14.320427,
              48.2170591
            ],
            [
              14.320481,
              48.2170772
            ],
            [
              14.3205472,
              48.2170993
            ],
            [
              14.3206299,
              48.2171488
            ],
            [
              14.320703,
              48.2172102
            ],
            [
              14.3208361,
              48.2173493
            ],
            [
              14.3209668,
              48.2174866
            ],
            [
              14.3210139,
              48.2175344
            ],
            [
              14.3211423,
              48.2176645
            ],
            [
              14.3216828,
              48.2181867
            ],
            [
              14.3220454,
              48.218529
            ],
            [
              14.3222068,
              48.2186635
            ],
            [
              14.3223271,
              48.2187882
            ],
            [
              14.3223651,
              48.2188568
            ],
            [
              14.3224116,
              48.2189427
            ],
            [
              14.3224338,
              48.2189838
            ],
            [
              14.3226934,
              48.2194242
            ],
            [
              14.3227264,
              48.2194758
            ],
            [
              14.3230583,
              48.2200376
            ],
            [
              14.3231675,
              48.2202573
            ],
            [
              14.3232417,
              48.2204315
            ],
            [
              14.3232695,
              48.2205226
            ],
            [
              14.3232894,
              48.220628
            ],
            [
              14.3232917,
              48.2206758
            ],
            [
              14.3232952,
              48.2207474
            ],
            [
              14.3233171,
              48.2209143
            ],
            [
              14.3233227,
              48.220957
            ],
            [
              14.3233292,
              48.2210065
            ],
            [
              14.3233584,
              48.221177
            ],
            [
              14.3234017,
              48.2213442
            ],
            [
              14.323454,
              48.2214951
            ],
            [
              14.3235234,
              48.2216544
            ],
            [
              14.3236103,
              48.221825
            ],
            [
              14.3236243,
              48.2218522
            ],
            [
              14.3237082,
              48.2220152
            ],
            [
              14.3237222,
              48.2220373
            ],
            [
              14.3237955,
              48.2221531
            ],
            [
              14.3240369,
              48.2224223
            ],
            [
              14.3241151,
              48.2225505
            ],
            [
              14.3241796,
              48.2226981
            ],
            [
              14.3242149,
              48.2228422
            ],
            [
              14.3242355,
              48.2230039
            ],
            [
              14.3242557,
              48.2232303
            ],
            [
              14.3242854,
              48.2234949
            ],
            [
              14.3243187,
              48.2236356
            ],
            [
              14.324374,
              48.2238037
            ],
            [
              14.3244354,
              48.2239452
            ],
            [
              14.3245401,
              48.2241038
            ],
            [
              14.3246684,
              48.2242665
            ],
            [
              14.3248002,
              48.2244091
            ],
            [
              14.3250214,
              48.2246344
            ],
            [
              14.3251078,
              48.2247168
            ],
            [
              14.3251633,
              48.2247711
            ],
            [
              14.3252158,
              48.2248387
            ],
            [
              14.3253046,
              48.2249527
            ],
            [
              14.3253804,
              48.2250828
            ],
            [
              14.3256529,
              48.225662
            ],
            [
              14.3257067,
              48.225771
            ],
            [
              14.3257431,
              48.2258483
            ],
            [
              14.3257802,
              48.2259191
            ],
            [
              14.3258132,
              48.2259828
            ],
            [
              14.3258863,
              48.2261513
            ],
            [
              14.3259199,
              48.2262868
            ],
            [
              14.3259443,
              48.2264629
            ],
            [
              14.3259688,
              48.2266728
            ],
            [
              14.3260134,
              48.2268719
            ],
            [
              14.326085,
              48.2270989
            ],
            [
              14.3261593,
              48.2273406
            ],
            [
              14.3262033,
              48.2275231
            ],
            [
              14.3262446,
              48.2277871
            ],
            [
              14.326309,
              48.2281875
            ],
            [
              14.3263866,
              48.2285626
            ],
            [
              14.3264172,
              48.228652
            ],
            [
              14.3264559,
              48.228732
            ],
            [
              14.3264989,
              48.228809
            ],
            [
              14.3265561,
              48.2288748
            ],
            [
              14.3266277,
              48.2289399
            ],
            [
              14.3267244,
              48.2290179
            ],
            [
              14.3268638,
              48.2291114
            ],
            [
              14.3272105,
              48.2293193
            ],
            [
              14.3274045,
              48.2294402
            ],
            [
              14.3275045,
              48.2295272
            ],
            [
              14.327586,
              48.229618
            ],
            [
              14.3276481,
              48.2297164
            ],
            [
              14.3276934,
              48.229816
            ],
            [
              14.3277214,
              48.2299114
            ],
            [
              14.3278168,
              48.2305221
            ],
            [
              14.3278647,
              48.2307567
            ],
            [
              14.3279318,
              48.2309725
            ],
            [
              14.3279438,
              48.2310057
            ],
            [
              14.3279856,
              48.2311259
            ],
            [
              14.3280606,
              48.2312838
            ],
            [
              14.3281156,
              48.2313746
            ],
            [
              14.328201,
              48.2314928
            ],
            [
              14.3283552,
              48.2316616
            ],
            [
              14.3285626,
              48.2318898
            ],
            [
              14.3287485,
              48.2320815
            ],
            [
              14.3288043,
              48.232136
            ],
            [
              14.328816,
              48.2321475
            ],
            [
              14.3288982,
              48.232228
            ],
            [
              14.329025,
              48.232345
            ],
            [
              14.3292198,
              48.232497
            ],
            [
              14.3293577,
              48.2325785
            ],
            [
              14.3294116,
              48.2326104
            ],
            [
              14.3295076,
              48.2326547
            ],
            [
              14.329677,
              48.2327422
            ],
            [
              14.3298691,
              48.2328611
            ],
            [
              14.3299872,
              48.2329568
            ],
            [
              14.3300593,
              48.2330331
            ],
            [
              14.3300879,
              48.2330954
            ],
            [
              14.3300847,
              48.233163
            ],
            [
              14.3300557,
              48.2332272
            ],
            [
              14.3299971,
              48.2333076
            ],
            [
              14.329923,
              48.2334205
            ],
            [
              14.3298765,
              48.2335177
            ],
            [
              14.3298534,
              48.2336079
            ],
            [
              14.3298345,
              48.2337165
            ],
            [
              14.3298336,
              48.2339016
            ],
            [
              14.3298718,
              48.2343878
            ],
            [
              14.3299141,
              48.2347323
            ],
            [
              14.3299172,
              48.2348135
            ],
            [
              14.3299192,
              48.234867
            ],
            [
              14.3299142,
              48.2349818
            ],
            [
              14.3299037,
              48.2350564
            ],
            [
              14.3298538,
              48.2353203
            ],
            [
              14.3298034,
              48.2355871
            ],
            [
              14.3297868,
              48.2357635
            ],
            [
              14.3297804,
              48.2358322
            ],
            [
              14.3297649,
              48.2359015
            ],
            [
              14.3297108,
              48.2361448
            ],
            [
              14.3296618,
              48.2363652
            ],
            [
              14.3295772,
              48.2367486
            ],
            [
              14.3295616,
              48.23684
            ],
            [
              14.329532,
              48.2369752
            ],
            [
              14.3295268,
              48.2369988
            ],
            [
              14.3295057,
              48.2370951
            ],
            [
              14.3294578,
              48.2372322
            ],
            [
              14.3295324,
              48.2372427
            ],
            [
              14.3297593,
              48.2372776
            ],
            [
              14.3299019,
              48.2373128
            ],
            [
              14.3300126,
              48.2373558
            ],
            [
              14.3301347,
              48.2374334
            ],
            [
              14.3301576,
              48.2374568
            ],
            [
              14.3302226,
              48.2375234
            ],
            [
              14.3304212,
              48.2377341
            ],
            [
              14.3305697,
              48.2378916
            ],
            [
              14.3306787,
              48.2379967
            ],
            [
              14.330759,
              48.2380607
            ],
            [
              14.3307757,
              48.238074
            ],
            [
              14.3308984,
              48.2381689
            ],
            [
              14.3309253,
              48.2381873
            ],
            [
              14.3309653,
              48.2382146
            ],
            [
              14.3310604,
              48.2382797
            ],
            [
              14.3310946,
              48.2383017
            ],
            [
              14.3313989,
              48.238498
            ],
            [
              14.3315889,
              48.2386358
            ],
            [
              14.3316754,
              48.2386986
            ],
            [
              14.3318733,
              48.2388423
            ],
            [
              14.3319139,
              48.2388733
            ],
            [
              14.3320532,
              48.2389796
            ],
            [
              14.3321937,
              48.2391125
            ],
            [
              14.3322424,
              48.2391759
            ],
            [
              14.3322633,
              48.2392202
            ],
            [
              14.3322724,
              48.2392699
            ],
            [
              14.3322693,
              48.2393149
            ],
            [
              14.332261,
              48.2394513
            ],
            [
              14.3322442,
              48.2397297
            ],
            [
              14.3322261,
              48.2400284
            ],
            [
              14.3322041,
              48.2403923
            ],
            [
              14.3322004,
              48.2404532
            ],
            [
              14.3332135,
              48.240483
            ],
            [
              14.3333165,
              48.2404893
            ],
            [
              14.3334274,
              48.2404963
            ],
            [
              14.3335235,
              48.2405038
            ],
            [
              14.3336268,
              48.2405204
            ],
            [
              14.3337013,
              48.2405401
            ],
            [
              14.3337525,
              48.240561
            ],
            [
              14.333776,
              48.2405775
            ],
            [
              14.3337926,
              48.2405899
            ],
            [
              14.3338272,
              48.2406137
            ],
            [
              14.3339001,
              48.2406487
            ],
            [
              14.3339852,
              48.2406735
            ],
            [
              14.3340812,
              48.2406911
            ],
            [
              14.334143,
              48.2407003
            ],
            [
              14.3342651,
              48.2407191
            ],
            [
              14.3343952,
              48.2407406
            ],
            [
              14.3345239,
              48.2407675
            ],
            [
              14.3345584,
              48.2407762
            ],
            [
              14.3346275,
              48.2407962
            ],
            [
              14.334771,
              48.2408378
            ],
            [
              14.3349102,
              48.2408798
            ],
            [
              14.3349655,
              48.2408965
            ],
            [
              14.3352835,
              48.2410068
            ],
            [
              14.3353438,
              48.2410239
            ],
            [
              14.3354125,
              48.2410399
            ],
            [
              14.3354776,
              48.2410547
            ],
            [
              14.3355108,
              48.2410641
            ],
            [
              14.3355428,
              48.2410733
            ],
            [
              14.3357516,
              48.2411614
            ],
            [
              14.3359412,
              48.2412518
            ],
            [
              14.3361156,
              48.2413432
            ],
            [
              14.3362413,
              48.2414158
            ],
            [
              14.336363,
              48.2414964
            ],
            [
              14.3364279,
              48.2415384
            ],
            [
              14.3364778,
              48.2415708
            ],
            [
              14.3365864,
              48.2416411
            ],
            [
              14.3366923,
              48.2417258
            ],
            [
              14.3367652,
              48.241787
            ],
            [
              14.3368422,
              48.2418617
            ],
            [
              14.3369229,
              48.2419479
            ],
            [
              14.336997,
              48.2420393
            ],
            [
              14.3370509,
              48.242112
            ],
            [
              14.3371537,
              48.2422543
            ],
            [
              14.3372579,
              48.2424075
            ],
            [
              14.3373964,
              48.2426281
            ],
            [
              14.3372662,
              48.2426597
            ],
            [
              14.3372045,
              48.2426795
            ],
            [
              14.3371445,
              48.2427022
            ],
            [
              14.3370561,
              48.2427376
            ],
            [
              14.3368994,
              48.2428095
            ],
            [
              14.3367453,
              48.2428897
            ],
            [
              14.3366115,
              48.2429708
            ],
            [
              14.3365923,
              48.2429843
            ],
            [
              14.3364686,
              48.2430712
            ],
            [
              14.3363438,
              48.2431816
            ],
            [
              14.3362369,
              48.2432864
            ],
            [
              14.3362291,
              48.2433243
            ],
            [
              14.3362154,
              48.243391
            ],
            [
              14.3362842,
              48.2433965
            ],
            [
              14.3364006,
              48.2434058
            ],
            [
              14.3366667,
              48.2434271
            ],
            [
              14.3367273,
              48.2434319
            ],
            [
              14.3370824,
              48.243454
            ],
            [
              14.3371552,
              48.2434585
            ],
            [
              14.3371746,
              48.2434597
            ],
            [
              14.3374655,
              48.2434778
            ],
            [
              14.3375999,
              48.2434861
            ],
            [
              14.3376308,
              48.243488
            ],
            [
              14.3376957,
              48.2434919
            ],
            [
              14.3377758,
              48.2434968
            ],
            [
              14.337829,
              48.243506
            ],
            [
              14.3378564,
              48.2435193
            ],
            [
              14.3378731,
              48.2435337
            ],
            [
              14.3378832,
              48.2435526
            ],
            [
              14.3380227,
              48.2438745
            ],
            [
              14.3381001,
              48.244003
            ],
            [
              14.3381572,
              48.244074
            ],
            [
              14.3382452,
              48.2441582
            ],
            [
              14.3383715,
              48.2442729
            ],
            [
              14.338479,
              48.2443557
            ],
            [
              14.3386766,
              48.2444659
            ],
            [
              14.3387027,
              48.2444802
            ],
            [
              14.338807,
              48.2445372
            ],
            [
              14.3390355,
              48.2446591
            ],
            [
              14.3391432,
              48.2447284
            ],
            [
              14.3391963,
              48.2447715
            ],
            [
              14.3392211,
              48.2448149
            ],
            [
              14.3392273,
              48.2448568
            ],
            [
              14.3392159,
              48.2448979
            ],
            [
              14.3391912,
              48.2449311
            ],
            [
              14.3391649,
              48.2449581
            ],
            [
              14.3390921,
              48.2450329
            ],
            [
              14.338922,
              48.2449588
            ],
            [
              14.3388621,
              48.2449327
            ],
            [
              14.3383484,
              48.2447221
            ],
            [
              14.3380956,
              48.2446185
            ],
            [
              14.3378592,
              48.24454
            ],
            [
              14.3377846,
              48.2445171
            ],
            [
              14.3374896,
              48.244436
            ],
            [
              14.3372158,
              48.2443714
            ],
            [
              14.3369662,
              48.2443229
            ],
            [
              14.3363234,
              48.2442178
            ],
            [
              14.3355323,
              48.2441007
            ],
            [
              14.335341,
              48.2440723
            ],
            [
              14.334628,
              48.2439703
            ],
            [
              14.3339008,
              48.2438553
            ],
            [
              14.3331569,
              48.2437282
            ],
            [
              14.332933,
              48.2436948
            ]
          ],
          [
            [
              14.3287743,
              48.2117208
            ],
            [
              14.3287501,
              48.2116823
            ],
            [
              14.3287461,
              48.2116546
            ],
            [
              14.3287501,
              48.2116117
            ],
            [
              14.3287803,
              48.2115755
            ]
          ],
          [
            [
              14.32148,
              48.2150943
            ],
            [
              14.3214861,
              48.2149866
            ]
          ],
          [
            [
              14.3223075,
              48.2188765
            ],
            [
              14.3223584,
              48.2189596
            ]
          ],
          [
            [
              14.3252013,
              48.2248848
            ],
            [
              14.3251506,
              48.2248337
            ]
          ],
          [
            [
              14.3288578,
              48.2322475
            ],
            [
              14.3287689,
              48.2321758
            ]
          ],
          [
            [
              14.329458,
              48.2370168
            ],
            [
              14.3294797,
              48.2370194
            ],
            [
              14.3294921,
              48.236973
            ],
            [
              14.3294702,
              48.2369704
            ]
          ],
          [
            [
              14.3316298,
              48.238726
            ],
            [
              14.3317647,
              48.2388257
            ]
          ],
          [
            [
              14.3345867,
              48.2408529
            ],
            [
              14.3345296,
              48.2408247
            ],
            [
              14.3344686,
              48.2408042
            ],
            [
              14.3344076,
              48.2407912
            ],
            [
              14.334307,
              48.2407828
            ],
            [
              14.3342393,
              48.2407769
            ],
            [
              14.3342339,
              48.2407836
            ]
          ],
          [
            [
              14.3329051,
              48.2436026
            ],
            [
              14.3329029,
              48.2436123
            ],
            [
              14.3333736,
              48.2436877
            ]
          ]
        ]
      },
      "id": "relation/3300284"
    },
    {
      "type": "Feature",
      "properties": {
        "@id": "relation/3300319",
        "alternate": "no",
        "colour": "#51bc4a",
        "name": "Bus 106: Wambacherberg => Florianer Straße",
        "network": "Oberösterreichischer Verkehrsverbund",
        "network:short": "OÖVV",
        "network:wikidata": "Q2011605",
        "network:wikipedia": "de:Oberösterreichischer Verkehrsverbund",
        "operator": "Linz Linien GmbH",
        "public_transport:version": "2",
        "ref": "106",
        "route": "bus",
        "type": "route"
      },
      "geometry": {
        "type": "MultiLineString",
        "coordinates": [
          [
            [
              14.332933,
              48.2436948
            ],
            [
              14.3324902,
              48.2436256
            ],
            [
              14.332423,
              48.2436153
            ],
            [
              14.3322403,
              48.2435872
            ],
            [
              14.3323025,
              48.243505
            ],
            [
              14.3323816,
              48.2434004
            ],
            [
              14.3323948,
              48.2433841
            ],
            [
              14.332694,
              48.2430602
            ],
            [
              14.3327361,
              48.243012
            ],
            [
              14.3329816,
              48.2427359
            ],
            [
              14.3331644,
              48.2425357
            ],
            [
              14.3333438,
              48.2423485
            ],
            [
              14.3335898,
              48.2421043
            ],
            [
              14.3339054,
              48.2417967
            ],
            [
              14.3340981,
              48.2416072
            ],
            [
              14.3342678,
              48.2414371
            ],
            [
              14.3343182,
              48.2413826
            ],
            [
              14.3343491,
              48.2413495
            ],
            [
              14.3344167,
              48.2412752
            ],
            [
              14.334437,
              48.2412535
            ],
            [
              14.3345291,
              48.2411547
            ],
            [
              14.3346348,
              48.2410274
            ],
            [
              14.3347172,
              48.2409152
            ],
            [
              14.334771,
              48.2408378
            ],
            [
              14.3346275,
              48.2407962
            ],
            [
              14.3345584,
              48.2407762
            ],
            [
              14.3345239,
              48.2407675
            ],
            [
              14.3343952,
              48.2407406
            ],
            [
              14.3342651,
              48.2407191
            ],
            [
              14.334143,
              48.2407003
            ],
            [
              14.3340812,
              48.2406911
            ],
            [
              14.3339852,
              48.2406735
            ],
            [
              14.3339001,
              48.2406487
            ],
            [
              14.3338272,
              48.2406137
            ],
            [
              14.3337926,
              48.2405899
            ],
            [
              14.333776,
              48.2405775
            ],
            [
              14.3337525,
              48.240561
            ],
            [
              14.3337013,
              48.2405401
            ],
            [
              14.3336268,
              48.2405204
            ],
            [
              14.3335235,
              48.2405038
            ],
            [
              14.3334274,
              48.2404963
            ],
            [
              14.3333165,
              48.2404893
            ],
            [
              14.3332135,
              48.240483
            ],
            [
              14.3322004,
              48.2404532
            ],
            [
              14.3322041,
              48.2403923
            ],
            [
              14.3322261,
              48.2400284
            ],
            [
              14.3322442,
              48.2397297
            ],
            [
              14.332261,
              48.2394513
            ],
            [
              14.3322693,
              48.2393149
            ],
            [
              14.3322724,
              48.2392699
            ],
            [
              14.3322633,
              48.2392202
            ],
            [
              14.3322424,
              48.2391759
            ],
            [
              14.3321937,
              48.2391125
            ],
            [
              14.3320532,
              48.2389796
            ],
            [
              14.3319139,
              48.2388733
            ],
            [
              14.3318733,
              48.2388423
            ],
            [
              14.3316754,
              48.2386986
            ],
            [
              14.3315889,
              48.2386358
            ],
            [
              14.3313989,
              48.238498
            ],
            [
              14.3310946,
              48.2383017
            ],
            [
              14.3310604,
              48.2382797
            ],
            [
              14.3309653,
              48.2382146
            ],
            [
              14.3309253,
              48.2381873
            ],
            [
              14.3308984,
              48.2381689
            ],
            [
              14.3307757,
              48.238074
            ],
            [
              14.330759,
              48.2380607
            ],
            [
              14.3306787,
              48.2379967
            ],
            [
              14.3305697,
              48.2378916
            ],
            [
              14.3304212,
              48.2377341
            ],
            [
              14.3302226,
              48.2375234
            ],
            [
              14.3301576,
              48.2374568
            ],
            [
              14.3301347,
              48.2374334
            ],
            [
              14.3300126,
              48.2373558
            ],
            [
              14.3299019,
              48.2373128
            ],
            [
              14.3297593,
              48.2372776
            ],
            [
              14.3295324,
              48.2372427
            ],
            [
              14.3294578,
              48.2372322
            ],
            [
              14.3295057,
              48.2370951
            ],
            [
              14.3295268,
              48.2369988
            ],
            [
              14.329532,
              48.2369752
            ],
            [
              14.3295616,
              48.23684
            ],
            [
              14.3295772,
              48.2367486
            ],
            [
              14.3296618,
              48.2363652
            ],
            [
              14.3297108,
              48.2361448
            ],
            [
              14.3297649,
              48.2359015
            ],
            [
              14.3297804,
              48.2358322
            ],
            [
              14.3297868,
              48.2357635
            ],
            [
              14.3298034,
              48.2355871
            ],
            [
              14.3298538,
              48.2353203
            ],
            [
              14.3299037,
              48.2350564
            ],
            [
              14.3299142,
              48.2349818
            ],
            [
              14.3299192,
              48.234867
            ],
            [
              14.3299172,
              48.2348135
            ],
            [
              14.3299141,
              48.2347323
            ],
            [
              14.3298718,
              48.2343878
            ],
            [
              14.3298336,
              48.2339016
            ],
            [
              14.3298345,
              48.2337165
            ],
            [
              14.3298534,
              48.2336079
            ],
            [
              14.3298765,
              48.2335177
            ],
            [
              14.329923,
              48.2334205
            ],
            [
              14.3299971,
              48.2333076
            ],
            [
              14.3300557,
              48.2332272
            ],
            [
              14.3300847,
              48.233163
            ],
            [
              14.3300879,
              48.2330954
            ],
            [
              14.3300593,
              48.2330331
            ],
            [
              14.3299872,
              48.2329568
            ],
            [
              14.3298691,
              48.2328611
            ],
            [
              14.329677,
              48.2327422
            ],
            [
              14.3295076,
              48.2326547
            ],
            [
              14.3294116,
              48.2326104
            ],
            [
              14.3293577,
              48.2325785
            ],
            [
              14.3292198,
              48.232497
            ],
            [
              14.329025,
              48.232345
            ],
            [
              14.3288982,
              48.232228
            ],
            [
              14.328816,
              48.2321475
            ],
            [
              14.3288043,
              48.232136
            ],
            [
              14.3287485,
              48.2320815
            ],
            [
              14.3285626,
              48.2318898
            ],
            [
              14.3283552,
              48.2316616
            ],
            [
              14.328201,
              48.2314928
            ],
            [
              14.3281156,
              48.2313746
            ],
            [
              14.3280606,
              48.2312838
            ],
            [
              14.3279856,
              48.2311259
            ],
            [
              14.3279438,
              48.2310057
            ],
            [
              14.3279318,
              48.2309725
            ],
            [
              14.3278647,
              48.2307567
            ],
            [
              14.3278168,
              48.2305221
            ],
            [
              14.3277214,
              48.2299114
            ],
            [
              14.3276934,
              48.229816
            ],
            [
              14.3276481,
              48.2297164
            ],
            [
              14.327586,
              48.229618
            ],
            [
              14.3275045,
              48.2295272
            ],
            [
              14.3274045,
              48.2294402
            ],
            [
              14.3272105,
              48.2293193
            ],
            [
              14.3268638,
              48.2291114
            ],
            [
              14.3267244,
              48.2290179
            ],
            [
              14.3266277,
              48.2289399
            ],
            [
              14.3265561,
              48.2288748
            ],
            [
              14.3264989,
              48.228809
            ],
            [
              14.3264559,
              48.228732
            ],
            [
              14.3264172,
              48.228652
            ],
            [
              14.3263866,
              48.2285626
            ],
            [
              14.326309,
              48.2281875
            ],
            [
              14.3262446,
              48.2277871
            ],
            [
              14.3262033,
              48.2275231
            ],
            [
              14.3261593,
              48.2273406
            ],
            [
              14.326085,
              48.2270989
            ],
            [
              14.3260134,
              48.2268719
            ],
            [
              14.3259688,
              48.2266728
            ],
            [
              14.3259443,
              48.2264629
            ],
            [
              14.3259199,
              48.2262868
            ],
            [
              14.3258863,
              48.2261513
            ],
            [
              14.3258132,
              48.2259828
            ],
            [
              14.3257802,
              48.2259191
            ],
            [
              14.3257431,
              48.2258483
            ],
            [
              14.3257067,
              48.225771
            ],
            [
              14.3256529,
              48.225662
            ],
            [
              14.3253804,
              48.2250828
            ],
            [
              14.3253046,
              48.2249527
            ],
            [
              14.3252158,
              48.2248387
            ],
            [
              14.3251633,
              48.2247711
            ],
            [
              14.3251078,
              48.2247168
            ],
            [
              14.3250214,
              48.2246344
            ],
            [
              14.3248002,
              48.2244091
            ],
            [
              14.3246684,
              48.2242665
            ],
            [
              14.3245401,
              48.2241038
            ],
            [
              14.3244354,
              48.2239452
            ],
            [
              14.324374,
              48.2238037
            ],
            [
              14.3243187,
              48.2236356
            ],
            [
              14.3242854,
              48.2234949
            ],
            [
              14.3242557,
              48.2232303
            ],
            [
              14.3242355,
              48.2230039
            ],
            [
              14.3242149,
              48.2228422
            ],
            [
              14.3241796,
              48.2226981
            ],
            [
              14.3241151,
              48.2225505
            ],
            [
              14.3240369,
              48.2224223
            ],
            [
              14.3237955,
              48.2221531
            ],
            [
              14.3237222,
              48.2220373
            ],
            [
              14.3237082,
              48.2220152
            ],
            [
              14.3236243,
              48.2218522
            ],
            [
              14.3236103,
              48.221825
            ],
            [
              14.3235234,
              48.2216544
            ],
            [
              14.323454,
              48.2214951
            ],
            [
              14.3234017,
              48.2213442
            ],
            [
              14.3233584,
              48.221177
            ],
            [
              14.3233292,
              48.2210065
            ],
            [
              14.3233227,
              48.220957
            ],
            [
              14.3233171,
              48.2209143
            ],
            [
              14.3232952,
              48.2207474
            ],
            [
              14.3232917,
              48.2206758
            ],
            [
              14.3232894,
              48.220628
            ],
            [
              14.3232695,
              48.2205226
            ],
            [
              14.3232417,
              48.2204315
            ],
            [
              14.3231675,
              48.2202573
            ],
            [
              14.3230583,
              48.2200376
            ],
            [
              14.3227264,
              48.2194758
            ],
            [
              14.3226934,
              48.2194242
            ],
            [
              14.3224338,
              48.2189838
            ],
            [
              14.3224116,
              48.2189427
            ],
            [
              14.3223651,
              48.2188568
            ],
            [
              14.3223271,
              48.2187882
            ],
            [
              14.3222068,
              48.2186635
            ],
            [
              14.3220454,
              48.218529
            ],
            [
              14.3216828,
              48.2181867
            ],
            [
              14.3211423,
              48.2176645
            ],
            [
              14.3210139,
              48.2175344
            ],
            [
              14.3209668,
              48.2174866
            ],
            [
              14.3208361,
              48.2173493
            ],
            [
              14.320703,
              48.2172102
            ],
            [
              14.3206299,
              48.2171488
            ],
            [
              14.3205472,
              48.2170993
            ],
            [
              14.320481,
              48.2170772
            ],
            [
              14.320427,
              48.2170591
            ],
            [
              14.3203537,
              48.217033
            ],
            [
              14.3203131,
              48.2170137
            ],
            [
              14.3202581,
              48.2169783
            ],
            [
              14.3201638,
              48.2168886
            ],
            [
              14.320087,
              48.2167947
            ],
            [
              14.3200396,
              48.2167154
            ],
            [
              14.3200264,
              48.2166538
            ],
            [
              14.3200025,
              48.2165925
            ],
            [
              14.3204574,
              48.2165195
            ],
            [
              14.3205566,
              48.2164938
            ],
            [
              14.320659,
              48.2164673
            ],
            [
              14.320979,
              48.2163646
            ],
            [
              14.3212526,
              48.2162717
            ],
            [
              14.3213069,
              48.216249
            ],
            [
              14.3214124,
              48.216205
            ],
            [
              14.3214557,
              48.2161848
            ],
            [
              14.3215866,
              48.2161238
            ],
            [
              14.3216705,
              48.2160755
            ],
            [
              14.3216248,
              48.2159382
            ],
            [
              14.3215835,
              48.2158139
            ],
            [
              14.3215469,
              48.2156666
            ],
            [
              14.3215417,
              48.2156151
            ],
            [
              14.3215234,
              48.2154346
            ],
            [
              14.3215217,
              48.2152652
            ],
            [
              14.321529,
              48.2151276
            ],
            [
              14.3215315,
              48.215092
            ],
            [
              14.3215364,
              48.2150223
            ],
            [
              14.321539,
              48.2149858
            ],
            [
              14.3215474,
              48.2148671
            ],
            [
              14.3215383,
              48.2147863
            ],
            [
              14.321512,
              48.2147021
            ],
            [
              14.3214198,
              48.2144215
            ],
            [
              14.321391,
              48.2143049
            ],
            [
              14.3213811,
              48.2141876
            ],
            [
              14.3213836,
              48.2141028
            ],
            [
              14.3213995,
              48.2140078
            ],
            [
              14.3214248,
              48.2139363
            ],
            [
              14.3214722,
              48.2138498
            ],
            [
              14.3215359,
              48.2137758
            ],
            [
              14.3216433,
              48.2136976
            ],
            [
              14.3217709,
              48.2136266
            ],
            [
              14.3230847,
              48.2131186
            ],
            [
              14.3232931,
              48.2130488
            ],
            [
              14.3237117,
              48.2129316
            ],
            [
              14.3239999,
              48.2128566
            ],
            [
              14.3242271,
              48.2127951
            ],
            [
              14.3243825,
              48.212749
            ],
            [
              14.3245555,
              48.2126844
            ],
            [
              14.3247141,
              48.2126145
            ],
            [
              14.3248964,
              48.2125205
            ],
            [
              14.3250773,
              48.2124263
            ],
            [
              14.325252,
              48.2123569
            ],
            [
              14.3254058,
              48.2123125
            ],
            [
              14.3256144,
              48.2122733
            ],
            [
              14.3258167,
              48.2122439
            ],
            [
              14.3259234,
              48.2122312
            ],
            [
              14.3261263,
              48.212211
            ],
            [
              14.3263839,
              48.2122002
            ],
            [
              14.326622,
              48.212206
            ],
            [
              14.3268141,
              48.2122062
            ],
            [
              14.3269891,
              48.2121918
            ],
            [
              14.3271914,
              48.2121561
            ],
            [
              14.3273874,
              48.2121219
            ],
            [
              14.3276009,
              48.2120747
            ],
            [
              14.3278482,
              48.2120146
            ],
            [
              14.3281187,
              48.2119304
            ],
            [
              14.3284077,
              48.2118424
            ],
            [
              14.3285628,
              48.2118012
            ],
            [
              14.3288271,
              48.2117575
            ],
            [
              14.3289979,
              48.2117295
            ],
            [
              14.329324,
              48.2116792
            ],
            [
              14.3292977,
              48.211635
            ],
            [
              14.3291981,
              48.2115613
            ],
            [
              14.3291493,
              48.2115459
            ],
            [
              14.3288497,
              48.2115897
            ],
            [
              14.3288146,
              48.211613
            ],
            [
              14.3287954,
              48.211646
            ]
          ],
          [
            [
              14.3329051,
              48.2436026
            ],
            [
              14.3329029,
              48.2436123
            ],
            [
              14.3333736,
              48.2436877
            ]
          ],
          [
            [
              14.3346547,
              48.2407585
            ],
            [
              14.3344934,
              48.240718
            ],
            [
              14.3342829,
              48.2406816
            ]
          ],
          [
            [
              14.3314425,
              48.238475
            ],
            [
              14.3314022,
              48.2384485
            ],
            [
              14.3313483,
              48.2384131
            ]
          ],
          [
            [
              14.3295488,
              48.2371399
            ],
            [
              14.3295685,
              48.2370612
            ]
          ],
          [
            [
              14.3287615,
              48.2320503
            ],
            [
              14.3288472,
              48.2321305
            ]
          ],
          [
            [
              14.325273,
              48.2248574
            ],
            [
              14.3252418,
              48.2248174
            ]
          ],
          [
            [
              14.3224436,
              48.218939
            ],
            [
              14.3223987,
              48.2188447
            ]
          ],
          [
            [
              14.3215923,
              48.2161644
            ],
            [
              14.3214757,
              48.2162194
            ]
          ],
          [
            [
              14.3287743,
              48.2117208
            ],
            [
              14.3287501,
              48.2116823
            ],
            [
              14.3287461,
              48.2116546
            ],
            [
              14.3287501,
              48.2116117
            ],
            [
              14.3287803,
              48.2115755
            ]
          ]
        ]
      },
      "id": "relation/3300319"
    }
  ]
}