{
  "type": "FeatureCollection",
  "features": [
    {
      "type": "Feature",
      "properties": {
        "@id": "relation/403814",
        "alternate": "no",
        "colour": "#51bc4a",
        "from": "Rudolfstraße",
        "name": "Bus 102: Rudolfstraße => Worathweg",
        "network": "Oberösterreichischer Verkehrsverbund",
        "network:short": "OÖVV",
        "network:wikidata": "Q2011605",
        "network:wikipedia": "de:Oberösterreichischer Verkehrsverbund",
        "operator": "Linz Linien GmbH",
        "public_transport:version": "2",
        "ref": "102",
        "route": "bus",
        "to": "Worathweg",
        "type": "route"
      },
      "geometry": {
        "type": "MultiLineString",
        "coordinates": [
          [
            [
              14.2832749,
              48.3116422
            ],
            [
              14.2831246,
              48.3115778
            ],
            [
              14.2831033,
              48.3115675
            ],
            [
              14.2829774,
              48.3115069
            ],
            [
              14.2827858,
              48.311412
            ],
            [
              14.2826641,
              48.3115502
            ],
            [
              14.2826031,
              48.3116339
            ],
            [
              14.2825243,
              48.3117432
            ],
            [
              14.282479,
              48.3118184
            ],
            [
              14.2824137,
              48.3119433
            ],
            [
              14.2823525,
              48.3120713
            ],
            [
              14.2822118,
              48.3124079
            ],
            [
              14.2821505,
              48.3125252
            ],
            [
              14.2821462,
              48.3125318
            ],
            [
              14.2821279,
              48.3125664
            ],
            [
              14.2821094,
              48.3126013
            ],
            [
              14.2820867,
              48.3126443
            ],
            [
              14.2820405,
              48.3127315
            ],
            [
              14.2819858,
              48.3128179
            ],
            [
              14.2819453,
              48.3128838
            ],
            [
              14.2819177,
              48.3129266
            ],
            [
              14.2818995,
              48.3129554
            ],
            [
              14.2818666,
              48.3130121
            ],
            [
              14.281768,
              48.313182
            ],
            [
              14.2815586,
              48.3135484
            ],
            [
              14.281538,
              48.3135845
            ],
            [
              14.2815068,
              48.3136372
            ],
            [
              14.281004,
              48.3145288
            ],
            [
              14.280977,
              48.3145766
            ],
            [
              14.280945,
              48.3146333
            ],
            [
              14.2808343,
              48.3148296
            ],
            [
              14.2806584,
              48.3151402
            ],
            [
              14.2805752,
              48.315287
            ],
            [
              14.2805255,
              48.3154152
            ],
            [
              14.2804878,
              48.3155042
            ],
            [
              14.2804466,
              48.3156102
            ],
            [
              14.2804413,
              48.3156237
            ],
            [
              14.2803578,
              48.3158384
            ],
            [
              14.2803046,
              48.3159752
            ],
            [
              14.2801745,
              48.3163095
            ],
            [
              14.2800505,
              48.3166284
            ],
            [
              14.2798994,
              48.3169993
            ],
            [
              14.2798569,
              48.3171036
            ],
            [
              14.2797778,
              48.3172976
            ],
            [
              14.2796869,
              48.3175207
            ],
            [
              14.2796758,
              48.317548
            ],
            [
              14.2795978,
              48.3176214
            ],
            [
              14.2795845,
              48.317634
            ],
            [
              14.2795269,
              48.3176881
            ],
            [
              14.2793344,
              48.3178694
            ],
            [
              14.2791499,
              48.3180431
            ],
            [
              14.2789923,
              48.3181915
            ],
            [
              14.2786743,
              48.3184909
            ],
            [
              14.2786308,
              48.3185319
            ],
            [
              14.2784853,
              48.3186688
            ],
            [
              14.2784709,
              48.3186824
            ],
            [
              14.2782627,
              48.3188784
            ],
            [
              14.2782077,
              48.3189299
            ],
            [
              14.2781666,
              48.3189684
            ],
            [
              14.2780836,
              48.3190462
            ],
            [
              14.2779341,
              48.3191862
            ],
            [
              14.2778452,
              48.3192696
            ],
            [
              14.2775272,
              48.3195675
            ],
            [
              14.2775055,
              48.3195878
            ],
            [
              14.2774456,
              48.319644
            ],
            [
              14.2774266,
              48.3196618
            ],
            [
              14.2773747,
              48.3197105
            ],
            [
              14.2772601,
              48.3198179
            ],
            [
              14.277175,
              48.3198976
            ],
            [
              14.2771166,
              48.3199524
            ],
            [
              14.2770679,
              48.3199979
            ],
            [
              14.2771171,
              48.3200178
            ],
            [
              14.2774454,
              48.3201503
            ],
            [
              14.2776712,
              48.3202271
            ],
            [
              14.2777439,
              48.3202496
            ],
            [
              14.2779057,
              48.3202995
            ],
            [
              14.2781515,
              48.3203563
            ],
            [
              14.278239,
              48.3203719
            ],
            [
              14.2783074,
              48.3203806
            ],
            [
              14.2783326,
              48.3203838
            ],
            [
              14.2785543,
              48.3203984
            ],
            [
              14.278764,
              48.3204043
            ],
            [
              14.2788099,
              48.3204053
            ],
            [
              14.2791643,
              48.320408
            ],
            [
              14.2792809,
              48.3204089
            ],
            [
              14.2793235,
              48.3204092
            ],
            [
              14.2794669,
              48.3204138
            ],
            [
              14.2794988,
              48.3204148
            ],
            [
              14.2795382,
              48.320416
            ],
            [
              14.2797673,
              48.3204385
            ],
            [
              14.280052,
              48.3204934
            ],
            [
              14.2801573,
              48.3205236
            ],
            [
              14.2802049,
              48.3205373
            ],
            [
              14.280376,
              48.3205945
            ],
            [
              14.2805306,
              48.3206639
            ],
            [
              14.2806609,
              48.3207367
            ],
            [
              14.2813492,
              48.3211922
            ],
            [
              14.281414,
              48.3212351
            ],
            [
              14.2814754,
              48.3212757
            ],
            [
              14.281522,
              48.3213064
            ],
            [
              14.2815605,
              48.3213261
            ],
            [
              14.2816035,
              48.321348
            ],
            [
              14.2817016,
              48.321376
            ],
            [
              14.2817967,
              48.3213835
            ],
            [
              14.2829474,
              48.3213843
            ],
            [
              14.2829793,
              48.3213852
            ],
            [
              14.2831303,
              48.3213854
            ],
            [
              14.2831292,
              48.3215945
            ],
            [
              14.2831282,
              48.3218042
            ],
            [
              14.2831232,
              48.3224941
            ],
            [
              14.2831219,
              48.3226771
            ],
            [
              14.2831377,
              48.3229321
            ],
            [
              14.283162,
              48.3231164
            ],
            [
              14.2832654,
              48.3233654
            ],
            [
              14.2832848,
              48.3234085
            ],
            [
              14.2833263,
              48.3234854
            ],
            [
              14.2833698,
              48.3235597
            ],
            [
              14.2834006,
              48.3236084
            ],
            [
              14.2834035,
              48.323612
            ],
            [
              14.2835035,
              48.3237363
            ],
            [
              14.2835958,
              48.3238226
            ],
            [
              14.2836836,
              48.323892
            ],
            [
              14.283809,
              48.3239797
            ],
            [
              14.2839077,
              48.3240554
            ],
            [
              14.2839725,
              48.3241094
            ],
            [
              14.2840363,
              48.3241672
            ],
            [
              14.2840987,
              48.3242349
            ],
            [
              14.284151,
              48.3243026
            ],
            [
              14.2841917,
              48.3243712
            ],
            [
              14.2842273,
              48.3244491
            ],
            [
              14.2842586,
              48.3245403
            ],
            [
              14.2842721,
              48.3246384
            ],
            [
              14.2842713,
              48.324719
            ],
            [
              14.2842545,
              48.3248705
            ],
            [
              14.2842345,
              48.3250174
            ],
            [
              14.2842189,
              48.3251829
            ],
            [
              14.2842229,
              48.3252895
            ],
            [
              14.2842253,
              48.3253894
            ],
            [
              14.2842209,
              48.3255124
            ],
            [
              14.2842096,
              48.3256689
            ],
            [
              14.2843605,
              48.3261361
            ],
            [
              14.2844114,
              48.3262935
            ],
            [
              14.2845419,
              48.3266756
            ],
            [
              14.2845867,
              48.3267816
            ],
            [
              14.2846084,
              48.3268191
            ],
            [
              14.2845626,
              48.3269056
            ],
            [
              14.2845297,
              48.3269301
            ],
            [
              14.2845023,
              48.3269445
            ],
            [
              14.2844005,
              48.326966
            ],
            [
              14.2840999,
              48.3270275
            ],
            [
              14.2840391,
              48.3270362
            ],
            [
              14.2839916,
              48.327035
            ],
            [
              14.2838921,
              48.3270227
            ],
            [
              14.2838011,
              48.3269951
            ],
            [
              14.2837372,
              48.3269597
            ],
            [
              14.2837106,
              48.326915
            ],
            [
              14.2833935,
              48.3267345
            ],
            [
              14.2833135,
              48.3266889
            ],
            [
              14.2831422,
              48.3265913
            ],
            [
              14.2831284,
              48.3265775
            ],
            [
              14.2831006,
              48.3265499
            ],
            [
              14.2830774,
              48.3265094
            ],
            [
              14.2829495,
              48.3265074
            ],
            [
              14.2829215,
              48.326507
            ],
            [
              14.2828238,
              48.3265106
            ],
            [
              14.2826877,
              48.3265248
            ],
            [
              14.2825922,
              48.3265392
            ],
            [
              14.2825154,
              48.3265508
            ],
            [
              14.2823551,
              48.3265809
            ],
            [
              14.282154,
              48.3266276
            ],
            [
              14.2819659,
              48.3266804
            ],
            [
              14.2818335,
              48.326726
            ],
            [
              14.2816592,
              48.3267949
            ],
            [
              14.2816333,
              48.3268032
            ],
            [
              14.2815684,
              48.3268241
            ],
            [
              14.281554,
              48.3268287
            ],
            [
              14.2813785,
              48.3268615
            ],
            [
              14.2812115,
              48.3268806
            ],
            [
              14.2811547,
              48.3268871
            ],
            [
              14.2811131,
              48.3268913
            ],
            [
              14.2809054,
              48.3269124
            ],
            [
              14.2806809,
              48.3269349
            ],
            [
              14.2805356,
              48.3269472
            ],
            [
              14.2803984,
              48.3269534
            ],
            [
              14.2803549,
              48.3269554
            ],
            [
              14.2801887,
              48.3269555
            ],
            [
              14.2799308,
              48.3269558
            ],
            [
              14.2796567,
              48.3269543
            ],
            [
              14.2796235,
              48.3269551
            ],
            [
              14.2795456,
              48.3269591
            ],
            [
              14.2794559,
              48.3269645
            ],
            [
              14.2793665,
              48.3269748
            ],
            [
              14.2792943,
              48.3269831
            ],
            [
              14.2791603,
              48.3270077
            ],
            [
              14.2790858,
              48.3270439
            ],
            [
              14.2790586,
              48.3270848
            ],
            [
              14.2789948,
              48.3272615
            ],
            [
              14.2789384,
              48.3274021
            ],
            [
              14.2788042,
              48.3277041
            ],
            [
              14.2787355,
              48.3278586
            ],
            [
              14.2786342,
              48.3280552
            ],
            [
              14.2784851,
              48.3281189
            ],
            [
              14.2783935,
              48.3281563
            ],
            [
              14.2783225,
              48.3281767
            ],
            [
              14.2782214,
              48.328201
            ],
            [
              14.2780967,
              48.328214
            ],
            [
              14.2779948,
              48.328212
            ],
            [
              14.2778824,
              48.3281992
            ],
            [
              14.2778333,
              48.3281874
            ],
            [
              14.27776,
              48.3281697
            ],
            [
              14.2776108,
              48.3281288
            ],
            [
              14.2772863,
              48.3280398
            ],
            [
              14.2771706,
              48.3280077
            ],
            [
              14.277118,
              48.3279931
            ],
            [
              14.2770097,
              48.3279744
            ],
            [
              14.2769038,
              48.327968
            ],
            [
              14.2767781,
              48.3279725
            ],
            [
              14.2766919,
              48.3279804
            ],
            [
              14.2766837,
              48.3279811
            ],
            [
              14.2766035,
              48.3279921
            ],
            [
              14.2764795,
              48.3280259
            ],
            [
              14.2763959,
              48.3280625
            ],
            [
              14.276327,
              48.3281048
            ],
            [
              14.2762713,
              48.3281545
            ],
            [
              14.2762453,
              48.3281776
            ],
            [
              14.2761848,
              48.3282565
            ],
            [
              14.2761228,
              48.3283374
            ],
            [
              14.2760587,
              48.3284212
            ],
            [
              14.2758218,
              48.3287303
            ],
            [
              14.2757022,
              48.3288878
            ],
            [
              14.2756648,
              48.3289312
            ],
            [
              14.2756246,
              48.3289855
            ],
            [
              14.2755423,
              48.3290895
            ],
            [
              14.2755139,
              48.3291255
            ],
            [
              14.2754572,
              48.3291971
            ],
            [
              14.2753467,
              48.3293189
            ],
            [
              14.2753009,
              48.3293583
            ],
            [
              14.275252,
              48.3294002
            ],
            [
              14.2752238,
              48.3294245
            ],
            [
              14.2751027,
              48.3295234
            ],
            [
              14.275019,
              48.3295918
            ],
            [
              14.2750059,
              48.3296025
            ],
            [
              14.2749876,
              48.3296174
            ],
            [
              14.2748496,
              48.3297144
            ],
            [
              14.2748029,
              48.3297473
            ],
            [
              14.2747109,
              48.3298026
            ],
            [
              14.2746321,
              48.3298486
            ],
            [
              14.2745257,
              48.3298967
            ],
            [
              14.2744122,
              48.3299372
            ],
            [
              14.2743891,
              48.3299451
            ],
            [
              14.274331,
              48.3299649
            ],
            [
              14.2742743,
              48.3299843
            ],
            [
              14.2741511,
              48.3300337
            ],
            [
              14.2740644,
              48.3300761
            ],
            [
              14.2739266,
              48.3301485
            ],
            [
              14.2737738,
              48.3302294
            ],
            [
              14.2736984,
              48.3302714
            ],
            [
              14.2733485,
              48.3304666
            ],
            [
              14.273288,
              48.3305004
            ],
            [
              14.2730561,
              48.3306301
            ],
            [
              14.2729768,
              48.3306744
            ],
            [
              14.2728957,
              48.330719
            ],
            [
              14.2728388,
              48.330739
            ],
            [
              14.2727392,
              48.330753
            ],
            [
              14.272603,
              48.3307508
            ],
            [
              14.2724782,
              48.3307309
            ],
            [
              14.2723069,
              48.3306812
            ],
            [
              14.2721695,
              48.3306474
            ],
            [
              14.2720933,
              48.3306286
            ],
            [
              14.2719642,
              48.3306071
            ],
            [
              14.2718127,
              48.3305934
            ],
            [
              14.271572,
              48.3305927
            ],
            [
              14.2713504,
              48.3306089
            ],
            [
              14.2712965,
              48.3306166
            ],
            [
              14.2710744,
              48.3306485
            ],
            [
              14.2705462,
              48.3307203
            ],
            [
              14.2704856,
              48.3307305
            ],
            [
              14.2703879,
              48.330747
            ],
            [
              14.270404,
              48.330777
            ],
            [
              14.2704357,
              48.3308045
            ],
            [
              14.2708049,
              48.3309611
            ],
            [
              14.27094,
              48.3310246
            ],
            [
              14.2709998,
              48.3310527
            ],
            [
              14.2711637,
              48.3311297
            ],
            [
              14.2713817,
              48.3312504
            ],
            [
              14.2714567,
              48.3312919
            ],
            [
              14.2717957,
              48.3315097
            ],
            [
              14.2718488,
              48.3315497
            ],
            [
              14.2718725,
              48.3315772
            ],
            [
              14.2718958,
              48.3316348
            ],
            [
              14.2718036,
              48.3316441
            ],
            [
              14.271734,
              48.3316575
            ],
            [
              14.2711846,
              48.3318983
            ],
            [
              14.2711503,
              48.331909
            ],
            [
              14.2711131,
              48.3319205
            ],
            [
              14.2710632,
              48.3319279
            ],
            [
              14.2710333,
              48.3319306
            ],
            [
              14.2709913,
              48.3319318
            ],
            [
              14.2709554,
              48.3319292
            ],
            [
              14.2709136,
              48.3319216
            ],
            [
              14.2708455,
              48.3319066
            ],
            [
              14.2707167,
              48.3318775
            ],
            [
              14.2706349,
              48.3318577
            ],
            [
              14.2705503,
              48.3318386
            ],
            [
              14.270494,
              48.3318283
            ],
            [
              14.2704291,
              48.3318199
            ],
            [
              14.2703863,
              48.3318175
            ],
            [
              14.2703409,
              48.3318174
            ],
            [
              14.270293,
              48.3318186
            ],
            [
              14.2702373,
              48.3318225
            ],
            [
              14.2701876,
              48.3318294
            ],
            [
              14.2701412,
              48.3318405
            ],
            [
              14.2701014,
              48.3318529
            ],
            [
              14.2700429,
              48.3318765
            ],
            [
              14.2700014,
              48.331898
            ],
            [
              14.269956,
              48.3319239
            ],
            [
              14.2699199,
              48.3319498
            ],
            [
              14.2698932,
              48.3319719
            ],
            [
              14.26987,
              48.3319938
            ],
            [
              14.2698476,
              48.3320162
            ],
            [
              14.2698312,
              48.332034
            ],
            [
              14.2697494,
              48.3321224
            ],
            [
              14.2697203,
              48.3321652
            ],
            [
              14.2696951,
              48.3322086
            ],
            [
              14.269685,
              48.3322348
            ],
            [
              14.2696716,
              48.3322771
            ],
            [
              14.2696643,
              48.3323122
            ],
            [
              14.2697054,
              48.3323289
            ],
            [
              14.2697594,
              48.3323453
            ],
            [
              14.2698891,
              48.3323797
            ],
            [
              14.2700157,
              48.3324136
            ],
            [
              14.2700969,
              48.3324316
            ],
            [
              14.2701678,
              48.3324463
            ],
            [
              14.2703017,
              48.332471
            ],
            [
              14.2704575,
              48.3324939
            ],
            [
              14.270475,
              48.3324964
            ]
          ],
          [
            [
              14.2833597,
              48.3233561
            ],
            [
              14.2833208,
              48.3233596
            ],
            [
              14.2832763,
              48.3231382
            ],
            [
              14.283316,
              48.3231346
            ]
          ]
        ]
      },
      "id": "relation/403814"
    },
    {
      "type": "Feature",
      "properties": {
        "@id": "relation/1147288",
        "alternate": "no",
        "colour": "#51bc4a",
        "from": "Worathweg",
        "name": "Bus 102: Worathweg => Rudolfstraße",
        "network": "Oberösterreichischer Verkehrsverbund",
        "network:short": "OÖVV",
        "network:wikidata": "Q2011605",
        "network:wikipedia": "de:Oberösterreichischer Verkehrsverbund",
        "operator": "Linz Linien GmbH",
        "public_transport:version": "2",
        "ref": "102",
        "route": "bus",
        "to": "Rudolfstraße",
        "type": "route"
      },
      "geometry": {
        "type": "MultiLineString",
        "coordinates": [
          [
            [
              14.270475,
              48.3324964
            ],
            [
              14.2707509,
              48.3325364
            ],
            [
              14.270839,
              48.3325496
            ],
            [
              14.2708705,
              48.3325542
            ],
            [
              14.2710059,
              48.3325724
            ],
            [
              14.2711204,
              48.3325842
            ],
            [
              14.2712138,
              48.3325921
            ],
            [
              14.2713307,
              48.3326002
            ],
            [
              14.2714711,
              48.3326087
            ],
            [
              14.2716456,
              48.3326205
            ],
            [
              14.271766,
              48.3326285
            ],
            [
              14.2718299,
              48.3326364
            ],
            [
              14.2718705,
              48.3326434
            ],
            [
              14.2719129,
              48.3326547
            ],
            [
              14.2719314,
              48.332632
            ],
            [
              14.2719618,
              48.332595
            ],
            [
              14.2720102,
              48.3325386
            ],
            [
              14.2720365,
              48.3325054
            ],
            [
              14.272059,
              48.3324732
            ],
            [
              14.2720799,
              48.3324414
            ],
            [
              14.2720956,
              48.332413
            ],
            [
              14.2721046,
              48.33239
            ],
            [
              14.2721122,
              48.3323614
            ],
            [
              14.2721178,
              48.3323207
            ],
            [
              14.2721201,
              48.3322898
            ],
            [
              14.27212,
              48.3322626
            ],
            [
              14.2721181,
              48.3322321
            ],
            [
              14.272113,
              48.3322037
            ],
            [
              14.2721018,
              48.3321502
            ],
            [
              14.272083,
              48.3320694
            ],
            [
              14.2720752,
              48.3320346
            ],
            [
              14.2720631,
              48.3319963
            ],
            [
              14.2720473,
              48.3319571
            ],
            [
              14.2719729,
              48.3318173
            ],
            [
              14.2719301,
              48.3317397
            ],
            [
              14.2719077,
              48.3316876
            ],
            [
              14.2718958,
              48.3316348
            ],
            [
              14.2718725,
              48.3315772
            ],
            [
              14.2718488,
              48.3315497
            ],
            [
              14.2717957,
              48.3315097
            ],
            [
              14.2714567,
              48.3312919
            ],
            [
              14.2713817,
              48.3312504
            ],
            [
              14.2711637,
              48.3311297
            ],
            [
              14.2709998,
              48.3310527
            ],
            [
              14.27094,
              48.3310246
            ],
            [
              14.2708049,
              48.3309611
            ],
            [
              14.2704357,
              48.3308045
            ],
            [
              14.270404,
              48.330777
            ],
            [
              14.2703879,
              48.330747
            ],
            [
              14.2704856,
              48.3307305
            ],
            [
              14.2705462,
              48.3307203
            ],
            [
              14.2710744,
              48.3306485
            ],
            [
              14.2712965,
              48.3306166
            ],
            [
              14.2713504,
              48.3306089
            ],
            [
              14.271572,
              48.3305927
            ],
            [
              14.2718127,
              48.3305934
            ],
            [
              14.2719642,
              48.3306071
            ],
            [
              14.2720933,
              48.3306286
            ],
            [
              14.2721695,
              48.3306474
            ],
            [
              14.2723069,
              48.3306812
            ],
            [
              14.2724782,
              48.3307309
            ],
            [
              14.272603,
              48.3307508
            ],
            [
              14.2727392,
              48.330753
            ],
            [
              14.2728388,
              48.330739
            ],
            [
              14.2728957,
              48.330719
            ],
            [
              14.2729768,
              48.3306744
            ],
            [
              14.2730561,
              48.3306301
            ],
            [
              14.273288,
              48.3305004
            ],
            [
              14.2733485,
              48.3304666
            ],
            [
              14.2736984,
              48.3302714
            ],
            [
              14.2737738,
              48.3302294
            ],
            [
              14.2739266,
              48.3301485
            ],
            [
              14.2740644,
              48.3300761
            ],
            [
              14.2741511,
              48.3300337
            ],
            [
              14.2742743,
              48.3299843
            ],
            [
              14.274331,
              48.3299649
            ],
            [
              14.2743891,
              48.3299451
            ],
            [
              14.2744122,
              48.3299372
            ],
            [
              14.2745257,
              48.3298967
            ],
            [
              14.2746321,
              48.3298486
            ],
            [
              14.2747109,
              48.3298026
            ],
            [
              14.2748029,
              48.3297473
            ],
            [
              14.2748496,
              48.3297144
            ],
            [
              14.2749876,
              48.3296174
            ],
            [
              14.2750059,
              48.3296025
            ],
            [
              14.275019,
              48.3295918
            ],
            [
              14.2751027,
              48.3295234
            ],
            [
              14.2752238,
              48.3294245
            ],
            [
              14.275252,
              48.3294002
            ],
            [
              14.2753009,
              48.3293583
            ],
            [
              14.2753467,
              48.3293189
            ],
            [
              14.2754572,
              48.3291971
            ],
            [
              14.2755139,
              48.3291255
            ],
            [
              14.2755423,
              48.3290895
            ],
            [
              14.2756246,
              48.3289855
            ],
            [
              14.2756648,
              48.3289312
            ],
            [
              14.2757022,
              48.3288878
            ],
            [
              14.2758218,
              48.3287303
            ],
            [
              14.2760587,
              48.3284212
            ],
            [
              14.2761228,
              48.3283374
            ],
            [
              14.2761848,
              48.3282565
            ],
            [
              14.2762453,
              48.3281776
            ],
            [
              14.2762713,
              48.3281545
            ],
            [
              14.276327,
              48.3281048
            ],
            [
              14.2763959,
              48.3280625
            ],
            [
              14.2764795,
              48.3280259
            ],
            [
              14.2766035,
              48.3279921
            ],
            [
              14.2766837,
              48.3279811
            ],
            [
              14.2766919,
              48.3279804
            ],
            [
              14.2767781,
              48.3279725
            ],
            [
              14.2769038,
              48.327968
            ],
            [
              14.2770097,
              48.3279744
            ],
            [
              14.277118,
              48.3279931
            ],
            [
              14.2771706,
              48.3280077
            ],
            [
              14.2772863,
              48.3280398
            ],
            [
              14.2776108,
              48.3281288
            ],
            [
              14.27776,
              48.3281697
            ],
            [
              14.2778333,
              48.3281874
            ],
            [
              14.2778824,
              48.3281992
            ],
            [
              14.2779948,
              48.328212
            ],
            [
              14.2780967,
              48.328214
            ],
            [
              14.2782214,
              48.328201
            ],
            [
              14.2783225,
              48.3281767
            ],
            [
              14.2783935,
              48.3281563
            ],
            [
              14.2784851,
              48.3281189
            ],
            [
              14.2786342,
              48.3280552
            ],
            [
              14.2787355,
              48.3278586
            ],
            [
              14.2788042,
              48.3277041
            ],
            [
              14.2789384,
              48.3274021
            ],
            [
              14.2789948,
              48.3272615
            ],
            [
              14.2790586,
              48.3270848
            ],
            [
              14.2790858,
              48.3270439
            ],
            [
              14.2791603,
              48.3270077
            ],
            [
              14.2792943,
              48.3269831
            ],
            [
              14.2793665,
              48.3269748
            ],
            [
              14.2794559,
              48.3269645
            ],
            [
              14.2795456,
              48.3269591
            ],
            [
              14.2796235,
              48.3269551
            ],
            [
              14.2796567,
              48.3269543
            ],
            [
              14.2799308,
              48.3269558
            ],
            [
              14.2801887,
              48.3269555
            ],
            [
              14.2803549,
              48.3269554
            ],
            [
              14.2803984,
              48.3269534
            ],
            [
              14.2805356,
              48.3269472
            ],
            [
              14.2806809,
              48.3269349
            ],
            [
              14.2809054,
              48.3269124
            ],
            [
              14.2811131,
              48.3268913
            ],
            [
              14.2811547,
              48.3268871
            ],
            [
              14.2812115,
              48.3268806
            ],
            [
              14.2813785,
              48.3268615
            ],
            [
              14.281554,
              48.3268287
            ],
            [
              14.2815684,
              48.3268241
            ],
            [
              14.2816333,
              48.3268032
            ],
            [
              14.2816592,
              48.3267949
            ],
            [
              14.2818335,
              48.326726
            ],
            [
              14.2819659,
              48.3266804
            ],
            [
              14.282154,
              48.3266276
            ],
            [
              14.2823551,
              48.3265809
            ],
            [
              14.2825154,
              48.3265508
            ],
            [
              14.2825922,
              48.3265392
            ],
            [
              14.2826877,
              48.3265248
            ],
            [
              14.2828238,
              48.3265106
            ],
            [
              14.2829215,
              48.326507
            ],
            [
              14.2829495,
              48.3265074
            ],
            [
              14.2830774,
              48.3265094
            ],
            [
              14.2831006,
              48.3265499
            ],
            [
              14.2831284,
              48.3265775
            ],
            [
              14.2831422,
              48.3265913
            ],
            [
              14.2833135,
              48.3266889
            ],
            [
              14.2833935,
              48.3267345
            ],
            [
              14.2837106,
              48.326915
            ],
            [
              14.283776,
              48.3269217
            ],
            [
              14.2839037,
              48.3269462
            ],
            [
              14.2840051,
              48.3269543
            ],
            [
              14.2840691,
              48.3269532
            ],
            [
              14.2841524,
              48.3269384
            ],
            [
              14.284279,
              48.3269118
            ],
            [
              14.2843608,
              48.3268947
            ],
            [
              14.2844627,
              48.3268734
            ],
            [
              14.2844176,
              48.3267771
            ],
            [
              14.2843424,
              48.3265572
            ],
            [
              14.284096,
              48.3258369
            ],
            [
              14.2840592,
              48.3257294
            ],
            [
              14.2840158,
              48.3256023
            ],
            [
              14.283803,
              48.325299
            ],
            [
              14.2837653,
              48.3252191
            ],
            [
              14.283623,
              48.324854
            ],
            [
              14.2834922,
              48.3245024
            ],
            [
              14.2834023,
              48.3242577
            ],
            [
              14.2833334,
              48.3240577
            ],
            [
              14.2832517,
              48.323771
            ],
            [
              14.2832105,
              48.3236123
            ],
            [
              14.2831936,
              48.3235567
            ],
            [
              14.28317,
              48.3234182
            ],
            [
              14.2831625,
              48.3233189
            ],
            [
              14.2831648,
              48.3232212
            ],
            [
              14.283162,
              48.3231164
            ],
            [
              14.2831377,
              48.3229321
            ],
            [
              14.2831219,
              48.3226771
            ],
            [
              14.2831232,
              48.3224941
            ],
            [
              14.2831282,
              48.3218042
            ],
            [
              14.2831292,
              48.3215945
            ],
            [
              14.2831303,
              48.3213854
            ],
            [
              14.2829793,
              48.3213852
            ],
            [
              14.2829474,
              48.3213843
            ],
            [
              14.2817967,
              48.3213835
            ],
            [
              14.2817016,
              48.321376
            ],
            [
              14.2816035,
              48.321348
            ],
            [
              14.2815605,
              48.3213261
            ],
            [
              14.281522,
              48.3213064
            ],
            [
              14.2814754,
              48.3212757
            ],
            [
              14.281414,
              48.3212351
            ],
            [
              14.2813492,
              48.3211922
            ],
            [
              14.2806609,
              48.3207367
            ],
            [
              14.2805306,
              48.3206639
            ],
            [
              14.280376,
              48.3205945
            ],
            [
              14.2802049,
              48.3205373
            ],
            [
              14.2801573,
              48.3205236
            ],
            [
              14.280052,
              48.3204934
            ],
            [
              14.2797673,
              48.3204385
            ],
            [
              14.2795382,
              48.320416
            ],
            [
              14.2794988,
              48.3204148
            ],
            [
              14.2794669,
              48.3204138
            ],
            [
              14.2793235,
              48.3204092
            ],
            [
              14.2792809,
              48.3204089
            ],
            [
              14.2791643,
              48.320408
            ],
            [
              14.2788099,
              48.3204053
            ],
            [
              14.278764,
              48.3204043
            ],
            [
              14.2785543,
              48.3203984
            ],
            [
              14.2783326,
              48.3203838
            ],
            [
              14.2783074,
              48.3203806
            ],
            [
              14.278239,
              48.3203719
            ],
            [
              14.2781515,
              48.3203563
            ],
            [
              14.2779057,
              48.3202995
            ],
            [
              14.2777439,
              48.3202496
            ],
            [
              14.2776712,
              48.3202271
            ],
            [
              14.2774454,
              48.3201503
            ],
            [
              14.2771171,
              48.3200178
            ],
            [
              14.2770679,
              48.3199979
            ],
            [
              14.2771166,
              48.3199524
            ],
            [
              14.277175,
              48.3198976
            ],
            [
              14.2772601,
              48.3198179
            ],
            [
              14.2773747,
              48.3197105
            ],
            [
              14.2774266,
              48.3196618
            ],
            [
              14.2774456,
              48.319644
            ],
            [
              14.2775055,
              48.3195878
            ],
            [
              14.2775272,
              48.3195675
            ],
            [
              14.2778452,
              48.3192696
            ],
            [
              14.2779341,
              48.3191862
            ],
            [
              14.2780836,
              48.3190462
            ],
            [
              14.2781666,
              48.3189684
            ],
            [
              14.2782077,
              48.3189299
            ],
            [
              14.2782627,
              48.3188784
            ],
            [
              14.2784709,
              48.3186824
            ],
            [
              14.2784853,
              48.3186688
            ],
            [
              14.2786308,
              48.3185319
            ],
            [
              14.2786743,
              48.3184909
            ],
            [
              14.2789923,
              48.3181915
            ],
            [
              14.2791499,
              48.3180431
            ],
            [
              14.2793344,
              48.3178694
            ],
            [
              14.2795269,
              48.3176881
            ],
            [
              14.2795845,
              48.317634
            ],
            [
              14.2795978,
              48.3176214
            ],
            [
              14.2796758,
              48.317548
            ],
            [
              14.2796869,
              48.3175207
            ],
            [
              14.2797778,
              48.3172976
            ],
            [
              14.2798569,
              48.3171036
            ],
            [
              14.2798994,
              48.3169993
            ],
            [
              14.2800505,
              48.3166284
            ],
            [
              14.2801745,
              48.3163095
            ],
            [
              14.2803046,
              48.3159752
            ],
            [
              14.2803578,
              48.3158384
            ],
            [
              14.2804413,
              48.3156237
            ],
            [
              14.2804466,
              48.3156102
            ],
            [
              14.2804878,
              48.3155042
            ],
            [
              14.2805255,
              48.3154152
            ],
            [
              14.2805752,
              48.315287
            ],
            [
              14.2806584,
              48.3151402
            ],
            [
              14.2808343,
              48.3148296
            ],
            [
              14.280945,
              48.3146333
            ],
            [
              14.280977,
              48.3145766
            ],
            [
              14.281004,
              48.3145288
            ],
            [
              14.2815068,
              48.3136372
            ],
            [
              14.281538,
              48.3135845
            ],
            [
              14.2815586,
              48.3135484
            ],
            [
              14.281768,
              48.313182
            ],
            [
              14.2818666,
              48.3130121
            ],
            [
              14.2818995,
              48.3129554
            ],
            [
              14.2819177,
              48.3129266
            ],
            [
              14.2819453,
              48.3128838
            ],
            [
              14.2820153,
              48.3129055
            ],
            [
              14.2822223,
              48.3129682
            ],
            [
              14.282362,
              48.3130079
            ],
            [
              14.2827974,
              48.3131317
            ],
            [
              14.2828464,
              48.313056
            ],
            [
              14.2832104,
              48.3125547
            ],
            [
              14.2832218,
              48.3124934
            ],
            [
              14.2832265,
              48.3124684
            ],
            [
              14.2832464,
              48.3124149
            ],
            [
              14.283299,
              48.3123549
            ],
            [
              14.2833839,
              48.3122828
            ],
            [
              14.2834439,
              48.3122221
            ],
            [
              14.2836342,
              48.3119511
            ],
            [
              14.2836757,
              48.3118847
            ],
            [
              14.2836922,
              48.3118468
            ],
            [
              14.2837024,
              48.3118015
            ],
            [
              14.283629,
              48.3117791
            ],
            [
              14.2835677,
              48.3117578
            ],
            [
              14.2834514,
              48.3117163
            ],
            [
              14.2834053,
              48.311697
            ],
            [
              14.2832749,
              48.3116422
            ]
          ],
          [
            [
              14.2816971,
              48.3131242
            ],
            [
              14.2817463,
              48.313103
            ],
            [
              14.2818083,
              48.3129955
            ],
            [
              14.2817744,
              48.3129859
            ]
          ],
          [
            [
              14.2831159,
              48.3234228
            ],
            [
              14.2830697,
              48.3231554
            ],
            [
              14.2830315,
              48.3231583
            ]
          ],
          [
            [
              14.2843101,
              48.3267854
            ],
            [
              14.284322,
              48.326764
            ],
            [
              14.2842402,
              48.3265545
            ],
            [
              14.2842256,
              48.3265467
            ]
          ]
        ]
      },
      "id": "relation/1147288"
    }
  ]
}