{
  "type": "FeatureCollection",
  "features": [
    {
      "type": "Feature",
      "properties": {
        "@id": "relation/5505691",
        "colour": "#e4ae44",
        "from": "Ziegeleistraße",
        "name": "Bus 107: Ziegeleistraße => Hatschekstraße",
        "network": "Oberösterreichischer Verkehrsverbund",
        "network:short": "OÖVV",
        "network:wikidata": "Q2011605",
        "network:wikipedia": "de:Oberösterreichischer Verkehrsverbund",
        "operator": "Linz Linien GmbH",
        "public_transport:version": "2",
        "ref": "107",
        "route": "bus",
        "to": "Hatschekstraße",
        "type": "route"
      },
      "geometry": {
        "type": "MultiLineString",
        "coordinates": [
          [
            [
              14.2862535,
              48.2761683
            ],
            [
              14.2863173,
              48.2761488
            ],
            [
              14.2863813,
              48.2761334
            ],
            [
              14.2864674,
              48.2761166
            ],
            [
              14.286611,
              48.2760929
            ],
            [
              14.2868533,
              48.2760497
            ],
            [
              14.2869464,
              48.2760264
            ],
            [
              14.2869788,
              48.2760171
            ],
            [
              14.2870334,
              48.2760015
            ],
            [
              14.2871134,
              48.275974
            ],
            [
              14.2872687,
              48.275915
            ],
            [
              14.2873341,
              48.2758877
            ],
            [
              14.28742,
              48.2758519
            ],
            [
              14.2875096,
              48.2758078
            ],
            [
              14.2876746,
              48.2757321
            ],
            [
              14.2878271,
              48.2756639
            ],
            [
              14.2878613,
              48.2756486
            ],
            [
              14.2879659,
              48.2756009
            ],
            [
              14.2880058,
              48.2755785
            ],
            [
              14.288035,
              48.2755589
            ],
            [
              14.2880947,
              48.275596
            ],
            [
              14.2881604,
              48.2756299
            ],
            [
              14.2882035,
              48.2756437
            ],
            [
              14.2883679,
              48.2756453
            ],
            [
              14.2891907,
              48.2756534
            ],
            [
              14.2896173,
              48.2756576
            ],
            [
              14.2896252,
              48.27552
            ],
            [
              14.2896338,
              48.2753706
            ],
            [
              14.2896446,
              48.2753491
            ],
            [
              14.2896747,
              48.2753433
            ],
            [
              14.2900714,
              48.2753371
            ],
            [
              14.2901701,
              48.2753355
            ],
            [
              14.2906272,
              48.2753277
            ],
            [
              14.2909309,
              48.275321
            ],
            [
              14.2909967,
              48.2753176
            ],
            [
              14.2911946,
              48.2753073
            ],
            [
              14.2915071,
              48.2752866
            ],
            [
              14.2916151,
              48.2752746
            ],
            [
              14.2918044,
              48.2752536
            ],
            [
              14.2920985,
              48.2752222
            ],
            [
              14.2921904,
              48.2752124
            ],
            [
              14.2922482,
              48.2752062
            ],
            [
              14.2922536,
              48.2750066
            ],
            [
              14.2922574,
              48.274869
            ]
          ],
          [
            [
              14.2860247,
              48.2761919
            ],
            [
              14.2860177,
              48.2761708
            ],
            [
              14.2860203,
              48.276156
            ],
            [
              14.2860292,
              48.2761416
            ],
            [
              14.2860457,
              48.2761284
            ],
            [
              14.2860644,
              48.2761202
            ],
            [
              14.2860846,
              48.2761157
            ],
            [
              14.2861067,
              48.2761149
            ],
            [
              14.286137,
              48.2761204
            ],
            [
              14.2862152,
              48.2761466
            ],
            [
              14.2862303,
              48.2761522
            ],
            [
              14.2862446,
              48.2761608
            ],
            [
              14.2862535,
              48.2761683
            ],
            [
              14.2862587,
              48.2761761
            ],
            [
              14.2862646,
              48.2761928
            ],
            [
              14.2862611,
              48.2762131
            ],
            [
              14.2862504,
              48.2762278
            ],
            [
              14.2862336,
              48.2762397
            ],
            [
              14.2862143,
              48.2762473
            ],
            [
              14.2861902,
              48.2762513
            ],
            [
              14.2861628,
              48.2762499
            ],
            [
              14.286142,
              48.2762444
            ],
            [
              14.2860633,
              48.2762188
            ],
            [
              14.286043,
              48.2762093
            ],
            [
              14.2860247,
              48.2761919
            ]
          ],
          [
            [
              14.2721545,
              48.2920505
            ],
            [
              14.2717561,
              48.2922063
            ],
            [
              14.2715099,
              48.2923048
            ],
            [
              14.2713754,
              48.2923495
            ],
            [
              14.2713438,
              48.2923194
            ],
            [
              14.2713227,
              48.2922903
            ],
            [
              14.2713137,
              48.2922748
            ],
            [
              14.2713058,
              48.2922613
            ],
            [
              14.2712988,
              48.2922461
            ],
            [
              14.2712915,
              48.2922279
            ],
            [
              14.2712867,
              48.2922017
            ],
            [
              14.2712849,
              48.2921809
            ],
            [
              14.271284,
              48.2921524
            ],
            [
              14.2712998,
              48.2920857
            ],
            [
              14.2713182,
              48.2920029
            ],
            [
              14.2713538,
              48.2918428
            ],
            [
              14.2713648,
              48.2917936
            ],
            [
              14.271372,
              48.2917611
            ],
            [
              14.2713786,
              48.2917294
            ],
            [
              14.2713873,
              48.2916599
            ],
            [
              14.2713882,
              48.2916484
            ],
            [
              14.2713924,
              48.2915939
            ],
            [
              14.2713893,
              48.2915307
            ],
            [
              14.2713829,
              48.2914762
            ],
            [
              14.2713758,
              48.2914515
            ],
            [
              14.2713661,
              48.2914177
            ],
            [
              14.271353,
              48.2913767
            ],
            [
              14.2713372,
              48.291349
            ],
            [
              14.2713093,
              48.2913002
            ],
            [
              14.2712512,
              48.2912189
            ],
            [
              14.2712395,
              48.2912042
            ],
            [
              14.2711992,
              48.2911533
            ],
            [
              14.2711434,
              48.2910913
            ],
            [
              14.2711131,
              48.2910626
            ],
            [
              14.271047,
              48.2909997
            ],
            [
              14.2710198,
              48.2909776
            ],
            [
              14.2709505,
              48.2909212
            ],
            [
              14.2708753,
              48.2908671
            ],
            [
              14.2707917,
              48.2908136
            ],
            [
              14.2707059,
              48.2907614
            ],
            [
              14.2706127,
              48.2907153
            ],
            [
              14.2705146,
              48.2906721
            ],
            [
              14.2704297,
              48.2906346
            ],
            [
              14.2703269,
              48.2905943
            ],
            [
              14.2701073,
              48.290511
            ],
            [
              14.2700517,
              48.2904861
            ],
            [
              14.2699787,
              48.2904534
            ],
            [
              14.2698771,
              48.2904079
            ],
            [
              14.2695775,
              48.2902804
            ],
            [
              14.2695402,
              48.2902645
            ],
            [
              14.2695012,
              48.2902481
            ],
            [
              14.2692377,
              48.2901373
            ],
            [
              14.2691774,
              48.290112
            ],
            [
              14.2690771,
              48.2900643
            ],
            [
              14.2689764,
              48.2900059
            ],
            [
              14.2688736,
              48.289932
            ],
            [
              14.2688476,
              48.2899091
            ],
            [
              14.2687984,
              48.2898641
            ],
            [
              14.2688578,
              48.2898326
            ],
            [
              14.268893,
              48.2898109
            ],
            [
              14.2690605,
              48.2897321
            ],
            [
              14.2691492,
              48.2896904
            ],
            [
              14.2692904,
              48.289624
            ],
            [
              14.2695146,
              48.2895185
            ],
            [
              14.2695287,
              48.2895119
            ],
            [
              14.2696156,
              48.2894771
            ],
            [
              14.2697068,
              48.2894406
            ],
            [
              14.2697516,
              48.2894226
            ],
            [
              14.2699971,
              48.2893389
            ],
            [
              14.270026,
              48.2893291
            ],
            [
              14.2700452,
              48.2893234
            ],
            [
              14.2700672,
              48.2893169
            ],
            [
              14.2703085,
              48.289245
            ],
            [
              14.2703186,
              48.289242
            ],
            [
              14.2703493,
              48.2892328
            ],
            [
              14.2705089,
              48.2891903
            ],
            [
              14.2705564,
              48.2891776
            ],
            [
              14.2706414,
              48.2891549
            ],
            [
              14.2707755,
              48.289126
            ],
            [
              14.270805,
              48.2891197
            ],
            [
              14.2708801,
              48.2891035
            ],
            [
              14.2709832,
              48.2890857
            ],
            [
              14.2710384,
              48.2890762
            ],
            [
              14.2711109,
              48.2890637
            ],
            [
              14.2714349,
              48.2890159
            ],
            [
              14.2715205,
              48.2890049
            ],
            [
              14.2715497,
              48.2890011
            ],
            [
              14.2718591,
              48.2889605
            ],
            [
              14.2719343,
              48.2889507
            ],
            [
              14.2719259,
              48.2888995
            ],
            [
              14.2719172,
              48.2888462
            ],
            [
              14.2718796,
              48.288706
            ],
            [
              14.2718752,
              48.2886897
            ],
            [
              14.2718552,
              48.2886149
            ],
            [
              14.2718266,
              48.2885517
            ],
            [
              14.2717794,
              48.2884633
            ],
            [
              14.2716791,
              48.2883248
            ],
            [
              14.2715946,
              48.288221
            ],
            [
              14.2715589,
              48.2881786
            ],
            [
              14.2714226,
              48.2880218
            ],
            [
              14.271385,
              48.2879795
            ],
            [
              14.2713076,
              48.2878922
            ],
            [
              14.2711896,
              48.2877566
            ],
            [
              14.2712201,
              48.287743
            ],
            [
              14.2712955,
              48.2877118
            ],
            [
              14.271348,
              48.2876487
            ],
            [
              14.2714493,
              48.2874432
            ],
            [
              14.2714855,
              48.2873698
            ],
            [
              14.2715154,
              48.2873092
            ],
            [
              14.2717476,
              48.286886
            ],
            [
              14.2717916,
              48.2868244
            ],
            [
              14.2718552,
              48.2867517
            ],
            [
              14.2719373,
              48.2866746
            ],
            [
              14.2719931,
              48.2866347
            ],
            [
              14.272086,
              48.2865684
            ],
            [
              14.2721107,
              48.2865508
            ],
            [
              14.2722531,
              48.2864503
            ],
            [
              14.2727669,
              48.2860879
            ],
            [
              14.2729947,
              48.2859125
            ],
            [
              14.2730773,
              48.2858477
            ],
            [
              14.2731059,
              48.2858188
            ],
            [
              14.2731312,
              48.2857895
            ],
            [
              14.2731707,
              48.2857551
            ],
            [
              14.2732319,
              48.2857068
            ],
            [
              14.2734082,
              48.285573
            ],
            [
              14.2739782,
              48.2851407
            ],
            [
              14.2740443,
              48.2850858
            ],
            [
              14.2740828,
              48.2850498
            ],
            [
              14.2741087,
              48.2850223
            ],
            [
              14.2741344,
              48.28499
            ],
            [
              14.2741559,
              48.2849604
            ],
            [
              14.274174,
              48.2849283
            ],
            [
              14.2741858,
              48.2849002
            ],
            [
              14.2741957,
              48.2848689
            ],
            [
              14.2742046,
              48.2848315
            ],
            [
              14.2742091,
              48.284802
            ],
            [
              14.2742128,
              48.2847682
            ],
            [
              14.2742133,
              48.2847307
            ],
            [
              14.274211,
              48.2846916
            ],
            [
              14.2742029,
              48.2846512
            ],
            [
              14.2741924,
              48.2846108
            ],
            [
              14.2741815,
              48.2845695
            ],
            [
              14.2741706,
              48.2845258
            ],
            [
              14.2741672,
              48.2844863
            ],
            [
              14.2741689,
              48.284448
            ],
            [
              14.2741731,
              48.2844129
            ],
            [
              14.2741792,
              48.2843823
            ],
            [
              14.2741906,
              48.2843502
            ],
            [
              14.274207,
              48.2843172
            ],
            [
              14.2742252,
              48.2842868
            ],
            [
              14.274253,
              48.2842497
            ],
            [
              14.2742866,
              48.2842146
            ],
            [
              14.2743191,
              48.2841882
            ],
            [
              14.2744306,
              48.2841176
            ],
            [
              14.2750627,
              48.2837339
            ],
            [
              14.2751086,
              48.2837076
            ],
            [
              14.2753258,
              48.2835776
            ],
            [
              14.2757947,
              48.2832956
            ],
            [
              14.2758441,
              48.2832658
            ],
            [
              14.2759131,
              48.2832243
            ],
            [
              14.2760567,
              48.2831364
            ],
            [
              14.2762163,
              48.2830392
            ],
            [
              14.2767735,
              48.2827007
            ],
            [
              14.2769515,
              48.282592
            ],
            [
              14.2770107,
              48.282555
            ],
            [
              14.2771504,
              48.2824703
            ],
            [
              14.2771963,
              48.2824432
            ],
            [
              14.2774215,
              48.2823064
            ],
            [
              14.2776072,
              48.2821957
            ],
            [
              14.2777626,
              48.2820995
            ],
            [
              14.2780177,
              48.2819479
            ],
            [
              14.2780764,
              48.2819001
            ],
            [
              14.2781229,
              48.2818596
            ],
            [
              14.2781617,
              48.2818162
            ],
            [
              14.2782134,
              48.2817494
            ],
            [
              14.2783334,
              48.2815683
            ],
            [
              14.2783982,
              48.2814798
            ],
            [
              14.2784307,
              48.2814416
            ],
            [
              14.2784603,
              48.2814068
            ],
            [
              14.278544,
              48.2813314
            ],
            [
              14.2785877,
              48.2812989
            ],
            [
              14.2786755,
              48.2812335
            ],
            [
              14.2788069,
              48.2811534
            ],
            [
              14.2788314,
              48.2811384
            ],
            [
              14.2789469,
              48.2810768
            ],
            [
              14.2790194,
              48.2810434
            ],
            [
              14.279102,
              48.2810054
            ],
            [
              14.2789418,
              48.2809175
            ],
            [
              14.2788365,
              48.2808597
            ],
            [
              14.278782,
              48.2808298
            ],
            [
              14.2786575,
              48.2807671
            ],
            [
              14.2785027,
              48.2806902
            ],
            [
              14.2784568,
              48.2806689
            ],
            [
              14.2783525,
              48.2806206
            ],
            [
              14.2781628,
              48.2805328
            ],
            [
              14.277971,
              48.2804451
            ],
            [
              14.2779492,
              48.2804351
            ],
            [
              14.2779217,
              48.2804216
            ],
            [
              14.2778193,
              48.2803712
            ],
            [
              14.2776317,
              48.2802757
            ],
            [
              14.2775916,
              48.2802534
            ],
            [
              14.2774979,
              48.2802011
            ],
            [
              14.2774054,
              48.2801407
            ],
            [
              14.2773853,
              48.2801276
            ],
            [
              14.2773575,
              48.2801046
            ],
            [
              14.277319,
              48.2800728
            ],
            [
              14.2770898,
              48.2799044
            ],
            [
              14.2770326,
              48.2798654
            ],
            [
              14.2769139,
              48.2797842
            ],
            [
              14.2768881,
              48.2797666
            ],
            [
              14.27675,
              48.2796723
            ],
            [
              14.2766378,
              48.2795956
            ],
            [
              14.2764937,
              48.2794972
            ],
            [
              14.2763637,
              48.2794084
            ],
            [
              14.2761122,
              48.2792365
            ],
            [
              14.276035,
              48.2791837
            ],
            [
              14.2759188,
              48.2791045
            ],
            [
              14.2757886,
              48.2790169
            ],
            [
              14.2757136,
              48.2789664
            ],
            [
              14.2755116,
              48.2788305
            ],
            [
              14.2754002,
              48.2787577
            ],
            [
              14.2750313,
              48.2785168
            ],
            [
              14.2749789,
              48.2784787
            ],
            [
              14.2749416,
              48.2784546
            ],
            [
              14.2747819,
              48.278354
            ],
            [
              14.2747603,
              48.2783399
            ],
            [
              14.2750021,
              48.2781773
            ],
            [
              14.2757641,
              48.2776648
            ],
            [
              14.2759689,
              48.277527
            ],
            [
              14.2760456,
              48.2774754
            ],
            [
              14.2763046,
              48.2772967
            ],
            [
              14.2763445,
              48.2772795
            ],
            [
              14.2763941,
              48.2772728
            ],
            [
              14.2764412,
              48.2772762
            ],
            [
              14.2765122,
              48.2772978
            ],
            [
              14.2765726,
              48.2773182
            ],
            [
              14.2766054,
              48.2773237
            ],
            [
              14.2766455,
              48.277325
            ],
            [
              14.2766921,
              48.2773189
            ],
            [
              14.2767266,
              48.2773098
            ],
            [
              14.2767606,
              48.2772936
            ],
            [
              14.2768727,
              48.277235
            ],
            [
              14.2769798,
              48.2771754
            ],
            [
              14.2770188,
              48.2771516
            ],
            [
              14.2770884,
              48.2771028
            ],
            [
              14.2772193,
              48.2770111
            ],
            [
              14.2772307,
              48.2770031
            ],
            [
              14.2773156,
              48.2769435
            ],
            [
              14.2773431,
              48.2769242
            ],
            [
              14.2775854,
              48.2767516
            ],
            [
              14.2778923,
              48.2765331
            ],
            [
              14.2779218,
              48.2765123
            ],
            [
              14.2780304,
              48.2764321
            ],
            [
              14.2781862,
              48.276317
            ],
            [
              14.2784543,
              48.2761334
            ],
            [
              14.2785148,
              48.2760919
            ],
            [
              14.2786172,
              48.2760168
            ],
            [
              14.2786809,
              48.2759669
            ],
            [
              14.2786897,
              48.27596
            ],
            [
              14.2787375,
              48.2759145
            ],
            [
              14.2787827,
              48.2758633
            ],
            [
              14.2788148,
              48.2758151
            ],
            [
              14.2788965,
              48.2756779
            ],
            [
              14.2790639,
              48.2753969
            ],
            [
              14.2791976,
              48.2751951
            ],
            [
              14.2796739,
              48.274559
            ],
            [
              14.2797694,
              48.2744313
            ],
            [
              14.2798098,
              48.2743773
            ],
            [
              14.2798967,
              48.2742612
            ],
            [
              14.2799639,
              48.2742851
            ],
            [
              14.280177,
              48.2743663
            ],
            [
              14.2802216,
              48.2743833
            ],
            [
              14.2802879,
              48.2744089
            ],
            [
              14.2804409,
              48.2744678
            ],
            [
              14.2810182,
              48.2746903
            ],
            [
              14.2811001,
              48.2747219
            ],
            [
              14.2811626,
              48.274746
            ],
            [
              14.2812363,
              48.2747725
            ],
            [
              14.2813324,
              48.27481
            ],
            [
              14.2815299,
              48.274887
            ],
            [
              14.2817485,
              48.2749722
            ],
            [
              14.2818967,
              48.27503
            ],
            [
              14.281963,
              48.2750558
            ],
            [
              14.2821285,
              48.2751204
            ],
            [
              14.2821581,
              48.2751321
            ],
            [
              14.2821964,
              48.2751472
            ],
            [
              14.2822372,
              48.2751634
            ],
            [
              14.2822974,
              48.2751872
            ],
            [
              14.2823703,
              48.275216
            ],
            [
              14.2824985,
              48.2752704
            ],
            [
              14.2825261,
              48.2752848
            ],
            [
              14.282554,
              48.2752994
            ],
            [
              14.2826008,
              48.2753238
            ],
            [
              14.2826129,
              48.2753301
            ],
            [
              14.2826352,
              48.2753418
            ],
            [
              14.2828217,
              48.2754651
            ],
            [
              14.2828557,
              48.2754875
            ],
            [
              14.2828892,
              48.2755097
            ],
            [
              14.2830033,
              48.2755884
            ],
            [
              14.2831947,
              48.2757204
            ],
            [
              14.2832292,
              48.275743
            ],
            [
              14.2832697,
              48.2757696
            ],
            [
              14.2832785,
              48.2757754
            ],
            [
              14.2833268,
              48.275807
            ],
            [
              14.2833868,
              48.2758446
            ],
            [
              14.2834853,
              48.2759063
            ],
            [
              14.2835182,
              48.2759258
            ],
            [
              14.2835505,
              48.275945
            ],
            [
              14.2836203,
              48.2759846
            ],
            [
              14.283874,
              48.2761217
            ],
            [
              14.2839941,
              48.2761886
            ],
            [
              14.28407,
              48.2762365
            ],
            [
              14.2841282,
              48.2762734
            ],
            [
              14.2841359,
              48.2762782
            ],
            [
              14.2842573,
              48.2763681
            ],
            [
              14.2843011,
              48.2764005
            ],
            [
              14.2843411,
              48.2764301
            ],
            [
              14.2845344,
              48.2765776
            ],
            [
              14.2846635,
              48.2766792
            ],
            [
              14.2847196,
              48.2767234
            ],
            [
              14.2847285,
              48.2767304
            ],
            [
              14.2848828,
              48.2768529
            ],
            [
              14.2849485,
              48.2769079
            ],
            [
              14.2849924,
              48.2768844
            ],
            [
              14.2850407,
              48.2768584
            ],
            [
              14.2854149,
              48.2767356
            ],
            [
              14.2854666,
              48.2767157
            ],
            [
              14.2855707,
              48.2766596
            ],
            [
              14.2855587,
              48.2766439
            ],
            [
              14.285546,
              48.2766216
            ],
            [
              14.2855332,
              48.2765857
            ],
            [
              14.2855197,
              48.2765283
            ],
            [
              14.2855097,
              48.2764575
            ],
            [
              14.2855103,
              48.2764298
            ],
            [
              14.2855174,
              48.276396
            ],
            [
              14.2855399,
              48.2763601
            ],
            [
              14.285559,
              48.2763393
            ],
            [
              14.2855835,
              48.2763205
            ],
            [
              14.285612,
              48.2763011
            ],
            [
              14.2856468,
              48.2762839
            ],
            [
              14.285734,
              48.2762492
            ],
            [
              14.2857853,
              48.2762329
            ],
            [
              14.285828,
              48.2762193
            ],
            [
              14.2859685,
              48.2761979
            ],
            [
              14.2860247,
              48.2761919
            ]
          ],
          [
            [
              14.2755116,
              48.2788305
            ],
            [
              14.275537,
              48.2788108
            ],
            [
              14.2756677,
              48.2786847
            ],
            [
              14.2757864,
              48.278597
            ],
            [
              14.2759603,
              48.2785024
            ],
            [
              14.2760796,
              48.2784419
            ],
            [
              14.276311,
              48.2783237
            ],
            [
              14.2760796,
              48.2784419
            ],
            [
              14.2759603,
              48.2785024
            ],
            [
              14.2757864,
              48.278597
            ],
            [
              14.2756677,
              48.2786847
            ],
            [
              14.275537,
              48.2788108
            ],
            [
              14.2755116,
              48.2788305
            ]
          ],
          [
            [
              14.276311,
              48.2783237
            ],
            [
              14.2764104,
              48.2782737
            ],
            [
              14.276447,
              48.2782553
            ],
            [
              14.2765644,
              48.2782203
            ],
            [
              14.276447,
              48.2782553
            ],
            [
              14.2764104,
              48.2782737
            ],
            [
              14.276311,
              48.2783237
            ]
          ],
          [
            [
              14.2765644,
              48.2782203
            ],
            [
              14.2766428,
              48.2782256
            ],
            [
              14.2765644,
              48.2782203
            ]
          ],
          [
            [
              14.2766412,
              48.2783552
            ],
            [
              14.2766359,
              48.2783169
            ],
            [
              14.2766405,
              48.2782561
            ],
            [
              14.2766428,
              48.2782256
            ],
            [
              14.2767571,
              48.2782614
            ],
            [
              14.276861,
              48.2783114
            ],
            [
              14.2768503,
              48.2783402
            ],
            [
              14.2768207,
              48.2783733
            ],
            [
              14.276801,
              48.2783838
            ],
            [
              14.2767805,
              48.2783949
            ],
            [
              14.2767272,
              48.2784021
            ],
            [
              14.2766724,
              48.2783885
            ],
            [
              14.2766412,
              48.2783552
            ]
          ],
          [
            [
              14.2922039,
              48.2748574
            ],
            [
              14.2922157,
              48.2748582
            ],
            [
              14.2922149,
              48.2748904
            ],
            [
              14.2922026,
              48.2748904
            ]
          ],
          [
            [
              14.2712607,
              48.2879094
            ],
            [
              14.2713341,
              48.2879969
            ]
          ],
          [
            [
              14.2721256,
              48.2921306
            ],
            [
              14.2723191,
              48.2920566
            ]
          ]
        ]
      },
      "id": "relation/5505691"
    },
    {
      "type": "Feature",
      "properties": {
        "@id": "relation/5505733",
        "colour": "#e4ae44",
        "from": "Hatschekstraße",
        "name": "Bus 107: Hatschekstraße => Ziegeleistraße",
        "network": "Oberösterreichischer Verkehrsverbund",
        "network:short": "OÖVV",
        "network:wikidata": "Q2011605",
        "network:wikipedia": "de:Oberösterreichischer Verkehrsverbund",
        "operator": "Linz Linien GmbH",
        "public_transport:version": "2",
        "ref": "107",
        "route": "bus",
        "to": "Ziegeleistraße",
        "type": "route"
      },
      "geometry": {
        "type": "MultiLineString",
        "coordinates": [
          [
            [
              14.2721545,
              48.2920505
            ],
            [
              14.2723473,
              48.2919781
            ],
            [
              14.2726202,
              48.2918716
            ],
            [
              14.2725769,
              48.2918218
            ],
            [
              14.2725635,
              48.2918022
            ],
            [
              14.2725549,
              48.2917832
            ],
            [
              14.2725514,
              48.291771
            ],
            [
              14.2725486,
              48.2917473
            ],
            [
              14.2725502,
              48.2917273
            ],
            [
              14.2725544,
              48.2917077
            ],
            [
              14.2725655,
              48.2916749
            ],
            [
              14.2725937,
              48.2916086
            ],
            [
              14.2726176,
              48.2915525
            ],
            [
              14.2726566,
              48.2914507
            ],
            [
              14.2726958,
              48.2913365
            ],
            [
              14.2727107,
              48.2912862
            ],
            [
              14.2727245,
              48.2912335
            ],
            [
              14.2727382,
              48.2911776
            ],
            [
              14.2727492,
              48.2911152
            ],
            [
              14.2727606,
              48.291037
            ],
            [
              14.272763,
              48.2910122
            ],
            [
              14.2727696,
              48.2909457
            ],
            [
              14.2727805,
              48.2908137
            ],
            [
              14.2727862,
              48.2907211
            ],
            [
              14.2727911,
              48.2905989
            ],
            [
              14.2728103,
              48.2902092
            ],
            [
              14.2728189,
              48.2900349
            ],
            [
              14.2728324,
              48.2898583
            ],
            [
              14.2728369,
              48.289738
            ],
            [
              14.2728416,
              48.2896598
            ],
            [
              14.2727634,
              48.2896594
            ],
            [
              14.2727248,
              48.2896592
            ],
            [
              14.2724076,
              48.2896995
            ],
            [
              14.2721193,
              48.2897362
            ],
            [
              14.2721112,
              48.289703
            ],
            [
              14.2719725,
              48.2891311
            ],
            [
              14.2719462,
              48.2890228
            ],
            [
              14.2719427,
              48.2890013
            ],
            [
              14.2719343,
              48.2889507
            ],
            [
              14.2719259,
              48.2888995
            ],
            [
              14.2719172,
              48.2888462
            ],
            [
              14.2718796,
              48.288706
            ],
            [
              14.2718752,
              48.2886897
            ],
            [
              14.2718552,
              48.2886149
            ],
            [
              14.2718266,
              48.2885517
            ],
            [
              14.2717794,
              48.2884633
            ],
            [
              14.2716791,
              48.2883248
            ],
            [
              14.2715946,
              48.288221
            ],
            [
              14.2715589,
              48.2881786
            ],
            [
              14.2714226,
              48.2880218
            ],
            [
              14.271385,
              48.2879795
            ],
            [
              14.2713076,
              48.2878922
            ],
            [
              14.2711896,
              48.2877566
            ],
            [
              14.2712201,
              48.287743
            ],
            [
              14.2712955,
              48.2877118
            ],
            [
              14.271348,
              48.2876487
            ],
            [
              14.2714493,
              48.2874432
            ],
            [
              14.2714855,
              48.2873698
            ],
            [
              14.2715154,
              48.2873092
            ],
            [
              14.2717476,
              48.286886
            ],
            [
              14.2717916,
              48.2868244
            ],
            [
              14.2718552,
              48.2867517
            ],
            [
              14.2719373,
              48.2866746
            ],
            [
              14.2719931,
              48.2866347
            ],
            [
              14.272086,
              48.2865684
            ],
            [
              14.2721107,
              48.2865508
            ],
            [
              14.2722531,
              48.2864503
            ],
            [
              14.2727669,
              48.2860879
            ],
            [
              14.2729947,
              48.2859125
            ],
            [
              14.2730773,
              48.2858477
            ],
            [
              14.2731059,
              48.2858188
            ],
            [
              14.2731312,
              48.2857895
            ],
            [
              14.2731707,
              48.2857551
            ],
            [
              14.2732319,
              48.2857068
            ],
            [
              14.2734082,
              48.285573
            ],
            [
              14.2739782,
              48.2851407
            ],
            [
              14.2740443,
              48.2850858
            ],
            [
              14.2740828,
              48.2850498
            ],
            [
              14.2741087,
              48.2850223
            ],
            [
              14.2741344,
              48.28499
            ],
            [
              14.2741559,
              48.2849604
            ],
            [
              14.274174,
              48.2849283
            ],
            [
              14.2741858,
              48.2849002
            ],
            [
              14.2741957,
              48.2848689
            ],
            [
              14.2742046,
              48.2848315
            ],
            [
              14.2742091,
              48.284802
            ],
            [
              14.2742128,
              48.2847682
            ],
            [
              14.2742133,
              48.2847307
            ],
            [
              14.274211,
              48.2846916
            ],
            [
              14.2742029,
              48.2846512
            ],
            [
              14.2741924,
              48.2846108
            ],
            [
              14.2741815,
              48.2845695
            ],
            [
              14.2741706,
              48.2845258
            ],
            [
              14.2741672,
              48.2844863
            ],
            [
              14.2741689,
              48.284448
            ],
            [
              14.2741731,
              48.2844129
            ],
            [
              14.2741792,
              48.2843823
            ],
            [
              14.2741906,
              48.2843502
            ],
            [
              14.274207,
              48.2843172
            ],
            [
              14.2742252,
              48.2842868
            ],
            [
              14.274253,
              48.2842497
            ],
            [
              14.2742866,
              48.2842146
            ],
            [
              14.2743191,
              48.2841882
            ],
            [
              14.2744306,
              48.2841176
            ],
            [
              14.2750627,
              48.2837339
            ],
            [
              14.2751086,
              48.2837076
            ],
            [
              14.2753258,
              48.2835776
            ],
            [
              14.2757947,
              48.2832956
            ],
            [
              14.2758441,
              48.2832658
            ],
            [
              14.2759131,
              48.2832243
            ],
            [
              14.2760567,
              48.2831364
            ],
            [
              14.2762163,
              48.2830392
            ],
            [
              14.2767735,
              48.2827007
            ],
            [
              14.2769515,
              48.282592
            ],
            [
              14.2770107,
              48.282555
            ],
            [
              14.2771504,
              48.2824703
            ],
            [
              14.2771963,
              48.2824432
            ],
            [
              14.2774215,
              48.2823064
            ],
            [
              14.2776072,
              48.2821957
            ],
            [
              14.2777626,
              48.2820995
            ],
            [
              14.2780177,
              48.2819479
            ],
            [
              14.2780764,
              48.2819001
            ],
            [
              14.2781229,
              48.2818596
            ],
            [
              14.2781617,
              48.2818162
            ],
            [
              14.2782134,
              48.2817494
            ],
            [
              14.2783334,
              48.2815683
            ],
            [
              14.2783982,
              48.2814798
            ],
            [
              14.2784307,
              48.2814416
            ],
            [
              14.2784603,
              48.2814068
            ],
            [
              14.278544,
              48.2813314
            ],
            [
              14.2785877,
              48.2812989
            ],
            [
              14.2786755,
              48.2812335
            ],
            [
              14.2788069,
              48.2811534
            ],
            [
              14.2788314,
              48.2811384
            ],
            [
              14.2789469,
              48.2810768
            ],
            [
              14.2790194,
              48.2810434
            ],
            [
              14.279102,
              48.2810054
            ],
            [
              14.2789418,
              48.2809175
            ],
            [
              14.2788365,
              48.2808597
            ],
            [
              14.278782,
              48.2808298
            ],
            [
              14.2786575,
              48.2807671
            ],
            [
              14.2785027,
              48.2806902
            ],
            [
              14.2784568,
              48.2806689
            ],
            [
              14.2783525,
              48.2806206
            ],
            [
              14.2781628,
              48.2805328
            ],
            [
              14.277971,
              48.2804451
            ],
            [
              14.2779492,
              48.2804351
            ],
            [
              14.2779217,
              48.2804216
            ],
            [
              14.2778193,
              48.2803712
            ],
            [
              14.2776317,
              48.2802757
            ],
            [
              14.2775916,
              48.2802534
            ],
            [
              14.2774979,
              48.2802011
            ],
            [
              14.2774054,
              48.2801407
            ],
            [
              14.2773853,
              48.2801276
            ],
            [
              14.2773575,
              48.2801046
            ],
            [
              14.277319,
              48.2800728
            ],
            [
              14.2770898,
              48.2799044
            ],
            [
              14.2770326,
              48.2798654
            ],
            [
              14.2769139,
              48.2797842
            ],
            [
              14.2768881,
              48.2797666
            ],
            [
              14.27675,
              48.2796723
            ],
            [
              14.2766378,
              48.2795956
            ],
            [
              14.2764937,
              48.2794972
            ],
            [
              14.2763637,
              48.2794084
            ],
            [
              14.2761122,
              48.2792365
            ],
            [
              14.276035,
              48.2791837
            ],
            [
              14.2759188,
              48.2791045
            ],
            [
              14.2757886,
              48.2790169
            ],
            [
              14.2757136,
              48.2789664
            ],
            [
              14.2755116,
              48.2788305
            ],
            [
              14.2754002,
              48.2787577
            ],
            [
              14.2750313,
              48.2785168
            ],
            [
              14.2749789,
              48.2784787
            ],
            [
              14.2749416,
              48.2784546
            ],
            [
              14.2747819,
              48.278354
            ],
            [
              14.2747603,
              48.2783399
            ],
            [
              14.2750021,
              48.2781773
            ],
            [
              14.2757641,
              48.2776648
            ],
            [
              14.2759689,
              48.277527
            ],
            [
              14.2760456,
              48.2774754
            ],
            [
              14.2763046,
              48.2772967
            ],
            [
              14.2763445,
              48.2772795
            ],
            [
              14.2763941,
              48.2772728
            ],
            [
              14.2764412,
              48.2772762
            ],
            [
              14.2765122,
              48.2772978
            ],
            [
              14.2765726,
              48.2773182
            ],
            [
              14.2766054,
              48.2773237
            ],
            [
              14.2766455,
              48.277325
            ],
            [
              14.2766921,
              48.2773189
            ],
            [
              14.2767266,
              48.2773098
            ],
            [
              14.2767606,
              48.2772936
            ],
            [
              14.2768727,
              48.277235
            ],
            [
              14.2769798,
              48.2771754
            ],
            [
              14.2770188,
              48.2771516
            ],
            [
              14.2770884,
              48.2771028
            ],
            [
              14.2772193,
              48.2770111
            ],
            [
              14.2772307,
              48.2770031
            ],
            [
              14.2773156,
              48.2769435
            ],
            [
              14.2773431,
              48.2769242
            ],
            [
              14.2775854,
              48.2767516
            ],
            [
              14.2778923,
              48.2765331
            ],
            [
              14.2779218,
              48.2765123
            ],
            [
              14.2780304,
              48.2764321
            ],
            [
              14.2781862,
              48.276317
            ],
            [
              14.2784543,
              48.2761334
            ],
            [
              14.2785148,
              48.2760919
            ],
            [
              14.2786172,
              48.2760168
            ],
            [
              14.2786809,
              48.2759669
            ],
            [
              14.2786897,
              48.27596
            ],
            [
              14.2787375,
              48.2759145
            ],
            [
              14.2787827,
              48.2758633
            ],
            [
              14.2788148,
              48.2758151
            ],
            [
              14.2788965,
              48.2756779
            ],
            [
              14.2790639,
              48.2753969
            ],
            [
              14.2791976,
              48.2751951
            ],
            [
              14.2796739,
              48.274559
            ],
            [
              14.2797694,
              48.2744313
            ],
            [
              14.2798098,
              48.2743773
            ],
            [
              14.2798967,
              48.2742612
            ],
            [
              14.2799639,
              48.2742851
            ],
            [
              14.280177,
              48.2743663
            ],
            [
              14.2802216,
              48.2743833
            ],
            [
              14.2802879,
              48.2744089
            ],
            [
              14.2804409,
              48.2744678
            ],
            [
              14.2810182,
              48.2746903
            ],
            [
              14.2811001,
              48.2747219
            ],
            [
              14.2811626,
              48.274746
            ],
            [
              14.2812363,
              48.2747725
            ],
            [
              14.2813324,
              48.27481
            ],
            [
              14.2815299,
              48.274887
            ],
            [
              14.2817485,
              48.2749722
            ],
            [
              14.2818967,
              48.27503
            ],
            [
              14.281963,
              48.2750558
            ],
            [
              14.2821285,
              48.2751204
            ],
            [
              14.2821581,
              48.2751321
            ],
            [
              14.2821964,
              48.2751472
            ],
            [
              14.2822372,
              48.2751634
            ],
            [
              14.2822974,
              48.2751872
            ],
            [
              14.2823703,
              48.275216
            ],
            [
              14.2824985,
              48.2752704
            ],
            [
              14.2825261,
              48.2752848
            ],
            [
              14.282554,
              48.2752994
            ],
            [
              14.2826008,
              48.2753238
            ],
            [
              14.2826129,
              48.2753301
            ],
            [
              14.2826352,
              48.2753418
            ],
            [
              14.2828217,
              48.2754651
            ],
            [
              14.2828557,
              48.2754875
            ],
            [
              14.2828892,
              48.2755097
            ],
            [
              14.2830033,
              48.2755884
            ],
            [
              14.2831947,
              48.2757204
            ],
            [
              14.2832292,
              48.275743
            ],
            [
              14.2832697,
              48.2757696
            ],
            [
              14.2832785,
              48.2757754
            ],
            [
              14.2833268,
              48.275807
            ],
            [
              14.2833868,
              48.2758446
            ],
            [
              14.2834853,
              48.2759063
            ],
            [
              14.2835182,
              48.2759258
            ],
            [
              14.2835505,
              48.275945
            ],
            [
              14.2836203,
              48.2759846
            ],
            [
              14.283874,
              48.2761217
            ],
            [
              14.2839941,
              48.2761886
            ],
            [
              14.28407,
              48.2762365
            ],
            [
              14.2841282,
              48.2762734
            ],
            [
              14.2841359,
              48.2762782
            ],
            [
              14.2842573,
              48.2763681
            ],
            [
              14.2843011,
              48.2764005
            ],
            [
              14.2843411,
              48.2764301
            ],
            [
              14.2845344,
              48.2765776
            ],
            [
              14.2846635,
              48.2766792
            ],
            [
              14.2847196,
              48.2767234
            ],
            [
              14.2847285,
              48.2767304
            ],
            [
              14.2848828,
              48.2768529
            ],
            [
              14.2849485,
              48.2769079
            ],
            [
              14.2849924,
              48.2768844
            ],
            [
              14.2850407,
              48.2768584
            ],
            [
              14.2854149,
              48.2767356
            ],
            [
              14.2854666,
              48.2767157
            ],
            [
              14.2855707,
              48.2766596
            ],
            [
              14.2855587,
              48.2766439
            ],
            [
              14.285546,
              48.2766216
            ],
            [
              14.2855332,
              48.2765857
            ],
            [
              14.2855197,
              48.2765283
            ],
            [
              14.2855097,
              48.2764575
            ],
            [
              14.2855103,
              48.2764298
            ],
            [
              14.2855174,
              48.276396
            ],
            [
              14.2855399,
              48.2763601
            ],
            [
              14.285559,
              48.2763393
            ],
            [
              14.2855835,
              48.2763205
            ],
            [
              14.285612,
              48.2763011
            ],
            [
              14.2856468,
              48.2762839
            ],
            [
              14.285734,
              48.2762492
            ],
            [
              14.2857853,
              48.2762329
            ],
            [
              14.285828,
              48.2762193
            ],
            [
              14.2859685,
              48.2761979
            ],
            [
              14.2860247,
              48.2761919
            ],
            [
              14.2860177,
              48.2761708
            ],
            [
              14.2860203,
              48.276156
            ],
            [
              14.2860292,
              48.2761416
            ],
            [
              14.2860457,
              48.2761284
            ],
            [
              14.2860644,
              48.2761202
            ],
            [
              14.2860846,
              48.2761157
            ],
            [
              14.2861067,
              48.2761149
            ],
            [
              14.286137,
              48.2761204
            ],
            [
              14.2862152,
              48.2761466
            ],
            [
              14.2862303,
              48.2761522
            ],
            [
              14.2862446,
              48.2761608
            ],
            [
              14.2862535,
              48.2761683
            ],
            [
              14.2862587,
              48.2761761
            ],
            [
              14.2862646,
              48.2761928
            ],
            [
              14.2862611,
              48.2762131
            ],
            [
              14.2862504,
              48.2762278
            ],
            [
              14.2862336,
              48.2762397
            ],
            [
              14.2862143,
              48.2762473
            ],
            [
              14.2861902,
              48.2762513
            ],
            [
              14.2861628,
              48.2762499
            ],
            [
              14.286142,
              48.2762444
            ],
            [
              14.2860633,
              48.2762188
            ],
            [
              14.286043,
              48.2762093
            ],
            [
              14.2860247,
              48.2761919
            ]
          ],
          [
            [
              14.2755116,
              48.2788305
            ],
            [
              14.275537,
              48.2788108
            ],
            [
              14.2756677,
              48.2786847
            ],
            [
              14.2757864,
              48.278597
            ],
            [
              14.2759603,
              48.2785024
            ],
            [
              14.2760796,
              48.2784419
            ],
            [
              14.276311,
              48.2783237
            ],
            [
              14.2760796,
              48.2784419
            ],
            [
              14.2759603,
              48.2785024
            ],
            [
              14.2757864,
              48.278597
            ],
            [
              14.2756677,
              48.2786847
            ],
            [
              14.275537,
              48.2788108
            ],
            [
              14.2755116,
              48.2788305
            ]
          ],
          [
            [
              14.276311,
              48.2783237
            ],
            [
              14.2764104,
              48.2782737
            ],
            [
              14.276447,
              48.2782553
            ],
            [
              14.2765644,
              48.2782203
            ],
            [
              14.276447,
              48.2782553
            ],
            [
              14.2764104,
              48.2782737
            ],
            [
              14.276311,
              48.2783237
            ]
          ],
          [
            [
              14.2765644,
              48.2782203
            ],
            [
              14.2766428,
              48.2782256
            ],
            [
              14.2765644,
              48.2782203
            ]
          ],
          [
            [
              14.2766412,
              48.2783552
            ],
            [
              14.2766359,
              48.2783169
            ],
            [
              14.2766405,
              48.2782561
            ],
            [
              14.2766428,
              48.2782256
            ],
            [
              14.2767571,
              48.2782614
            ],
            [
              14.276861,
              48.2783114
            ],
            [
              14.2768503,
              48.2783402
            ],
            [
              14.2768207,
              48.2783733
            ],
            [
              14.276801,
              48.2783838
            ],
            [
              14.2767805,
              48.2783949
            ],
            [
              14.2767272,
              48.2784021
            ],
            [
              14.2766724,
              48.2783885
            ],
            [
              14.2766412,
              48.2783552
            ]
          ],
          [
            [
              14.2862535,
              48.2761683
            ],
            [
              14.2863173,
              48.2761488
            ],
            [
              14.2863813,
              48.2761334
            ],
            [
              14.2864674,
              48.2761166
            ],
            [
              14.286611,
              48.2760929
            ],
            [
              14.2868533,
              48.2760497
            ],
            [
              14.2869464,
              48.2760264
            ],
            [
              14.2869788,
              48.2760171
            ],
            [
              14.2870334,
              48.2760015
            ],
            [
              14.2871134,
              48.275974
            ],
            [
              14.2872687,
              48.275915
            ],
            [
              14.2873341,
              48.2758877
            ],
            [
              14.28742,
              48.2758519
            ],
            [
              14.2875096,
              48.2758078
            ],
            [
              14.2876746,
              48.2757321
            ],
            [
              14.2878271,
              48.2756639
            ],
            [
              14.2878613,
              48.2756486
            ],
            [
              14.2879659,
              48.2756009
            ],
            [
              14.2880058,
              48.2755785
            ],
            [
              14.288035,
              48.2755589
            ],
            [
              14.2880947,
              48.275596
            ],
            [
              14.2881604,
              48.2756299
            ],
            [
              14.2882035,
              48.2756437
            ],
            [
              14.2883679,
              48.2756453
            ],
            [
              14.2891907,
              48.2756534
            ],
            [
              14.2896173,
              48.2756576
            ],
            [
              14.290003,
              48.2756614
            ],
            [
              14.2900739,
              48.2756621
            ],
            [
              14.2901597,
              48.275663
            ],
            [
              14.2901669,
              48.2754363
            ],
            [
              14.2901689,
              48.2753737
            ],
            [
              14.2901701,
              48.2753355
            ],
            [
              14.2906272,
              48.2753277
            ],
            [
              14.2909309,
              48.275321
            ],
            [
              14.2909967,
              48.2753176
            ],
            [
              14.2911946,
              48.2753073
            ],
            [
              14.2915071,
              48.2752866
            ],
            [
              14.2916151,
              48.2752746
            ],
            [
              14.2918044,
              48.2752536
            ],
            [
              14.2920985,
              48.2752222
            ],
            [
              14.2921904,
              48.2752124
            ],
            [
              14.2922482,
              48.2752062
            ],
            [
              14.2924184,
              48.2751874
            ],
            [
              14.2924765,
              48.2751761
            ],
            [
              14.2925202,
              48.275154
            ],
            [
              14.2925393,
              48.27513
            ],
            [
              14.2925467,
              48.2750994
            ],
            [
              14.2925498,
              48.2750104
            ],
            [
              14.2925563,
              48.2748259
            ],
            [
              14.2925588,
              48.2747778
            ],
            [
              14.2925306,
              48.2747659
            ],
            [
              14.2925078,
              48.2747577
            ],
            [
              14.2923895,
              48.2747583
            ],
            [
              14.292261,
              48.2747571
            ],
            [
              14.2922589,
              48.2748121
            ],
            [
              14.2922574,
              48.274869
            ]
          ],
          [
            [
              14.2721256,
              48.2921306
            ],
            [
              14.2723191,
              48.2920566
            ]
          ],
          [
            [
              14.2728561,
              48.2905732
            ],
            [
              14.272839,
              48.290574
            ],
            [
              14.2728355,
              48.2906165
            ],
            [
              14.2728539,
              48.2906175
            ]
          ],
          [
            [
              14.2722186,
              48.2865002
            ],
            [
              14.2721063,
              48.286582
            ]
          ],
          [
            [
              14.2782467,
              48.2763551
            ],
            [
              14.278214,
              48.2763727
            ],
            [
              14.2780681,
              48.2764726
            ],
            [
              14.2780844,
              48.2764843
            ]
          ],
          [
            [
              14.2922039,
              48.2748574
            ],
            [
              14.2922157,
              48.2748582
            ],
            [
              14.2922149,
              48.2748904
            ],
            [
              14.2922026,
              48.2748904
            ]
          ]
        ]
      },
      "id": "relation/5505733"
    }
  ]
}