{
  "type": "FeatureCollection",
  "features": [
    {
      "type": "Feature",
      "properties": {
        "@id": "relation/403086",
        "alternate": "no",
        "colour": "#e52c1a",
        "from": "Hessenplatz",
        "name": "Bus 41: Hessenplatz => Baintwiese",
        "network": "OÖVV",
        "network:wikidata": "Q2011605",
        "network:wikipedia": "de:Oberösterreichischer Verkehrsverbund",
        "operator": "Linz Linien GmbH",
        "public_transport:version": "2",
        "ref": "41",
        "route": "trolleybus",
        "to": "Baintwiese",
        "type": "route"
      },
      "geometry": {
        "type": "MultiLineString",
        "coordinates": [
          [
            [
              14.2934904,
              48.3009248
            ],
            [
              14.2934437,
              48.3009061
            ],
            [
              14.2934231,
              48.3008863
            ],
            [
              14.2934014,
              48.3008608
            ],
            [
              14.2933215,
              48.3007673
            ],
            [
              14.2932914,
              48.3007383
            ],
            [
              14.2932748,
              48.3007033
            ],
            [
              14.2932687,
              48.3006682
            ],
            [
              14.2935133,
              48.3004105
            ],
            [
              14.2936966,
              48.3002174
            ],
            [
              14.2937512,
              48.3001599
            ],
            [
              14.293822,
              48.3000851
            ],
            [
              14.2938642,
              48.3000406
            ],
            [
              14.293893,
              48.2999981
            ],
            [
              14.2939405,
              48.2999279
            ],
            [
              14.2942288,
              48.2994466
            ],
            [
              14.2944037,
              48.2991626
            ],
            [
              14.2944259,
              48.2991259
            ],
            [
              14.2944556,
              48.2990768
            ],
            [
              14.2944849,
              48.2990282
            ],
            [
              14.2946544,
              48.2987476
            ],
            [
              14.2947156,
              48.2986461
            ],
            [
              14.2949105,
              48.2983233
            ],
            [
              14.2950135,
              48.298155
            ],
            [
              14.2950462,
              48.2981021
            ],
            [
              14.2950684,
              48.2980661
            ],
            [
              14.2952973,
              48.2976984
            ],
            [
              14.2953367,
              48.297635
            ],
            [
              14.29546,
              48.2974369
            ],
            [
              14.29548,
              48.2974048
            ],
            [
              14.2955949,
              48.2972203
            ],
            [
              14.2956186,
              48.2971821
            ],
            [
              14.2956474,
              48.2971354
            ],
            [
              14.2956746,
              48.2970912
            ],
            [
              14.2958249,
              48.2968415
            ],
            [
              14.2959137,
              48.2966938
            ],
            [
              14.2959821,
              48.2965802
            ],
            [
              14.2960595,
              48.2964517
            ],
            [
              14.2960997,
              48.2963848
            ],
            [
              14.2961379,
              48.2963213
            ],
            [
              14.2963315,
              48.2960007
            ],
            [
              14.2964409,
              48.2958179
            ],
            [
              14.2964751,
              48.295761
            ],
            [
              14.2965275,
              48.2956739
            ],
            [
              14.2966349,
              48.2954993
            ],
            [
              14.2966662,
              48.2954598
            ],
            [
              14.2970061,
              48.2951526
            ],
            [
              14.2970733,
              48.2950926
            ],
            [
              14.2971152,
              48.2950556
            ],
            [
              14.2972221,
              48.2949693
            ],
            [
              14.297318,
              48.2948983
            ],
            [
              14.2974431,
              48.2948187
            ],
            [
              14.2975561,
              48.2947504
            ],
            [
              14.2978819,
              48.2945874
            ],
            [
              14.2979881,
              48.2945236
            ],
            [
              14.2980979,
              48.2944468
            ],
            [
              14.2981739,
              48.2943731
            ],
            [
              14.2982769,
              48.2942607
            ],
            [
              14.2985069,
              48.294014
            ],
            [
              14.2985755,
              48.2939404
            ],
            [
              14.2991287,
              48.2933468
            ],
            [
              14.2994359,
              48.2930082
            ],
            [
              14.2994657,
              48.2929747
            ],
            [
              14.2995121,
              48.2929226
            ],
            [
              14.2995565,
              48.2928727
            ],
            [
              14.2998686,
              48.2925376
            ],
            [
              14.3000623,
              48.2923297
            ],
            [
              14.3001123,
              48.2922761
            ],
            [
              14.3001536,
              48.2922318
            ],
            [
              14.300163,
              48.2922217
            ],
            [
              14.3002217,
              48.2921586
            ],
            [
              14.3004429,
              48.2919226
            ],
            [
              14.3004879,
              48.2918745
            ],
            [
              14.3005165,
              48.2918421
            ],
            [
              14.3006503,
              48.2917241
            ],
            [
              14.3005513,
              48.291685
            ],
            [
              14.300473,
              48.2916519
            ],
            [
              14.300033,
              48.2914653
            ],
            [
              14.2997566,
              48.2913481
            ],
            [
              14.299741,
              48.2913414
            ],
            [
              14.2994848,
              48.2912312
            ],
            [
              14.2991292,
              48.2910822
            ],
            [
              14.2990993,
              48.2910695
            ],
            [
              14.2990374,
              48.291041
            ],
            [
              14.2984497,
              48.2907709
            ],
            [
              14.2983814,
              48.2907395
            ],
            [
              14.2983727,
              48.2907355
            ],
            [
              14.2982871,
              48.2906961
            ],
            [
              14.2980441,
              48.2905917
            ],
            [
              14.2975754,
              48.2903904
            ],
            [
              14.2974303,
              48.2903185
            ],
            [
              14.2973423,
              48.2902621
            ],
            [
              14.2972778,
              48.2901998
            ],
            [
              14.2970137,
              48.2898781
            ],
            [
              14.2969453,
              48.2897948
            ],
            [
              14.2965133,
              48.2892459
            ],
            [
              14.2957615,
              48.2882908
            ],
            [
              14.2953994,
              48.2878107
            ],
            [
              14.2953155,
              48.2876995
            ],
            [
              14.2952977,
              48.2876763
            ],
            [
              14.2952397,
              48.2876009
            ],
            [
              14.2951483,
              48.287482
            ],
            [
              14.2951203,
              48.2874456
            ],
            [
              14.2950277,
              48.2873265
            ],
            [
              14.2949386,
              48.2872119
            ],
            [
              14.2949271,
              48.2871971
            ],
            [
              14.2947141,
              48.2869229
            ],
            [
              14.294175,
              48.2862292
            ],
            [
              14.2936917,
              48.2856096
            ],
            [
              14.293562,
              48.2854539
            ],
            [
              14.2934519,
              48.2853287
            ],
            [
              14.2933257,
              48.2852067
            ],
            [
              14.2931299,
              48.2850272
            ],
            [
              14.2930126,
              48.284932
            ],
            [
              14.2928126,
              48.2847696
            ],
            [
              14.2926865,
              48.2846693
            ],
            [
              14.2926568,
              48.2846449
            ],
            [
              14.2925044,
              48.2845193
            ],
            [
              14.292327,
              48.2843613
            ],
            [
              14.2922625,
              48.2843061
            ],
            [
              14.2921545,
              48.2842155
            ],
            [
              14.2918794,
              48.2839844
            ],
            [
              14.291861,
              48.2839722
            ],
            [
              14.2918226,
              48.2839429
            ],
            [
              14.2917796,
              48.2839153
            ],
            [
              14.2918743,
              48.2838135
            ],
            [
              14.2919026,
              48.2837746
            ],
            [
              14.2919233,
              48.2837461
            ],
            [
              14.2920266,
              48.2835829
            ],
            [
              14.2920616,
              48.2835276
            ],
            [
              14.2921424,
              48.2834003
            ],
            [
              14.2921534,
              48.2833833
            ],
            [
              14.2921804,
              48.2833415
            ],
            [
              14.2922782,
              48.2831903
            ],
            [
              14.2924189,
              48.282973
            ],
            [
              14.2924794,
              48.2828699
            ],
            [
              14.2925281,
              48.2827739
            ],
            [
              14.2925858,
              48.2826284
            ],
            [
              14.2926208,
              48.282543
            ],
            [
              14.2926612,
              48.2824728
            ],
            [
              14.2927073,
              48.2824068
            ],
            [
              14.2927786,
              48.2823297
            ],
            [
              14.2928757,
              48.2822408
            ],
            [
              14.2931303,
              48.282025
            ],
            [
              14.2934927,
              48.281714
            ],
            [
              14.2935644,
              48.2816449
            ],
            [
              14.293625,
              48.2815781
            ],
            [
              14.2936625,
              48.2815295
            ],
            [
              14.2937024,
              48.2814696
            ],
            [
              14.2937391,
              48.2813836
            ],
            [
              14.2937604,
              48.281331
            ],
            [
              14.2937756,
              48.2812857
            ],
            [
              14.2938251,
              48.2811386
            ],
            [
              14.2938446,
              48.2810775
            ],
            [
              14.2938595,
              48.2810307
            ],
            [
              14.29394,
              48.2807785
            ],
            [
              14.2939434,
              48.2807678
            ],
            [
              14.2940381,
              48.2804757
            ],
            [
              14.2941377,
              48.2801753
            ],
            [
              14.2942089,
              48.2799438
            ],
            [
              14.2942432,
              48.2798067
            ],
            [
              14.2942692,
              48.2796799
            ],
            [
              14.2942931,
              48.2795172
            ],
            [
              14.2943081,
              48.2793399
            ],
            [
              14.2943016,
              48.279137
            ],
            [
              14.2942571,
              48.2788506
            ],
            [
              14.2941538,
              48.2784109
            ],
            [
              14.2940781,
              48.2780836
            ],
            [
              14.2940554,
              48.277977
            ],
            [
              14.2940352,
              48.277843
            ],
            [
              14.2940264,
              48.2777327
            ],
            [
              14.2940275,
              48.2776368
            ],
            [
              14.2940385,
              48.2775339
            ],
            [
              14.2940768,
              48.2773597
            ],
            [
              14.2941032,
              48.277264
            ],
            [
              14.2943183,
              48.2766058
            ],
            [
              14.2943599,
              48.2764728
            ],
            [
              14.2943989,
              48.2762935
            ],
            [
              14.2944459,
              48.2760637
            ],
            [
              14.2944714,
              48.2758573
            ],
            [
              14.2944835,
              48.2757088
            ],
            [
              14.2944861,
              48.2755676
            ],
            [
              14.2944899,
              48.2754298
            ],
            [
              14.2944825,
              48.2753515
            ],
            [
              14.2944708,
              48.2752748
            ],
            [
              14.2944578,
              48.2752203
            ],
            [
              14.2944305,
              48.2751493
            ],
            [
              14.2944192,
              48.2751322
            ],
            [
              14.2943902,
              48.2750883
            ],
            [
              14.2943819,
              48.2750757
            ],
            [
              14.2943543,
              48.2750481
            ],
            [
              14.2943034,
              48.2750083
            ],
            [
              14.294237,
              48.2749637
            ],
            [
              14.2941395,
              48.2749148
            ],
            [
              14.2940436,
              48.274883
            ],
            [
              14.2939412,
              48.2748588
            ],
            [
              14.2938298,
              48.2748456
            ],
            [
              14.2937299,
              48.2748414
            ],
            [
              14.2936471,
              48.2748412
            ],
            [
              14.2933362,
              48.2748364
            ],
            [
              14.2932557,
              48.2748352
            ],
            [
              14.2930607,
              48.2748259
            ],
            [
              14.2928169,
              48.2748062
            ],
            [
              14.2926239,
              48.274785
            ],
            [
              14.2925588,
              48.2747778
            ],
            [
              14.2925306,
              48.2747659
            ],
            [
              14.2925078,
              48.2747577
            ],
            [
              14.2924758,
              48.2747259
            ],
            [
              14.2924444,
              48.2746858
            ],
            [
              14.2924665,
              48.273797
            ],
            [
              14.2924812,
              48.2731943
            ],
            [
              14.2924828,
              48.2731134
            ],
            [
              14.292488,
              48.272862
            ],
            [
              14.2924913,
              48.2727025
            ],
            [
              14.2924923,
              48.2726555
            ],
            [
              14.2924938,
              48.2725802
            ],
            [
              14.292498,
              48.2724657
            ],
            [
              14.2925009,
              48.2724241
            ],
            [
              14.2925053,
              48.2723618
            ],
            [
              14.2925137,
              48.2722407
            ],
            [
              14.2925228,
              48.2721107
            ],
            [
              14.292532,
              48.2719789
            ],
            [
              14.2925345,
              48.2719439
            ],
            [
              14.2925437,
              48.2718119
            ],
            [
              14.2925514,
              48.271729
            ],
            [
              14.292561,
              48.2716275
            ],
            [
              14.2925646,
              48.2715888
            ],
            [
              14.2925843,
              48.2713795
            ],
            [
              14.292589,
              48.2712897
            ],
            [
              14.2925937,
              48.2710951
            ],
            [
              14.2926023,
              48.2708915
            ],
            [
              14.2926109,
              48.2706894
            ],
            [
              14.2926167,
              48.2705517
            ],
            [
              14.2926207,
              48.2704587
            ],
            [
              14.2926229,
              48.270407
            ],
            [
              14.2926241,
              48.270378
            ],
            [
              14.2926376,
              48.2698874
            ],
            [
              14.2926443,
              48.2696474
            ],
            [
              14.2926466,
              48.2695622
            ],
            [
              14.2925021,
              48.2695606
            ],
            [
              14.2922271,
              48.2695574
            ],
            [
              14.2920315,
              48.2695551
            ],
            [
              14.2919075,
              48.2695537
            ],
            [
              14.2917545,
              48.2695519
            ],
            [
              14.2911717,
              48.2695449
            ],
            [
              14.2902174,
              48.2695297
            ],
            [
              14.2898346,
              48.2695235
            ],
            [
              14.2892563,
              48.2695143
            ],
            [
              14.2889303,
              48.2695091
            ],
            [
              14.2887381,
              48.269506
            ],
            [
              14.2886424,
              48.2695008
            ],
            [
              14.2885391,
              48.269486
            ],
            [
              14.2884675,
              48.2694655
            ],
            [
              14.2883591,
              48.2694217
            ],
            [
              14.2882096,
              48.2693297
            ],
            [
              14.28815,
              48.2692989
            ],
            [
              14.2878788,
              48.2691485
            ],
            [
              14.287128,
              48.2687333
            ],
            [
              14.2869062,
              48.2686077
            ],
            [
              14.2863418,
              48.2682889
            ],
            [
              14.2858923,
              48.268035
            ],
            [
              14.2856716,
              48.2679104
            ],
            [
              14.2853726,
              48.2677415
            ],
            [
              14.2852992,
              48.2677001
            ],
            [
              14.2851911,
              48.267639
            ],
            [
              14.2854019,
              48.2674717
            ],
            [
              14.2858609,
              48.2670969
            ],
            [
              14.2859109,
              48.2670553
            ],
            [
              14.285949,
              48.2670237
            ],
            [
              14.2860539,
              48.2669365
            ],
            [
              14.2861534,
              48.2668539
            ],
            [
              14.2861946,
              48.2668196
            ],
            [
              14.2868152,
              48.2663222
            ],
            [
              14.2868656,
              48.2662818
            ],
            [
              14.2871785,
              48.266031
            ],
            [
              14.2872893,
              48.2659379
            ],
            [
              14.2876396,
              48.2656437
            ],
            [
              14.2877378,
              48.2655612
            ],
            [
              14.2878846,
              48.2654356
            ],
            [
              14.2882104,
              48.2651476
            ],
            [
              14.2883012,
              48.2650615
            ],
            [
              14.2883445,
              48.2650228
            ],
            [
              14.2883951,
              48.2649774
            ],
            [
              14.2885578,
              48.264823
            ],
            [
              14.2886433,
              48.2647368
            ],
            [
              14.2887451,
              48.2646301
            ],
            [
              14.2888723,
              48.2644938
            ],
            [
              14.2890034,
              48.2643427
            ],
            [
              14.2891087,
              48.2642146
            ],
            [
              14.2892389,
              48.264033
            ],
            [
              14.2893427,
              48.2638774
            ],
            [
              14.2894508,
              48.2636979
            ],
            [
              14.2895429,
              48.2635449
            ],
            [
              14.2896154,
              48.2633991
            ],
            [
              14.2897018,
              48.2632029
            ],
            [
              14.2897883,
              48.2629906
            ],
            [
              14.2898728,
              48.2627592
            ],
            [
              14.2899681,
              48.2624835
            ],
            [
              14.2900494,
              48.2621563
            ],
            [
              14.2900849,
              48.2619835
            ],
            [
              14.2901076,
              48.2618729
            ],
            [
              14.2901954,
              48.2614458
            ],
            [
              14.2903192,
              48.2607456
            ],
            [
              14.2904256,
              48.2601387
            ],
            [
              14.290522,
              48.2595896
            ],
            [
              14.2905577,
              48.2593852
            ],
            [
              14.2905892,
              48.2592052
            ],
            [
              14.290608,
              48.2590928
            ],
            [
              14.2906212,
              48.258922
            ],
            [
              14.2906165,
              48.2588253
            ],
            [
              14.2906016,
              48.2587136
            ],
            [
              14.2905711,
              48.2585797
            ],
            [
              14.2905257,
              48.2584595
            ],
            [
              14.2904602,
              48.2583401
            ],
            [
              14.2903625,
              48.2582039
            ],
            [
              14.2902523,
              48.2580907
            ],
            [
              14.2901422,
              48.2579945
            ],
            [
              14.2899185,
              48.2578292
            ],
            [
              14.2896242,
              48.2576495
            ],
            [
              14.2893715,
              48.2575104
            ],
            [
              14.2889054,
              48.2572513
            ],
            [
              14.2885766,
              48.2570685
            ],
            [
              14.2885256,
              48.2570402
            ],
            [
              14.2882449,
              48.2568857
            ],
            [
              14.2881808,
              48.2568485
            ],
            [
              14.2881391,
              48.2568253
            ],
            [
              14.2880904,
              48.2567982
            ],
            [
              14.2877871,
              48.2566296
            ],
            [
              14.2876693,
              48.2565637
            ],
            [
              14.2875817,
              48.2565144
            ],
            [
              14.2875085,
              48.2564664
            ],
            [
              14.2874126,
              48.2564008
            ],
            [
              14.2873204,
              48.2563156
            ],
            [
              14.2872793,
              48.2562582
            ],
            [
              14.287236,
              48.2561777
            ],
            [
              14.2872225,
              48.2561182
            ],
            [
              14.2872259,
              48.2560784
            ],
            [
              14.287228,
              48.2560546
            ],
            [
              14.2872465,
              48.2559702
            ],
            [
              14.2872611,
              48.2559188
            ],
            [
              14.2872842,
              48.2558572
            ],
            [
              14.2873409,
              48.2557056
            ],
            [
              14.287382,
              48.2555959
            ],
            [
              14.2873945,
              48.2555625
            ],
            [
              14.2874144,
              48.2555168
            ],
            [
              14.2874284,
              48.255485
            ],
            [
              14.2874381,
              48.2554628
            ],
            [
              14.2874696,
              48.2554042
            ],
            [
              14.2875286,
              48.2553057
            ],
            [
              14.2875848,
              48.255228
            ],
            [
              14.2876208,
              48.2551709
            ],
            [
              14.2876548,
              48.2551211
            ],
            [
              14.2878078,
              48.2549205
            ],
            [
              14.2880057,
              48.2546829
            ],
            [
              14.2882885,
              48.2543595
            ],
            [
              14.288391,
              48.2542298
            ],
            [
              14.2884813,
              48.2540933
            ],
            [
              14.2885176,
              48.2540223
            ],
            [
              14.2885435,
              48.2539449
            ],
            [
              14.288553,
              48.2538927
            ],
            [
              14.2885571,
              48.2538123
            ],
            [
              14.2885475,
              48.2537332
            ],
            [
              14.2885298,
              48.2536571
            ],
            [
              14.2884521,
              48.2534424
            ],
            [
              14.2884494,
              48.253436
            ],
            [
              14.2884362,
              48.2534049
            ],
            [
              14.2883933,
              48.2532992
            ],
            [
              14.288345,
              48.2531858
            ],
            [
              14.28833,
              48.2531448
            ],
            [
              14.2882182,
              48.252838
            ],
            [
              14.288214,
              48.2528263
            ],
            [
              14.2882042,
              48.2527993
            ],
            [
              14.2881159,
              48.2525559
            ],
            [
              14.2880969,
              48.2524972
            ],
            [
              14.2880767,
              48.2524352
            ],
            [
              14.2880451,
              48.2523206
            ],
            [
              14.2879985,
              48.2521573
            ],
            [
              14.2879728,
              48.2520384
            ],
            [
              14.2879585,
              48.2519656
            ],
            [
              14.2879473,
              48.2519081
            ],
            [
              14.2879149,
              48.2515764
            ],
            [
              14.287892,
              48.2511858
            ],
            [
              14.287888,
              48.2511227
            ],
            [
              14.287884,
              48.2510548
            ],
            [
              14.2879322,
              48.2506508
            ],
            [
              14.2879692,
              48.2503689
            ],
            [
              14.2879949,
              48.2501617
            ],
            [
              14.2879932,
              48.2501212
            ],
            [
              14.2879911,
              48.2500697
            ],
            [
              14.2878865,
              48.2500585
            ],
            [
              14.2878233,
              48.2500517
            ],
            [
              14.287081,
              48.2499432
            ],
            [
              14.2869994,
              48.2499313
            ],
            [
              14.2869185,
              48.249917
            ],
            [
              14.2859992,
              48.2497547
            ],
            [
              14.2859352,
              48.2497434
            ],
            [
              14.2858468,
              48.2497278
            ],
            [
              14.2851295,
              48.2496015
            ],
            [
              14.2848941,
              48.24956
            ],
            [
              14.2848092,
              48.249545
            ],
            [
              14.284722,
              48.2495296
            ],
            [
              14.2847358,
              48.2494689
            ],
            [
              14.2847935,
              48.249216
            ],
            [
              14.2848718,
              48.2488723
            ],
            [
              14.2848803,
              48.2488349
            ],
            [
              14.2849286,
              48.2486485
            ],
            [
              14.2849396,
              48.2486058
            ],
            [
              14.2849827,
              48.2484529
            ],
            [
              14.2850193,
              48.2483497
            ],
            [
              14.2850561,
              48.2482823
            ],
            [
              14.2850981,
              48.2482215
            ],
            [
              14.2851384,
              48.2481633
            ],
            [
              14.2851517,
              48.248144
            ],
            [
              14.2851823,
              48.2480998
            ],
            [
              14.2853108,
              48.2479425
            ],
            [
              14.2853876,
              48.2478511
            ],
            [
              14.2857414,
              48.2474853
            ],
            [
              14.2859585,
              48.2472609
            ],
            [
              14.285992,
              48.2472272
            ],
            [
              14.2864918,
              48.2467268
            ],
            [
              14.2865817,
              48.2466247
            ],
            [
              14.2866598,
              48.2465093
            ],
            [
              14.2867024,
              48.2464387
            ],
            [
              14.2867297,
              48.2463934
            ],
            [
              14.2867419,
              48.2463721
            ],
            [
              14.2867582,
              48.2463344
            ],
            [
              14.2867575,
              48.2463188
            ],
            [
              14.2867531,
              48.2462853
            ],
            [
              14.2867307,
              48.2462639
            ],
            [
              14.2866892,
              48.24624
            ],
            [
              14.286608,
              48.2462103
            ],
            [
              14.2864579,
              48.2461747
            ],
            [
              14.2857212,
              48.2460028
            ],
            [
              14.2856163,
              48.2459737
            ],
            [
              14.2852209,
              48.245864
            ],
            [
              14.2851029,
              48.2458313
            ],
            [
              14.2849827,
              48.2457984
            ],
            [
              14.2845652,
              48.2456732
            ],
            [
              14.2843498,
              48.2456086
            ],
            [
              14.2839312,
              48.245483
            ],
            [
              14.2829549,
              48.24519
            ],
            [
              14.2826463,
              48.2450974
            ],
            [
              14.28226,
              48.2449759
            ],
            [
              14.2820163,
              48.2448946
            ],
            [
              14.2818496,
              48.2448306
            ],
            [
              14.2817737,
              48.2448015
            ],
            [
              14.2816657,
              48.2447548
            ],
            [
              14.2816393,
              48.2447434
            ],
            [
              14.2815763,
              48.2447162
            ],
            [
              14.2813975,
              48.2446172
            ],
            [
              14.2812141,
              48.2445076
            ],
            [
              14.2810775,
              48.2444149
            ],
            [
              14.281045,
              48.2443899
            ],
            [
              14.2809467,
              48.2443142
            ],
            [
              14.2808305,
              48.2442214
            ],
            [
              14.2807283,
              48.2441279
            ],
            [
              14.280614,
              48.2440091
            ],
            [
              14.280514,
              48.2438802
            ],
            [
              14.2804349,
              48.2437531
            ],
            [
              14.2803684,
              48.2436167
            ],
            [
              14.2803391,
              48.2435573
            ],
            [
              14.2802987,
              48.2434764
            ],
            [
              14.280231,
              48.2433407
            ],
            [
              14.2801079,
              48.2431353
            ],
            [
              14.2800802,
              48.2430891
            ],
            [
              14.2800452,
              48.2430307
            ],
            [
              14.2800197,
              48.2429965
            ],
            [
              14.2799502,
              48.2429036
            ],
            [
              14.2799034,
              48.2428409
            ],
            [
              14.2797638,
              48.2426802
            ],
            [
              14.2796225,
              48.2425272
            ],
            [
              14.2795257,
              48.2424414
            ],
            [
              14.2794494,
              48.2423738
            ],
            [
              14.2795654,
              48.2423049
            ],
            [
              14.2797351,
              48.2421515
            ],
            [
              14.2802211,
              48.241712
            ],
            [
              14.2806552,
              48.2412675
            ],
            [
              14.2808038,
              48.2411154
            ],
            [
              14.280861,
              48.2410568
            ],
            [
              14.2809294,
              48.2409864
            ],
            [
              14.2809926,
              48.2409221
            ],
            [
              14.2810876,
              48.2408248
            ],
            [
              14.2811298,
              48.2407817
            ],
            [
              14.2812729,
              48.240636
            ],
            [
              14.281335,
              48.2405727
            ],
            [
              14.2814301,
              48.2404757
            ],
            [
              14.2815072,
              48.2403971
            ],
            [
              14.2815628,
              48.2404195
            ],
            [
              14.2815944,
              48.2404323
            ],
            [
              14.2816484,
              48.2404644
            ],
            [
              14.2816772,
              48.2404914
            ],
            [
              14.2816836,
              48.2405287
            ],
            [
              14.2816713,
              48.2405615
            ],
            [
              14.2816403,
              48.240593
            ],
            [
              14.2815787,
              48.2406215
            ],
            [
              14.2812957,
              48.2407386
            ]
          ],
          [
            [
              14.2816552,
              48.2406351
            ],
            [
              14.28123,
              48.2408108
            ]
          ],
          [
            [
              14.2847218,
              48.2458245
            ],
            [
              14.2847478,
              48.2457864
            ],
            [
              14.2845318,
              48.2457211
            ],
            [
              14.2845059,
              48.2457591
            ]
          ],
          [
            [
              14.2878736,
              48.2503686
            ],
            [
              14.2878976,
              48.2503698
            ],
            [
              14.287921,
              48.2501648
            ],
            [
              14.2878989,
              48.2501637
            ]
          ],
          [
            [
              14.2873887,
              48.2565084
            ],
            [
              14.287414,
              48.2564971
            ],
            [
              14.2876902,
              48.2566637
            ],
            [
              14.2876608,
              48.2566834
            ]
          ],
          [
            [
              14.2903058,
              48.2599248
            ],
            [
              14.2903591,
              48.2599288
            ],
            [
              14.2904178,
              48.259583
            ],
            [
              14.2903555,
              48.2595783
            ]
          ],
          [
            [
              14.2898433,
              48.2624834
            ],
            [
              14.2898759,
              48.2623621
            ],
            [
              14.2898754,
              48.2623511
            ],
            [
              14.2898745,
              48.2623342
            ],
            [
              14.2898787,
              48.2623017
            ],
            [
              14.289894,
              48.2622436
            ],
            [
              14.2899185,
              48.2621911
            ],
            [
              14.2899331,
              48.2621516
            ]
          ],
          [
            [
              14.2881169,
              48.2650487
            ],
            [
              14.2881573,
              48.2650681
            ],
            [
              14.2877714,
              48.2654106
            ],
            [
              14.2877399,
              48.2653941
            ]
          ],
          [
            [
              14.2853529,
              48.2673528
            ],
            [
              14.2856862,
              48.2670836
            ],
            [
              14.285716,
              48.267046
            ]
          ],
          [
            [
              14.2890528,
              48.2695879
            ],
            [
              14.2890537,
              48.2695593
            ],
            [
              14.2893389,
              48.269563
            ],
            [
              14.289338,
              48.2695929
            ]
          ],
          [
            [
              14.2919903,
              48.2696342
            ],
            [
              14.2919913,
              48.2696063
            ],
            [
              14.2922129,
              48.2696097
            ],
            [
              14.2922119,
              48.2696376
            ]
          ],
          [
            [
              14.2923866,
              48.2718777
            ],
            [
              14.2924094,
              48.2718777
            ],
            [
              14.292408,
              48.2720596
            ],
            [
              14.2923848,
              48.2720591
            ]
          ],
          [
            [
              14.2933343,
              48.2748775
            ],
            [
              14.2932241,
              48.2748739
            ],
            [
              14.2931042,
              48.27487
            ],
            [
              14.2930493,
              48.2748656
            ]
          ],
          [
            [
              14.2938745,
              48.2807133
            ],
            [
              14.2938779,
              48.2807569
            ],
            [
              14.2937763,
              48.2810666
            ],
            [
              14.2937484,
              48.281089
            ]
          ],
          [
            [
              14.2922254,
              48.283107
            ],
            [
              14.2922694,
              48.2830952
            ],
            [
              14.2923533,
              48.2829678
            ],
            [
              14.2923498,
              48.2829393
            ]
          ],
          [
            [
              14.2948192,
              48.2872453
            ],
            [
              14.2948612,
              48.2872312
            ],
            [
              14.2950018,
              48.2874178
            ],
            [
              14.2949646,
              48.2874302
            ]
          ],
          [
            [
              14.2996847,
              48.2914257
            ],
            [
              14.299698,
              48.2914118
            ],
            [
              14.2999259,
              48.2915079
            ],
            [
              14.2999132,
              48.2915212
            ]
          ],
          [
            [
              14.2970406,
              48.2950033
            ],
            [
              14.2970721,
              48.294972
            ],
            [
              14.297134,
              48.2949236
            ],
            [
              14.2971962,
              48.2948801
            ],
            [
              14.297313,
              48.2948123
            ]
          ],
          [
            [
              14.2952814,
              48.2975825
            ],
            [
              14.295268,
              48.297579
            ],
            [
              14.2953773,
              48.2974024
            ],
            [
              14.2953894,
              48.2974058
            ]
          ],
          [
            [
              14.2939871,
              48.3010922
            ],
            [
              14.2939955,
              48.3010773
            ],
            [
              14.2934615,
              48.3009428
            ],
            [
              14.2934538,
              48.3009564
            ]
          ]
        ]
      },
      "id": "relation/403086"
    },
    {
      "type": "Feature",
      "properties": {
        "@id": "relation/1149298",
        "alternate": "no",
        "colour": "#e52c1a",
        "from": "Baintwiese",
        "name": "Bus 41: Baintwiese => Hessenplatz",
        "network": "OÖVV",
        "network:wikidata": "Q2011605",
        "network:wikipedia": "de:Oberösterreichischer Verkehrsverbund",
        "operator": "Linz Linien GmbH",
        "public_transport:version": "2",
        "ref": "41",
        "route": "trolleybus",
        "to": "Hessenplatz",
        "type": "route"
      },
      "geometry": {
        "type": "MultiLineString",
        "coordinates": [
          [
            [
              14.2812957,
              48.2407386
            ],
            [
              14.2812361,
              48.2407633
            ],
            [
              14.2810876,
              48.2408248
            ],
            [
              14.2809926,
              48.2409221
            ],
            [
              14.2809294,
              48.2409864
            ],
            [
              14.280861,
              48.2410568
            ],
            [
              14.2808038,
              48.2411154
            ],
            [
              14.2806552,
              48.2412675
            ],
            [
              14.2802211,
              48.241712
            ],
            [
              14.2797351,
              48.2421515
            ],
            [
              14.2795654,
              48.2423049
            ],
            [
              14.2794494,
              48.2423738
            ],
            [
              14.2795257,
              48.2424414
            ],
            [
              14.2796225,
              48.2425272
            ],
            [
              14.2797638,
              48.2426802
            ],
            [
              14.2799034,
              48.2428409
            ],
            [
              14.2799502,
              48.2429036
            ],
            [
              14.2800197,
              48.2429965
            ],
            [
              14.2800452,
              48.2430307
            ],
            [
              14.2800802,
              48.2430891
            ],
            [
              14.2801079,
              48.2431353
            ],
            [
              14.280231,
              48.2433407
            ],
            [
              14.2802987,
              48.2434764
            ],
            [
              14.2803391,
              48.2435573
            ],
            [
              14.2803684,
              48.2436167
            ],
            [
              14.2804349,
              48.2437531
            ],
            [
              14.280514,
              48.2438802
            ],
            [
              14.280614,
              48.2440091
            ],
            [
              14.2807283,
              48.2441279
            ],
            [
              14.2808305,
              48.2442214
            ],
            [
              14.2809467,
              48.2443142
            ],
            [
              14.281045,
              48.2443899
            ],
            [
              14.2810775,
              48.2444149
            ],
            [
              14.2812141,
              48.2445076
            ],
            [
              14.2813975,
              48.2446172
            ],
            [
              14.2815763,
              48.2447162
            ],
            [
              14.2816393,
              48.2447434
            ],
            [
              14.2816657,
              48.2447548
            ],
            [
              14.2817737,
              48.2448015
            ],
            [
              14.2818496,
              48.2448306
            ],
            [
              14.2820163,
              48.2448946
            ],
            [
              14.28226,
              48.2449759
            ],
            [
              14.2826463,
              48.2450974
            ],
            [
              14.2829549,
              48.24519
            ],
            [
              14.2839312,
              48.245483
            ],
            [
              14.2843498,
              48.2456086
            ],
            [
              14.2845652,
              48.2456732
            ],
            [
              14.2849827,
              48.2457984
            ],
            [
              14.2851029,
              48.2458313
            ],
            [
              14.2852209,
              48.245864
            ],
            [
              14.2856163,
              48.2459737
            ],
            [
              14.2857212,
              48.2460028
            ],
            [
              14.2864579,
              48.2461747
            ],
            [
              14.286608,
              48.2462103
            ],
            [
              14.2866892,
              48.24624
            ],
            [
              14.2867307,
              48.2462639
            ],
            [
              14.2867531,
              48.2462853
            ],
            [
              14.2867575,
              48.2463188
            ],
            [
              14.2867582,
              48.2463344
            ],
            [
              14.2867419,
              48.2463721
            ],
            [
              14.2867297,
              48.2463934
            ],
            [
              14.2867024,
              48.2464387
            ],
            [
              14.2866598,
              48.2465093
            ],
            [
              14.2865817,
              48.2466247
            ],
            [
              14.2864918,
              48.2467268
            ],
            [
              14.285992,
              48.2472272
            ],
            [
              14.2859585,
              48.2472609
            ],
            [
              14.2857414,
              48.2474853
            ],
            [
              14.2853876,
              48.2478511
            ],
            [
              14.2853108,
              48.2479425
            ],
            [
              14.2851823,
              48.2480998
            ],
            [
              14.2851517,
              48.248144
            ],
            [
              14.2851384,
              48.2481633
            ],
            [
              14.2850981,
              48.2482215
            ],
            [
              14.2850561,
              48.2482823
            ],
            [
              14.2850193,
              48.2483497
            ],
            [
              14.2849827,
              48.2484529
            ],
            [
              14.2849396,
              48.2486058
            ],
            [
              14.2849286,
              48.2486485
            ],
            [
              14.2848803,
              48.2488349
            ],
            [
              14.2848718,
              48.2488723
            ],
            [
              14.2847935,
              48.249216
            ],
            [
              14.2847358,
              48.2494689
            ],
            [
              14.284722,
              48.2495296
            ],
            [
              14.2848092,
              48.249545
            ],
            [
              14.2848941,
              48.24956
            ],
            [
              14.2851295,
              48.2496015
            ],
            [
              14.2858468,
              48.2497278
            ],
            [
              14.2859352,
              48.2497434
            ],
            [
              14.2859992,
              48.2497547
            ],
            [
              14.2869185,
              48.249917
            ],
            [
              14.2869994,
              48.2499313
            ],
            [
              14.287081,
              48.2499432
            ],
            [
              14.2878233,
              48.2500517
            ],
            [
              14.2878865,
              48.2500585
            ],
            [
              14.2879911,
              48.2500697
            ],
            [
              14.2879932,
              48.2501212
            ],
            [
              14.2879949,
              48.2501617
            ],
            [
              14.2879692,
              48.2503689
            ],
            [
              14.2879322,
              48.2506508
            ],
            [
              14.287884,
              48.2510548
            ],
            [
              14.287888,
              48.2511227
            ],
            [
              14.287892,
              48.2511858
            ],
            [
              14.2879149,
              48.2515764
            ],
            [
              14.2879473,
              48.2519081
            ],
            [
              14.2879585,
              48.2519656
            ],
            [
              14.2879728,
              48.2520384
            ],
            [
              14.2879985,
              48.2521573
            ],
            [
              14.2880451,
              48.2523206
            ],
            [
              14.2880767,
              48.2524352
            ],
            [
              14.2880969,
              48.2524972
            ],
            [
              14.2881159,
              48.2525559
            ],
            [
              14.2882042,
              48.2527993
            ],
            [
              14.288214,
              48.2528263
            ],
            [
              14.2882182,
              48.252838
            ],
            [
              14.28833,
              48.2531448
            ],
            [
              14.288345,
              48.2531858
            ],
            [
              14.2883933,
              48.2532992
            ],
            [
              14.2884362,
              48.2534049
            ],
            [
              14.2884494,
              48.253436
            ],
            [
              14.2884521,
              48.2534424
            ],
            [
              14.2885298,
              48.2536571
            ],
            [
              14.2885475,
              48.2537332
            ],
            [
              14.2885571,
              48.2538123
            ],
            [
              14.288553,
              48.2538927
            ],
            [
              14.2885435,
              48.2539449
            ],
            [
              14.2885176,
              48.2540223
            ],
            [
              14.2884813,
              48.2540933
            ],
            [
              14.288391,
              48.2542298
            ],
            [
              14.2882885,
              48.2543595
            ],
            [
              14.2880057,
              48.2546829
            ],
            [
              14.2878078,
              48.2549205
            ],
            [
              14.2876548,
              48.2551211
            ],
            [
              14.2876208,
              48.2551709
            ],
            [
              14.2875848,
              48.255228
            ],
            [
              14.2875286,
              48.2553057
            ],
            [
              14.2874696,
              48.2554042
            ],
            [
              14.2874381,
              48.2554628
            ],
            [
              14.2874284,
              48.255485
            ],
            [
              14.2874144,
              48.2555168
            ],
            [
              14.2873945,
              48.2555625
            ],
            [
              14.287382,
              48.2555959
            ],
            [
              14.2873409,
              48.2557056
            ],
            [
              14.2872842,
              48.2558572
            ],
            [
              14.2872611,
              48.2559188
            ],
            [
              14.2872465,
              48.2559702
            ],
            [
              14.287228,
              48.2560546
            ],
            [
              14.2872259,
              48.2560784
            ],
            [
              14.2872225,
              48.2561182
            ],
            [
              14.287236,
              48.2561777
            ],
            [
              14.2872793,
              48.2562582
            ],
            [
              14.2873204,
              48.2563156
            ],
            [
              14.2874126,
              48.2564008
            ],
            [
              14.2875085,
              48.2564664
            ],
            [
              14.2875817,
              48.2565144
            ],
            [
              14.2876693,
              48.2565637
            ],
            [
              14.2877871,
              48.2566296
            ],
            [
              14.2880904,
              48.2567982
            ],
            [
              14.2881391,
              48.2568253
            ],
            [
              14.2881808,
              48.2568485
            ],
            [
              14.2882449,
              48.2568857
            ],
            [
              14.2885256,
              48.2570402
            ],
            [
              14.2885766,
              48.2570685
            ],
            [
              14.2889054,
              48.2572513
            ],
            [
              14.2893715,
              48.2575104
            ],
            [
              14.2896242,
              48.2576495
            ],
            [
              14.2899185,
              48.2578292
            ],
            [
              14.2901422,
              48.2579945
            ],
            [
              14.2902523,
              48.2580907
            ],
            [
              14.2903625,
              48.2582039
            ],
            [
              14.2904602,
              48.2583401
            ],
            [
              14.2905257,
              48.2584595
            ],
            [
              14.2905711,
              48.2585797
            ],
            [
              14.2906016,
              48.2587136
            ],
            [
              14.2906165,
              48.2588253
            ],
            [
              14.2906212,
              48.258922
            ],
            [
              14.290608,
              48.2590928
            ],
            [
              14.2905892,
              48.2592052
            ],
            [
              14.2905577,
              48.2593852
            ],
            [
              14.290522,
              48.2595896
            ],
            [
              14.2904256,
              48.2601387
            ],
            [
              14.2903192,
              48.2607456
            ],
            [
              14.2901954,
              48.2614458
            ],
            [
              14.2901076,
              48.2618729
            ],
            [
              14.2900849,
              48.2619835
            ],
            [
              14.2900494,
              48.2621563
            ],
            [
              14.2899681,
              48.2624835
            ],
            [
              14.2898728,
              48.2627592
            ],
            [
              14.2897883,
              48.2629906
            ],
            [
              14.2897018,
              48.2632029
            ],
            [
              14.2896154,
              48.2633991
            ],
            [
              14.2895429,
              48.2635449
            ],
            [
              14.2894508,
              48.2636979
            ],
            [
              14.2893427,
              48.2638774
            ],
            [
              14.2892389,
              48.264033
            ],
            [
              14.2891087,
              48.2642146
            ],
            [
              14.2890034,
              48.2643427
            ],
            [
              14.2888723,
              48.2644938
            ],
            [
              14.2887451,
              48.2646301
            ],
            [
              14.2886433,
              48.2647368
            ],
            [
              14.2885578,
              48.264823
            ],
            [
              14.2883951,
              48.2649774
            ],
            [
              14.2883445,
              48.2650228
            ],
            [
              14.2883012,
              48.2650615
            ],
            [
              14.2882104,
              48.2651476
            ],
            [
              14.2878846,
              48.2654356
            ],
            [
              14.2877378,
              48.2655612
            ],
            [
              14.2876396,
              48.2656437
            ],
            [
              14.2872893,
              48.2659379
            ],
            [
              14.2871785,
              48.266031
            ],
            [
              14.2868656,
              48.2662818
            ],
            [
              14.2868152,
              48.2663222
            ],
            [
              14.2861946,
              48.2668196
            ],
            [
              14.2861534,
              48.2668539
            ],
            [
              14.2860539,
              48.2669365
            ],
            [
              14.285949,
              48.2670237
            ],
            [
              14.2859109,
              48.2670553
            ],
            [
              14.2858609,
              48.2670969
            ],
            [
              14.2854019,
              48.2674717
            ],
            [
              14.2851911,
              48.267639
            ],
            [
              14.2852992,
              48.2677001
            ],
            [
              14.2853726,
              48.2677415
            ],
            [
              14.2856716,
              48.2679104
            ],
            [
              14.2858923,
              48.268035
            ],
            [
              14.2863418,
              48.2682889
            ],
            [
              14.2869062,
              48.2686077
            ],
            [
              14.287128,
              48.2687333
            ],
            [
              14.2878788,
              48.2691485
            ],
            [
              14.28815,
              48.2692989
            ],
            [
              14.2882096,
              48.2693297
            ],
            [
              14.2883591,
              48.2694217
            ],
            [
              14.2884675,
              48.2694655
            ],
            [
              14.2885391,
              48.269486
            ],
            [
              14.2886424,
              48.2695008
            ],
            [
              14.2887381,
              48.269506
            ],
            [
              14.2889303,
              48.2695091
            ],
            [
              14.2892563,
              48.2695143
            ],
            [
              14.2898346,
              48.2695235
            ],
            [
              14.2902174,
              48.2695297
            ],
            [
              14.2911717,
              48.2695449
            ],
            [
              14.2917545,
              48.2695519
            ],
            [
              14.2919075,
              48.2695537
            ],
            [
              14.2920315,
              48.2695551
            ],
            [
              14.2922271,
              48.2695574
            ],
            [
              14.2925021,
              48.2695606
            ],
            [
              14.2926466,
              48.2695622
            ],
            [
              14.2926443,
              48.2696474
            ],
            [
              14.2926376,
              48.2698874
            ],
            [
              14.2926241,
              48.270378
            ],
            [
              14.2926229,
              48.270407
            ],
            [
              14.2926207,
              48.2704587
            ],
            [
              14.2926167,
              48.2705517
            ],
            [
              14.2926109,
              48.2706894
            ],
            [
              14.2926023,
              48.2708915
            ],
            [
              14.2925937,
              48.2710951
            ],
            [
              14.292589,
              48.2712897
            ],
            [
              14.2925843,
              48.2713795
            ],
            [
              14.2925646,
              48.2715888
            ],
            [
              14.292561,
              48.2716275
            ],
            [
              14.2925514,
              48.271729
            ],
            [
              14.2925437,
              48.2718119
            ],
            [
              14.2925345,
              48.2719439
            ],
            [
              14.292532,
              48.2719789
            ],
            [
              14.2925228,
              48.2721107
            ],
            [
              14.2925137,
              48.2722407
            ],
            [
              14.2925053,
              48.2723618
            ],
            [
              14.2925009,
              48.2724241
            ],
            [
              14.292498,
              48.2724657
            ],
            [
              14.2924938,
              48.2725802
            ],
            [
              14.2924923,
              48.2726555
            ],
            [
              14.2924913,
              48.2727025
            ],
            [
              14.292488,
              48.272862
            ],
            [
              14.2924828,
              48.2731134
            ],
            [
              14.2924812,
              48.2731943
            ],
            [
              14.2924665,
              48.273797
            ],
            [
              14.2924444,
              48.2746858
            ],
            [
              14.2924758,
              48.2747259
            ],
            [
              14.2925078,
              48.2747577
            ],
            [
              14.2925306,
              48.2747659
            ],
            [
              14.2925588,
              48.2747778
            ],
            [
              14.2926239,
              48.274785
            ],
            [
              14.2928169,
              48.2748062
            ],
            [
              14.2930607,
              48.2748259
            ],
            [
              14.2932557,
              48.2748352
            ],
            [
              14.2933362,
              48.2748364
            ],
            [
              14.2936471,
              48.2748412
            ],
            [
              14.2937299,
              48.2748414
            ],
            [
              14.2938298,
              48.2748456
            ],
            [
              14.2939412,
              48.2748588
            ],
            [
              14.2940436,
              48.274883
            ],
            [
              14.2941395,
              48.2749148
            ],
            [
              14.294237,
              48.2749637
            ],
            [
              14.2943034,
              48.2750083
            ],
            [
              14.2943543,
              48.2750481
            ],
            [
              14.2943819,
              48.2750757
            ],
            [
              14.2943902,
              48.2750883
            ],
            [
              14.2944192,
              48.2751322
            ],
            [
              14.2944305,
              48.2751493
            ],
            [
              14.2944578,
              48.2752203
            ],
            [
              14.2944708,
              48.2752748
            ],
            [
              14.2944825,
              48.2753515
            ],
            [
              14.2944899,
              48.2754298
            ],
            [
              14.2944861,
              48.2755676
            ],
            [
              14.2944835,
              48.2757088
            ],
            [
              14.2944714,
              48.2758573
            ],
            [
              14.2944459,
              48.2760637
            ],
            [
              14.2943989,
              48.2762935
            ],
            [
              14.2943599,
              48.2764728
            ],
            [
              14.2943183,
              48.2766058
            ],
            [
              14.2941032,
              48.277264
            ],
            [
              14.2940768,
              48.2773597
            ],
            [
              14.2940385,
              48.2775339
            ],
            [
              14.2940275,
              48.2776368
            ],
            [
              14.2940264,
              48.2777327
            ],
            [
              14.2940352,
              48.277843
            ],
            [
              14.2940554,
              48.277977
            ],
            [
              14.2940781,
              48.2780836
            ],
            [
              14.2941538,
              48.2784109
            ],
            [
              14.2942571,
              48.2788506
            ],
            [
              14.2943016,
              48.279137
            ],
            [
              14.2943081,
              48.2793399
            ],
            [
              14.2942931,
              48.2795172
            ],
            [
              14.2942692,
              48.2796799
            ],
            [
              14.2942432,
              48.2798067
            ],
            [
              14.2942089,
              48.2799438
            ],
            [
              14.2941377,
              48.2801753
            ],
            [
              14.2940381,
              48.2804757
            ],
            [
              14.2939434,
              48.2807678
            ],
            [
              14.29394,
              48.2807785
            ],
            [
              14.2938595,
              48.2810307
            ],
            [
              14.2938446,
              48.2810775
            ],
            [
              14.2938251,
              48.2811386
            ],
            [
              14.2937756,
              48.2812857
            ],
            [
              14.2937604,
              48.281331
            ],
            [
              14.2937391,
              48.2813836
            ],
            [
              14.2937024,
              48.2814696
            ],
            [
              14.2936625,
              48.2815295
            ],
            [
              14.293625,
              48.2815781
            ],
            [
              14.2935644,
              48.2816449
            ],
            [
              14.2934927,
              48.281714
            ],
            [
              14.2931303,
              48.282025
            ],
            [
              14.2928757,
              48.2822408
            ],
            [
              14.2927786,
              48.2823297
            ],
            [
              14.2927073,
              48.2824068
            ],
            [
              14.2926612,
              48.2824728
            ],
            [
              14.2926208,
              48.282543
            ],
            [
              14.2925858,
              48.2826284
            ],
            [
              14.2925281,
              48.2827739
            ],
            [
              14.2924794,
              48.2828699
            ],
            [
              14.2924189,
              48.282973
            ],
            [
              14.2922782,
              48.2831903
            ],
            [
              14.2921804,
              48.2833415
            ],
            [
              14.2921534,
              48.2833833
            ],
            [
              14.2921424,
              48.2834003
            ],
            [
              14.2920616,
              48.2835276
            ],
            [
              14.2920266,
              48.2835829
            ],
            [
              14.2919233,
              48.2837461
            ],
            [
              14.2919026,
              48.2837746
            ],
            [
              14.2918743,
              48.2838135
            ],
            [
              14.2917796,
              48.2839153
            ],
            [
              14.2918226,
              48.2839429
            ],
            [
              14.291861,
              48.2839722
            ],
            [
              14.2918794,
              48.2839844
            ],
            [
              14.2921545,
              48.2842155
            ],
            [
              14.2922625,
              48.2843061
            ],
            [
              14.292327,
              48.2843613
            ],
            [
              14.2925044,
              48.2845193
            ],
            [
              14.2926568,
              48.2846449
            ],
            [
              14.2926865,
              48.2846693
            ],
            [
              14.2928126,
              48.2847696
            ],
            [
              14.2930126,
              48.284932
            ],
            [
              14.2931299,
              48.2850272
            ],
            [
              14.2933257,
              48.2852067
            ],
            [
              14.2934519,
              48.2853287
            ],
            [
              14.293562,
              48.2854539
            ],
            [
              14.2936917,
              48.2856096
            ],
            [
              14.294175,
              48.2862292
            ],
            [
              14.2947141,
              48.2869229
            ],
            [
              14.2949271,
              48.2871971
            ],
            [
              14.2949386,
              48.2872119
            ],
            [
              14.2950277,
              48.2873265
            ],
            [
              14.2951203,
              48.2874456
            ],
            [
              14.2951483,
              48.287482
            ],
            [
              14.2952397,
              48.2876009
            ],
            [
              14.2952977,
              48.2876763
            ],
            [
              14.2953155,
              48.2876995
            ],
            [
              14.2953994,
              48.2878107
            ],
            [
              14.2957615,
              48.2882908
            ],
            [
              14.2965133,
              48.2892459
            ],
            [
              14.2969453,
              48.2897948
            ],
            [
              14.2970137,
              48.2898781
            ],
            [
              14.2972778,
              48.2901998
            ],
            [
              14.2973423,
              48.2902621
            ],
            [
              14.2974303,
              48.2903185
            ],
            [
              14.2975754,
              48.2903904
            ],
            [
              14.2980441,
              48.2905917
            ],
            [
              14.2982871,
              48.2906961
            ],
            [
              14.2983727,
              48.2907355
            ],
            [
              14.2983814,
              48.2907395
            ],
            [
              14.2984497,
              48.2907709
            ],
            [
              14.2990374,
              48.291041
            ],
            [
              14.2990993,
              48.2910695
            ],
            [
              14.2991292,
              48.2910822
            ],
            [
              14.2994848,
              48.2912312
            ],
            [
              14.299741,
              48.2913414
            ],
            [
              14.2997566,
              48.2913481
            ],
            [
              14.300033,
              48.2914653
            ],
            [
              14.300473,
              48.2916519
            ],
            [
              14.3005513,
              48.291685
            ],
            [
              14.3006503,
              48.2917241
            ],
            [
              14.3007552,
              48.2917656
            ],
            [
              14.3008363,
              48.2917976
            ],
            [
              14.3014851,
              48.2920538
            ],
            [
              14.3015822,
              48.2920841
            ],
            [
              14.3016479,
              48.2921027
            ],
            [
              14.3017644,
              48.2921315
            ],
            [
              14.301863,
              48.292136
            ],
            [
              14.3020357,
              48.2921368
            ],
            [
              14.3020388,
              48.2922715
            ],
            [
              14.3020427,
              48.2925373
            ],
            [
              14.3020414,
              48.2927425
            ],
            [
              14.3020428,
              48.2931613
            ],
            [
              14.3020481,
              48.2933157
            ],
            [
              14.3020373,
              48.293404
            ],
            [
              14.3020267,
              48.2934626
            ],
            [
              14.3020076,
              48.2935006
            ],
            [
              14.301951,
              48.2935796
            ],
            [
              14.3018999,
              48.2936293
            ],
            [
              14.3018261,
              48.2936739
            ],
            [
              14.3017299,
              48.2937128
            ],
            [
              14.3015291,
              48.2937736
            ],
            [
              14.3009598,
              48.2939296
            ],
            [
              14.3009185,
              48.2939404
            ],
            [
              14.3008795,
              48.2939499
            ],
            [
              14.3007372,
              48.2939858
            ],
            [
              14.3005206,
              48.2940331
            ],
            [
              14.3002529,
              48.2940897
            ],
            [
              14.3000331,
              48.2941304
            ],
            [
              14.2999417,
              48.2941467
            ],
            [
              14.2999092,
              48.2941567
            ],
            [
              14.2998715,
              48.294181
            ],
            [
              14.2998467,
              48.2942022
            ],
            [
              14.2998326,
              48.2942258
            ],
            [
              14.2998198,
              48.2942564
            ],
            [
              14.2998151,
              48.2942869
            ],
            [
              14.2998111,
              48.2943536
            ],
            [
              14.2998001,
              48.2943971
            ],
            [
              14.2996995,
              48.2946806
            ],
            [
              14.2993136,
              48.2957305
            ],
            [
              14.2992167,
              48.295948
            ],
            [
              14.2990753,
              48.2963446
            ],
            [
              14.2990553,
              48.2964354
            ],
            [
              14.2990443,
              48.2965655
            ],
            [
              14.2990295,
              48.2966868
            ],
            [
              14.2989836,
              48.2968878
            ],
            [
              14.298903,
              48.2971557
            ],
            [
              14.2988435,
              48.2973115
            ],
            [
              14.2987651,
              48.2974962
            ],
            [
              14.2986441,
              48.2977755
            ],
            [
              14.2986294,
              48.2978085
            ],
            [
              14.2985932,
              48.2978898
            ],
            [
              14.2985568,
              48.2979723
            ],
            [
              14.2984813,
              48.2981034
            ],
            [
              14.2984567,
              48.2981458
            ],
            [
              14.2983763,
              48.298285
            ],
            [
              14.2980568,
              48.2988384
            ],
            [
              14.2980322,
              48.298881
            ],
            [
              14.298004,
              48.2989295
            ],
            [
              14.2979231,
              48.2990673
            ],
            [
              14.2976976,
              48.2994568
            ],
            [
              14.297519,
              48.2997637
            ],
            [
              14.2975041,
              48.2997893
            ],
            [
              14.2974749,
              48.2998396
            ],
            [
              14.2974673,
              48.2998526
            ],
            [
              14.297432,
              48.2999133
            ],
            [
              14.2973007,
              48.300139
            ],
            [
              14.2972221,
              48.3002742
            ],
            [
              14.2970608,
              48.3005516
            ],
            [
              14.2970154,
              48.3006297
            ],
            [
              14.296968,
              48.3007111
            ],
            [
              14.2969424,
              48.3007551
            ],
            [
              14.2969109,
              48.3008088
            ],
            [
              14.2964732,
              48.3015558
            ],
            [
              14.2964466,
              48.3016011
            ],
            [
              14.2963626,
              48.3015788
            ],
            [
              14.2959222,
              48.3014622
            ],
            [
              14.2951768,
              48.3012648
            ],
            [
              14.2949241,
              48.3011942
            ],
            [
              14.2948542,
              48.3011876
            ],
            [
              14.2947355,
              48.3011765
            ],
            [
              14.2943297,
              48.3010722
            ],
            [
              14.2942528,
              48.3010667
            ],
            [
              14.29421,
              48.3010736
            ],
            [
              14.2941644,
              48.3010809
            ],
            [
              14.2940299,
              48.3010624
            ],
            [
              14.2940072,
              48.3010567
            ],
            [
              14.293759,
              48.3009934
            ],
            [
              14.2934904,
              48.3009248
            ]
          ],
          [
            [
              14.2939871,
              48.3010922
            ],
            [
              14.2939955,
              48.3010773
            ],
            [
              14.2934615,
              48.3009428
            ],
            [
              14.2934538,
              48.3009564
            ]
          ],
          [
            [
              14.2961238,
              48.301567
            ],
            [
              14.2958942,
              48.3015057
            ]
          ],
          [
            [
              14.2985406,
              48.2981615
            ],
            [
              14.2984542,
              48.2983106
            ]
          ],
          [
            [
              14.3002165,
              48.2941553
            ],
            [
              14.3002676,
              48.2941458
            ],
            [
              14.3006749,
              48.2940743
            ],
            [
              14.3007231,
              48.2940652
            ]
          ],
          [
            [
              14.302127,
              48.2925342
            ],
            [
              14.3021267,
              48.2924816
            ],
            [
              14.3021266,
              48.2924307
            ],
            [
              14.3021253,
              48.2923001
            ]
          ],
          [
            [
              14.2952968,
              48.2874657
            ],
            [
              14.2952553,
              48.2874801
            ],
            [
              14.2954053,
              48.2876713
            ],
            [
              14.2954407,
              48.287659
            ]
          ],
          [
            [
              14.2921057,
              48.2840246
            ],
            [
              14.2923959,
              48.2842712
            ]
          ],
          [
            [
              14.2939592,
              48.2810242
            ],
            [
              14.2939373,
              48.2810928
            ],
            [
              14.2938423,
              48.2814122
            ]
          ],
          [
            [
              14.2938379,
              48.2747845
            ],
            [
              14.2938371,
              48.2747979
            ],
            [
              14.2934709,
              48.274788
            ],
            [
              14.2934714,
              48.2747812
            ],
            [
              14.2934718,
              48.2747745
            ]
          ],
          [
            [
              14.2925994,
              48.2727405
            ],
            [
              14.2925843,
              48.2727403
            ],
            [
              14.2925891,
              48.2725815
            ],
            [
              14.2925908,
              48.2725256
            ],
            [
              14.2926058,
              48.2725259
            ]
          ],
          [
            [
              14.2927456,
              48.2696935
            ],
            [
              14.2927367,
              48.2699079
            ]
          ],
          [
            [
              14.2893023,
              48.2694599
            ],
            [
              14.2889515,
              48.2694546
            ]
          ],
          [
            [
              14.2858413,
              48.267835
            ],
            [
              14.2857787,
              48.2678837
            ],
            [
              14.2855209,
              48.2677401
            ],
            [
              14.2854905,
              48.2677121
            ],
            [
              14.2854744,
              48.2676841
            ],
            [
              14.2854672,
              48.2676626
            ],
            [
              14.2854703,
              48.2676299
            ]
          ],
          [
            [
              14.2883194,
              48.2652433
            ],
            [
              14.2882651,
              48.2652157
            ],
            [
              14.2879286,
              48.2655089
            ],
            [
              14.2879662,
              48.265528
            ]
          ],
          [
            [
              14.2901697,
              48.2621534
            ],
            [
              14.2901667,
              48.2622444
            ],
            [
              14.2901396,
              48.2623497
            ],
            [
              14.2901047,
              48.2624003
            ],
            [
              14.2900775,
              48.2624953
            ]
          ],
          [
            [
              14.2906431,
              48.258396
            ],
            [
              14.2906528,
              48.2584833
            ],
            [
              14.2906822,
              48.2586007
            ],
            [
              14.2907052,
              48.2587137
            ],
            [
              14.2907231,
              48.258803
            ],
            [
              14.2907463,
              48.2589129
            ]
          ],
          [
            [
              14.2875097,
              48.2556798
            ],
            [
              14.2874891,
              48.2557306
            ],
            [
              14.2873637,
              48.2560394
            ]
          ],
          [
            [
              14.2880465,
              48.250504
            ],
            [
              14.288022,
              48.2505021
            ],
            [
              14.2880454,
              48.2502971
            ],
            [
              14.2880692,
              48.2502982
            ]
          ],
          [
            [
              14.2851821,
              48.24955
            ],
            [
              14.2848887,
              48.2495018
            ]
          ],
          [
            [
              14.282397,
              48.2449667
            ],
            [
              14.282755,
              48.2450817
            ]
          ],
          [
            [
              14.2816552,
              48.2406351
            ],
            [
              14.28123,
              48.2408108
            ]
          ]
        ]
      },
      "id": "relation/1149298"
    }
  ]
}