{
  "type": "FeatureCollection",
  "features": [
    {
      "type": "Feature",
      "properties": {
        "@id": "relation/17190350",
        "alternate": "no",
        "from": "Landgutstraße",
        "name": "Bus 150: Landgutstraße => Pöstlingberg",
        "network": "Oberösterreichischer Verkehrsverbund",
        "network:short": "OÖVV",
        "network:wikidata": "Q2011605",
        "network:wikipedia": "de:Oberösterreichischer Verkehrsverbund",
        "operator": "Linz Linien GmbH",
        "public_transport:version": "2",
        "ref": "150",
        "route": "bus",
        "to": "Pöstlingberg",
        "type": "route"
      },
      "geometry": {
        "type": "LineString",
        "coordinates": [
          [
            14.2769389,
            48.3107421
          ],
          [
            14.2769556,
            48.3107224
          ],
          [
            14.2769737,
            48.3107008
          ],
          [
            14.2770788,
            48.3107413
          ],
          [
            14.2771091,
            48.3107532
          ],
          [
            14.2773497,
            48.3108463
          ],
          [
            14.2774139,
            48.3108711
          ],
          [
            14.2774813,
            48.3108972
          ],
          [
            14.277794,
            48.3110184
          ],
          [
            14.278052,
            48.3111144
          ],
          [
            14.2785736,
            48.3113084
          ],
          [
            14.278988,
            48.3114625
          ],
          [
            14.2798188,
            48.3117715
          ],
          [
            14.2798568,
            48.3117251
          ],
          [
            14.2800412,
            48.3115
          ],
          [
            14.2806635,
            48.3107403
          ],
          [
            14.2807306,
            48.3106584
          ],
          [
            14.2807787,
            48.3105997
          ],
          [
            14.2806954,
            48.3105689
          ],
          [
            14.280558,
            48.310518
          ],
          [
            14.280114,
            48.3103558
          ],
          [
            14.2799228,
            48.3102859
          ],
          [
            14.2798927,
            48.3102749
          ],
          [
            14.27925,
            48.3100439
          ],
          [
            14.2790142,
            48.3099591
          ],
          [
            14.2789519,
            48.3099359
          ],
          [
            14.2789092,
            48.3099199
          ],
          [
            14.277953,
            48.3095606
          ],
          [
            14.2778142,
            48.3095084
          ],
          [
            14.2777111,
            48.309468
          ],
          [
            14.2776819,
            48.3094565
          ],
          [
            14.2776001,
            48.3094245
          ],
          [
            14.2775029,
            48.3094536
          ],
          [
            14.2773721,
            48.3094928
          ],
          [
            14.2768854,
            48.3096379
          ],
          [
            14.2762687,
            48.3098218
          ],
          [
            14.2755463,
            48.3100372
          ],
          [
            14.275483,
            48.3100561
          ],
          [
            14.2752992,
            48.3101201
          ],
          [
            14.2752204,
            48.3101505
          ],
          [
            14.2751317,
            48.3101847
          ],
          [
            14.2750704,
            48.3102083
          ],
          [
            14.2749453,
            48.3102608
          ],
          [
            14.2749181,
            48.3102722
          ],
          [
            14.2748116,
            48.3103218
          ],
          [
            14.2747554,
            48.310341
          ],
          [
            14.274709,
            48.3103544
          ],
          [
            14.274616,
            48.3103745
          ],
          [
            14.2745136,
            48.3103928
          ],
          [
            14.2743827,
            48.3104149
          ],
          [
            14.2738364,
            48.3105062
          ],
          [
            14.2734905,
            48.3105572
          ],
          [
            14.2733797,
            48.310583
          ],
          [
            14.2733054,
            48.310612
          ],
          [
            14.273239,
            48.3106543
          ],
          [
            14.273136,
            48.3107448
          ],
          [
            14.272849,
            48.3110254
          ],
          [
            14.2728395,
            48.3110347
          ],
          [
            14.2727433,
            48.3110914
          ],
          [
            14.2726238,
            48.3111251
          ],
          [
            14.2725202,
            48.3111396
          ],
          [
            14.272359,
            48.3111496
          ],
          [
            14.2723372,
            48.311151
          ],
          [
            14.271983,
            48.3111676
          ],
          [
            14.2718654,
            48.3111731
          ],
          [
            14.271736,
            48.3111792
          ],
          [
            14.2715722,
            48.311194
          ],
          [
            14.2714498,
            48.3112138
          ],
          [
            14.2714067,
            48.3112208
          ],
          [
            14.2711422,
            48.3112697
          ],
          [
            14.2710051,
            48.3112886
          ],
          [
            14.270863,
            48.3113041
          ],
          [
            14.2707814,
            48.3113121
          ],
          [
            14.2707287,
            48.3113173
          ],
          [
            14.2704405,
            48.3113455
          ],
          [
            14.270398,
            48.3113497
          ],
          [
            14.2703592,
            48.3113535
          ],
          [
            14.2699981,
            48.3113877
          ],
          [
            14.2696788,
            48.3114162
          ],
          [
            14.2695857,
            48.3114245
          ],
          [
            14.269456,
            48.3114333
          ],
          [
            14.2693089,
            48.3114424
          ],
          [
            14.269134,
            48.3114533
          ],
          [
            14.2690249,
            48.3114584
          ],
          [
            14.2689771,
            48.311458
          ],
          [
            14.2688479,
            48.3114538
          ],
          [
            14.2687221,
            48.3114365
          ],
          [
            14.2685707,
            48.3113979
          ],
          [
            14.2684839,
            48.3113708
          ],
          [
            14.2683953,
            48.3113357
          ],
          [
            14.2682896,
            48.3112856
          ],
          [
            14.2682741,
            48.3112769
          ],
          [
            14.2682057,
            48.3112382
          ],
          [
            14.2681124,
            48.3111783
          ],
          [
            14.2680415,
            48.3111269
          ],
          [
            14.2679844,
            48.3110741
          ],
          [
            14.2679242,
            48.3110041
          ],
          [
            14.2678877,
            48.3109476
          ],
          [
            14.2678532,
            48.310872
          ],
          [
            14.2678377,
            48.310804
          ],
          [
            14.2678333,
            48.3107346
          ],
          [
            14.2678359,
            48.3106888
          ],
          [
            14.2678396,
            48.3106652
          ],
          [
            14.2678436,
            48.3106395
          ],
          [
            14.2678508,
            48.3106055
          ],
          [
            14.2678679,
            48.3105568
          ],
          [
            14.2679027,
            48.3104774
          ],
          [
            14.2679375,
            48.3104133
          ],
          [
            14.2679767,
            48.3103506
          ],
          [
            14.2680394,
            48.3102748
          ],
          [
            14.2681092,
            48.3101926
          ],
          [
            14.2681574,
            48.3101144
          ],
          [
            14.2681867,
            48.310027
          ],
          [
            14.2681943,
            48.3099644
          ],
          [
            14.2681933,
            48.3098863
          ],
          [
            14.2681718,
            48.3098018
          ],
          [
            14.2681464,
            48.3097282
          ],
          [
            14.2680981,
            48.3096435
          ],
          [
            14.2680199,
            48.3095416
          ],
          [
            14.2679296,
            48.3094492
          ],
          [
            14.2678168,
            48.3093499
          ],
          [
            14.2676849,
            48.3092557
          ],
          [
            14.2676151,
            48.3092136
          ],
          [
            14.2675252,
            48.3091675
          ],
          [
            14.2674298,
            48.3091248
          ],
          [
            14.2673223,
            48.3090933
          ],
          [
            14.2672953,
            48.3090891
          ],
          [
            14.2672114,
            48.3090762
          ],
          [
            14.267091,
            48.3090694
          ],
          [
            14.2669789,
            48.3090757
          ],
          [
            14.2668813,
            48.3090925
          ],
          [
            14.2667543,
            48.309127
          ],
          [
            14.266653,
            48.3091613
          ],
          [
            14.2666135,
            48.3091781
          ],
          [
            14.2665458,
            48.3092068
          ],
          [
            14.2664305,
            48.3092651
          ],
          [
            14.2662021,
            48.3093962
          ],
          [
            14.2660396,
            48.3094921
          ],
          [
            14.2659168,
            48.3095539
          ],
          [
            14.2657968,
            48.3096036
          ],
          [
            14.2656568,
            48.3096516
          ],
          [
            14.2654561,
            48.3097148
          ],
          [
            14.2652996,
            48.309772
          ],
          [
            14.2651777,
            48.3098217
          ],
          [
            14.2651076,
            48.3098586
          ],
          [
            14.2650107,
            48.3099083
          ],
          [
            14.264926,
            48.3099637
          ],
          [
            14.2649009,
            48.3099801
          ],
          [
            14.2648134,
            48.3100418
          ],
          [
            14.2646018,
            48.3102269
          ],
          [
            14.2645006,
            48.3103166
          ],
          [
            14.2644348,
            48.310368
          ],
          [
            14.2643499,
            48.3104368
          ],
          [
            14.2642751,
            48.3104912
          ],
          [
            14.2641342,
            48.3105921
          ],
          [
            14.2640124,
            48.3106775
          ],
          [
            14.2638894,
            48.3107752
          ],
          [
            14.263875,
            48.3107897
          ],
          [
            14.2638278,
            48.3108401
          ],
          [
            14.263684,
            48.3110066
          ],
          [
            14.2635236,
            48.3111836
          ],
          [
            14.2634158,
            48.3112894
          ],
          [
            14.2632971,
            48.3113932
          ],
          [
            14.2630932,
            48.3115518
          ],
          [
            14.2625301,
            48.3119732
          ],
          [
            14.2623183,
            48.3121453
          ],
          [
            14.2621077,
            48.3123542
          ],
          [
            14.2620926,
            48.3123702
          ],
          [
            14.2619867,
            48.3124831
          ],
          [
            14.2619186,
            48.3125556
          ],
          [
            14.2618502,
            48.312616
          ],
          [
            14.2617702,
            48.3126797
          ],
          [
            14.2617106,
            48.3127152
          ],
          [
            14.2616557,
            48.312748
          ],
          [
            14.2615372,
            48.3128018
          ],
          [
            14.2614052,
            48.3128414
          ],
          [
            14.2613868,
            48.312845
          ],
          [
            14.261281,
            48.3128659
          ],
          [
            14.2611259,
            48.3128821
          ],
          [
            14.2610914,
            48.3128846
          ],
          [
            14.2609333,
            48.312896
          ],
          [
            14.2607984,
            48.3129112
          ],
          [
            14.2606981,
            48.3129332
          ],
          [
            14.2606805,
            48.3129371
          ],
          [
            14.2605571,
            48.3129764
          ],
          [
            14.2604784,
            48.3130169
          ],
          [
            14.2603872,
            48.3130791
          ],
          [
            14.2603149,
            48.3131518
          ],
          [
            14.2602595,
            48.3132401
          ],
          [
            14.2602238,
            48.3133402
          ],
          [
            14.260195,
            48.3134436
          ],
          [
            14.2601482,
            48.3136118
          ],
          [
            14.2600755,
            48.313873
          ],
          [
            14.2600256,
            48.314036
          ],
          [
            14.2599502,
            48.3142251
          ],
          [
            14.2598578,
            48.3144211
          ],
          [
            14.2596126,
            48.3148169
          ],
          [
            14.2595232,
            48.3149613
          ],
          [
            14.2594536,
            48.3150671
          ],
          [
            14.2593695,
            48.3151697
          ],
          [
            14.2592847,
            48.3152507
          ],
          [
            14.2589931,
            48.3155036
          ],
          [
            14.2589363,
            48.3155529
          ],
          [
            14.2586555,
            48.3158064
          ],
          [
            14.2582906,
            48.316136
          ],
          [
            14.2582183,
            48.3161959
          ],
          [
            14.2581567,
            48.3162441
          ],
          [
            14.2581116,
            48.3162754
          ],
          [
            14.2580312,
            48.3163257
          ],
          [
            14.2579382,
            48.316381
          ],
          [
            14.2578569,
            48.3164222
          ],
          [
            14.2577781,
            48.3164585
          ],
          [
            14.2576832,
            48.3164964
          ],
          [
            14.2575807,
            48.3165336
          ],
          [
            14.2574887,
            48.3165648
          ],
          [
            14.2573878,
            48.3165966
          ],
          [
            14.2572807,
            48.3166285
          ],
          [
            14.2571336,
            48.3166751
          ],
          [
            14.2570156,
            48.3167161
          ],
          [
            14.2569344,
            48.3167471
          ],
          [
            14.2568558,
            48.3167792
          ],
          [
            14.2567739,
            48.3168175
          ],
          [
            14.2566957,
            48.316856
          ],
          [
            14.256625,
            48.3168954
          ],
          [
            14.2565387,
            48.3169505
          ],
          [
            14.2564737,
            48.3169987
          ],
          [
            14.2563985,
            48.3170577
          ],
          [
            14.2563477,
            48.3171072
          ],
          [
            14.256303,
            48.3171537
          ],
          [
            14.2562542,
            48.3172075
          ],
          [
            14.2561976,
            48.317273
          ],
          [
            14.2561572,
            48.3173233
          ],
          [
            14.2561101,
            48.3173808
          ],
          [
            14.2560788,
            48.3174169
          ],
          [
            14.256039,
            48.317457
          ],
          [
            14.2560027,
            48.3174887
          ],
          [
            14.2559649,
            48.3175165
          ],
          [
            14.255924,
            48.317541
          ],
          [
            14.2558695,
            48.317568
          ],
          [
            14.2558127,
            48.3175902
          ],
          [
            14.2557684,
            48.3176035
          ],
          [
            14.2557188,
            48.3176148
          ],
          [
            14.2556796,
            48.317622
          ],
          [
            14.2556369,
            48.317628
          ],
          [
            14.2555937,
            48.3176311
          ],
          [
            14.2555431,
            48.3176333
          ],
          [
            14.2554846,
            48.3176329
          ],
          [
            14.2554094,
            48.3176255
          ],
          [
            14.2553392,
            48.3176147
          ],
          [
            14.2551208,
            48.3175792
          ],
          [
            14.2549291,
            48.3175569
          ],
          [
            14.2547973,
            48.3175559
          ],
          [
            14.2546727,
            48.3175725
          ],
          [
            14.2545623,
            48.3175978
          ],
          [
            14.254511,
            48.3176164
          ],
          [
            14.2543962,
            48.3176701
          ],
          [
            14.2543178,
            48.3177204
          ],
          [
            14.2542837,
            48.3177502
          ],
          [
            14.2542268,
            48.3178074
          ],
          [
            14.25417,
            48.317879
          ],
          [
            14.2540971,
            48.3179651
          ],
          [
            14.2539948,
            48.3180811
          ],
          [
            14.253776,
            48.3183042
          ],
          [
            14.2533546,
            48.3187027
          ],
          [
            14.2531353,
            48.3189283
          ],
          [
            14.2530554,
            48.319023
          ],
          [
            14.2530302,
            48.3190609
          ],
          [
            14.2530005,
            48.3191144
          ],
          [
            14.2529771,
            48.3191662
          ],
          [
            14.2529569,
            48.3192146
          ],
          [
            14.2529336,
            48.3192955
          ],
          [
            14.2529268,
            48.3193368
          ],
          [
            14.2529211,
            48.3194337
          ],
          [
            14.2529279,
            48.3195086
          ],
          [
            14.2529417,
            48.3195634
          ],
          [
            14.2529568,
            48.3196018
          ],
          [
            14.2529927,
            48.3196634
          ],
          [
            14.2530338,
            48.3197117
          ],
          [
            14.2531086,
            48.3197799
          ],
          [
            14.2531545,
            48.3198101
          ],
          [
            14.2532367,
            48.3198534
          ],
          [
            14.2533134,
            48.3198842
          ],
          [
            14.2534107,
            48.3199147
          ],
          [
            14.2535919,
            48.31996
          ],
          [
            14.2537819,
            48.320012
          ],
          [
            14.2539013,
            48.3200454
          ],
          [
            14.2539713,
            48.3200674
          ],
          [
            14.2540818,
            48.3201057
          ],
          [
            14.254249,
            48.3201653
          ],
          [
            14.2543844,
            48.3202223
          ],
          [
            14.2545109,
            48.3202767
          ],
          [
            14.2546227,
            48.3203265
          ],
          [
            14.2547291,
            48.3203777
          ],
          [
            14.2548246,
            48.3204278
          ],
          [
            14.2548995,
            48.3204714
          ],
          [
            14.2549626,
            48.3205101
          ],
          [
            14.2550039,
            48.3205421
          ],
          [
            14.2550346,
            48.3205676
          ],
          [
            14.2550728,
            48.3206022
          ],
          [
            14.2551267,
            48.320657
          ],
          [
            14.2551933,
            48.3207303
          ],
          [
            14.2552925,
            48.320847
          ],
          [
            14.2553859,
            48.3209654
          ],
          [
            14.2554842,
            48.3210953
          ],
          [
            14.2555694,
            48.321218
          ],
          [
            14.2556292,
            48.3213111
          ],
          [
            14.2556739,
            48.3213813
          ],
          [
            14.2557185,
            48.3214563
          ],
          [
            14.2557638,
            48.3215347
          ],
          [
            14.255803,
            48.3216079
          ],
          [
            14.2558332,
            48.3216693
          ],
          [
            14.2558505,
            48.3217099
          ],
          [
            14.2558817,
            48.3217876
          ],
          [
            14.2558942,
            48.3218288
          ],
          [
            14.2559031,
            48.3218585
          ],
          [
            14.255912,
            48.3218948
          ],
          [
            14.2559211,
            48.321941
          ],
          [
            14.2559256,
            48.3219767
          ],
          [
            14.2559325,
            48.3220516
          ],
          [
            14.2559336,
            48.3221077
          ],
          [
            14.2559302,
            48.3222428
          ],
          [
            14.2559266,
            48.3222924
          ],
          [
            14.2559249,
            48.3223593
          ],
          [
            14.2559544,
            48.3223602
          ],
          [
            14.2559859,
            48.3223597
          ],
          [
            14.2560223,
            48.3223591
          ],
          [
            14.2561069,
            48.3223354
          ],
          [
            14.2562999,
            48.3222326
          ],
          [
            14.2564982,
            48.322135
          ],
          [
            14.2566199,
            48.3220845
          ],
          [
            14.2567163,
            48.3220612
          ],
          [
            14.256805,
            48.3220525
          ],
          [
            14.256948,
            48.3220566
          ],
          [
            14.2570271,
            48.3220677
          ],
          [
            14.2571127,
            48.3220813
          ],
          [
            14.2571952,
            48.3221066
          ],
          [
            14.2572841,
            48.3221519
          ],
          [
            14.2573603,
            48.3222143
          ],
          [
            14.2574314,
            48.3222852
          ],
          [
            14.2575744,
            48.3224692
          ],
          [
            14.2576323,
            48.3225348
          ],
          [
            14.257703,
            48.3225932
          ],
          [
            14.2577963,
            48.3226581
          ],
          [
            14.2578538,
            48.3226924
          ],
          [
            14.2579115,
            48.3227269
          ],
          [
            14.2580265,
            48.3227839
          ],
          [
            14.2580951,
            48.3228176
          ],
          [
            14.2581799,
            48.322857
          ],
          [
            14.2583012,
            48.3229059
          ],
          [
            14.2586254,
            48.3230314
          ],
          [
            14.2595983,
            48.3233653
          ],
          [
            14.2596402,
            48.3233878
          ],
          [
            14.2596724,
            48.3234147
          ],
          [
            14.2597244,
            48.3234705
          ],
          [
            14.2598556,
            48.3236222
          ],
          [
            14.2598979,
            48.3236717
          ],
          [
            14.2599367,
            48.3237257
          ],
          [
            14.2599536,
            48.3237492
          ],
          [
            14.2599956,
            48.3238076
          ],
          [
            14.260005,
            48.3238401
          ],
          [
            14.2600028,
            48.3238754
          ],
          [
            14.2599957,
            48.3239154
          ],
          [
            14.2599801,
            48.3239605
          ],
          [
            14.259964,
            48.3239995
          ],
          [
            14.2598191,
            48.3243131
          ],
          [
            14.2598062,
            48.3243464
          ],
          [
            14.2597973,
            48.3243759
          ],
          [
            14.25979,
            48.3244072
          ],
          [
            14.259786,
            48.3244345
          ],
          [
            14.2597857,
            48.3244574
          ],
          [
            14.2597863,
            48.3244789
          ],
          [
            14.2597898,
            48.3245102
          ],
          [
            14.2597951,
            48.3245553
          ],
          [
            14.259799,
            48.3245993
          ],
          [
            14.2598093,
            48.3246994
          ],
          [
            14.2598141,
            48.3247668
          ],
          [
            14.2598227,
            48.3250458
          ]
        ]
      },
      "id": "relation/17190350"
    },
    {
      "type": "Feature",
      "properties": {
        "@id": "relation/17190366",
        "alternate": "no",
        "from": "Pöstlingberg",
        "name": "Bus 150: Pöstlingberg => Landgutstraße",
        "network": "Oberösterreichischer Verkehrsverbund",
        "network:short": "OÖVV",
        "network:wikidata": "Q2011605",
        "network:wikipedia": "de:Oberösterreichischer Verkehrsverbund",
        "operator": "Linz Linien GmbH",
        "public_transport:version": "2",
        "ref": "150",
        "route": "bus",
        "to": "Landgutstraße",
        "type": "route"
      },
      "geometry": {
        "type": "LineString",
        "coordinates": [
          [
            14.2769389,
            48.3107421
          ],
          [
            14.2768655,
            48.3108303
          ],
          [
            14.2768238,
            48.3108805
          ],
          [
            14.2768017,
            48.3109067
          ],
          [
            14.2767764,
            48.3109368
          ],
          [
            14.2767606,
            48.3109561
          ],
          [
            14.2766527,
            48.3110901
          ],
          [
            14.276634,
            48.3111262
          ],
          [
            14.2766099,
            48.3111728
          ],
          [
            14.2763171,
            48.3115276
          ],
          [
            14.2762246,
            48.3116421
          ],
          [
            14.2761964,
            48.3116748
          ],
          [
            14.2761542,
            48.3117129
          ],
          [
            14.2759758,
            48.3118159
          ],
          [
            14.275499,
            48.312091
          ],
          [
            14.2753991,
            48.3121395
          ],
          [
            14.2753243,
            48.3121664
          ],
          [
            14.2752692,
            48.3121837
          ],
          [
            14.2752311,
            48.3121956
          ],
          [
            14.2751393,
            48.3122221
          ],
          [
            14.2750956,
            48.3121564
          ],
          [
            14.2750387,
            48.3121154
          ],
          [
            14.2746397,
            48.3119315
          ],
          [
            14.2745224,
            48.3118774
          ],
          [
            14.2745542,
            48.3118477
          ],
          [
            14.2745674,
            48.3118354
          ],
          [
            14.274626,
            48.3118081
          ],
          [
            14.2747447,
            48.3117809
          ],
          [
            14.274849,
            48.3117432
          ],
          [
            14.2749084,
            48.3117082
          ],
          [
            14.2749261,
            48.3116978
          ],
          [
            14.2749811,
            48.3116433
          ],
          [
            14.2750181,
            48.3115861
          ],
          [
            14.2750318,
            48.3115443
          ],
          [
            14.2750389,
            48.3115227
          ],
          [
            14.2750477,
            48.3114643
          ],
          [
            14.2750295,
            48.3113941
          ],
          [
            14.2749919,
            48.3113206
          ],
          [
            14.2748822,
            48.311188
          ],
          [
            14.2747583,
            48.3110381
          ],
          [
            14.2746934,
            48.3109608
          ],
          [
            14.2746799,
            48.3109448
          ],
          [
            14.2745567,
            48.3107981
          ],
          [
            14.2744957,
            48.3107088
          ],
          [
            14.2744567,
            48.3106347
          ],
          [
            14.2744478,
            48.3106177
          ],
          [
            14.2743922,
            48.3104444
          ],
          [
            14.2743827,
            48.3104149
          ],
          [
            14.2738364,
            48.3105062
          ],
          [
            14.2734905,
            48.3105572
          ],
          [
            14.2733797,
            48.310583
          ],
          [
            14.2733054,
            48.310612
          ],
          [
            14.273239,
            48.3106543
          ],
          [
            14.273136,
            48.3107448
          ],
          [
            14.272849,
            48.3110254
          ],
          [
            14.2728395,
            48.3110347
          ],
          [
            14.2727433,
            48.3110914
          ],
          [
            14.2726238,
            48.3111251
          ],
          [
            14.2725202,
            48.3111396
          ],
          [
            14.272359,
            48.3111496
          ],
          [
            14.2723372,
            48.311151
          ],
          [
            14.271983,
            48.3111676
          ],
          [
            14.2718654,
            48.3111731
          ],
          [
            14.271736,
            48.3111792
          ],
          [
            14.2715722,
            48.311194
          ],
          [
            14.2714498,
            48.3112138
          ],
          [
            14.2714067,
            48.3112208
          ],
          [
            14.2711422,
            48.3112697
          ],
          [
            14.2710051,
            48.3112886
          ],
          [
            14.270863,
            48.3113041
          ],
          [
            14.2707814,
            48.3113121
          ],
          [
            14.2707287,
            48.3113173
          ],
          [
            14.2704405,
            48.3113455
          ],
          [
            14.270398,
            48.3113497
          ],
          [
            14.2703592,
            48.3113535
          ],
          [
            14.2699981,
            48.3113877
          ],
          [
            14.2696788,
            48.3114162
          ],
          [
            14.2695857,
            48.3114245
          ],
          [
            14.269456,
            48.3114333
          ],
          [
            14.2693089,
            48.3114424
          ],
          [
            14.269134,
            48.3114533
          ],
          [
            14.2690249,
            48.3114584
          ],
          [
            14.2689771,
            48.311458
          ],
          [
            14.2688479,
            48.3114538
          ],
          [
            14.2687221,
            48.3114365
          ],
          [
            14.2685707,
            48.3113979
          ],
          [
            14.2684839,
            48.3113708
          ],
          [
            14.2683953,
            48.3113357
          ],
          [
            14.2682896,
            48.3112856
          ],
          [
            14.2682741,
            48.3112769
          ],
          [
            14.2682057,
            48.3112382
          ],
          [
            14.2681124,
            48.3111783
          ],
          [
            14.2680415,
            48.3111269
          ],
          [
            14.2679844,
            48.3110741
          ],
          [
            14.2679242,
            48.3110041
          ],
          [
            14.2678877,
            48.3109476
          ],
          [
            14.2678532,
            48.310872
          ],
          [
            14.2678377,
            48.310804
          ],
          [
            14.2678333,
            48.3107346
          ],
          [
            14.2678359,
            48.3106888
          ],
          [
            14.2678396,
            48.3106652
          ],
          [
            14.2678436,
            48.3106395
          ],
          [
            14.2678508,
            48.3106055
          ],
          [
            14.2678679,
            48.3105568
          ],
          [
            14.2679027,
            48.3104774
          ],
          [
            14.2679375,
            48.3104133
          ],
          [
            14.2679767,
            48.3103506
          ],
          [
            14.2680394,
            48.3102748
          ],
          [
            14.2681092,
            48.3101926
          ],
          [
            14.2681574,
            48.3101144
          ],
          [
            14.2681867,
            48.310027
          ],
          [
            14.2681943,
            48.3099644
          ],
          [
            14.2681933,
            48.3098863
          ],
          [
            14.2681718,
            48.3098018
          ],
          [
            14.2681464,
            48.3097282
          ],
          [
            14.2680981,
            48.3096435
          ],
          [
            14.2680199,
            48.3095416
          ],
          [
            14.2679296,
            48.3094492
          ],
          [
            14.2678168,
            48.3093499
          ],
          [
            14.2676849,
            48.3092557
          ],
          [
            14.2676151,
            48.3092136
          ],
          [
            14.2675252,
            48.3091675
          ],
          [
            14.2674298,
            48.3091248
          ],
          [
            14.2673223,
            48.3090933
          ],
          [
            14.2672953,
            48.3090891
          ],
          [
            14.2672114,
            48.3090762
          ],
          [
            14.267091,
            48.3090694
          ],
          [
            14.2669789,
            48.3090757
          ],
          [
            14.2668813,
            48.3090925
          ],
          [
            14.2667543,
            48.309127
          ],
          [
            14.266653,
            48.3091613
          ],
          [
            14.2666135,
            48.3091781
          ],
          [
            14.2665458,
            48.3092068
          ],
          [
            14.2664305,
            48.3092651
          ],
          [
            14.2662021,
            48.3093962
          ],
          [
            14.2660396,
            48.3094921
          ],
          [
            14.2659168,
            48.3095539
          ],
          [
            14.2657968,
            48.3096036
          ],
          [
            14.2656568,
            48.3096516
          ],
          [
            14.2654561,
            48.3097148
          ],
          [
            14.2652996,
            48.309772
          ],
          [
            14.2651777,
            48.3098217
          ],
          [
            14.2651076,
            48.3098586
          ],
          [
            14.2650107,
            48.3099083
          ],
          [
            14.264926,
            48.3099637
          ],
          [
            14.2649009,
            48.3099801
          ],
          [
            14.2648134,
            48.3100418
          ],
          [
            14.2646018,
            48.3102269
          ],
          [
            14.2645006,
            48.3103166
          ],
          [
            14.2644348,
            48.310368
          ],
          [
            14.2643499,
            48.3104368
          ],
          [
            14.2642751,
            48.3104912
          ],
          [
            14.2641342,
            48.3105921
          ],
          [
            14.2640124,
            48.3106775
          ],
          [
            14.2638894,
            48.3107752
          ],
          [
            14.263875,
            48.3107897
          ],
          [
            14.2638278,
            48.3108401
          ],
          [
            14.263684,
            48.3110066
          ],
          [
            14.2635236,
            48.3111836
          ],
          [
            14.2634158,
            48.3112894
          ],
          [
            14.2632971,
            48.3113932
          ],
          [
            14.2630932,
            48.3115518
          ],
          [
            14.2625301,
            48.3119732
          ],
          [
            14.2623183,
            48.3121453
          ],
          [
            14.2621077,
            48.3123542
          ],
          [
            14.2620926,
            48.3123702
          ],
          [
            14.2619867,
            48.3124831
          ],
          [
            14.2619186,
            48.3125556
          ],
          [
            14.2618502,
            48.312616
          ],
          [
            14.2617702,
            48.3126797
          ],
          [
            14.2617106,
            48.3127152
          ],
          [
            14.2616557,
            48.312748
          ],
          [
            14.2615372,
            48.3128018
          ],
          [
            14.2614052,
            48.3128414
          ],
          [
            14.2613868,
            48.312845
          ],
          [
            14.261281,
            48.3128659
          ],
          [
            14.2611259,
            48.3128821
          ],
          [
            14.2610914,
            48.3128846
          ],
          [
            14.2609333,
            48.312896
          ],
          [
            14.2607984,
            48.3129112
          ],
          [
            14.2606981,
            48.3129332
          ],
          [
            14.2606805,
            48.3129371
          ],
          [
            14.2605571,
            48.3129764
          ],
          [
            14.2604784,
            48.3130169
          ],
          [
            14.2603872,
            48.3130791
          ],
          [
            14.2603149,
            48.3131518
          ],
          [
            14.2602595,
            48.3132401
          ],
          [
            14.2602238,
            48.3133402
          ],
          [
            14.260195,
            48.3134436
          ],
          [
            14.2601482,
            48.3136118
          ],
          [
            14.2600755,
            48.313873
          ],
          [
            14.2600256,
            48.314036
          ],
          [
            14.2599502,
            48.3142251
          ],
          [
            14.2598578,
            48.3144211
          ],
          [
            14.2596126,
            48.3148169
          ],
          [
            14.2595232,
            48.3149613
          ],
          [
            14.2594536,
            48.3150671
          ],
          [
            14.2593695,
            48.3151697
          ],
          [
            14.2592847,
            48.3152507
          ],
          [
            14.2589931,
            48.3155036
          ],
          [
            14.2589363,
            48.3155529
          ],
          [
            14.2586555,
            48.3158064
          ],
          [
            14.2582906,
            48.316136
          ],
          [
            14.2582183,
            48.3161959
          ],
          [
            14.2581567,
            48.3162441
          ],
          [
            14.2581116,
            48.3162754
          ],
          [
            14.2580312,
            48.3163257
          ],
          [
            14.2579382,
            48.316381
          ],
          [
            14.2578569,
            48.3164222
          ],
          [
            14.2577781,
            48.3164585
          ],
          [
            14.2576832,
            48.3164964
          ],
          [
            14.2575807,
            48.3165336
          ],
          [
            14.2574887,
            48.3165648
          ],
          [
            14.2573878,
            48.3165966
          ],
          [
            14.2572807,
            48.3166285
          ],
          [
            14.2571336,
            48.3166751
          ],
          [
            14.2570156,
            48.3167161
          ],
          [
            14.2569344,
            48.3167471
          ],
          [
            14.2568558,
            48.3167792
          ],
          [
            14.2567739,
            48.3168175
          ],
          [
            14.2566957,
            48.316856
          ],
          [
            14.256625,
            48.3168954
          ],
          [
            14.2565387,
            48.3169505
          ],
          [
            14.2564737,
            48.3169987
          ],
          [
            14.2563985,
            48.3170577
          ],
          [
            14.2563477,
            48.3171072
          ],
          [
            14.256303,
            48.3171537
          ],
          [
            14.2562542,
            48.3172075
          ],
          [
            14.2561976,
            48.317273
          ],
          [
            14.2561572,
            48.3173233
          ],
          [
            14.2561101,
            48.3173808
          ],
          [
            14.2560788,
            48.3174169
          ],
          [
            14.256039,
            48.317457
          ],
          [
            14.2560027,
            48.3174887
          ],
          [
            14.2559649,
            48.3175165
          ],
          [
            14.255924,
            48.317541
          ],
          [
            14.2558695,
            48.317568
          ],
          [
            14.2558127,
            48.3175902
          ],
          [
            14.2557684,
            48.3176035
          ],
          [
            14.2557188,
            48.3176148
          ],
          [
            14.2556796,
            48.317622
          ],
          [
            14.2556369,
            48.317628
          ],
          [
            14.2555937,
            48.3176311
          ],
          [
            14.2555431,
            48.3176333
          ],
          [
            14.2554846,
            48.3176329
          ],
          [
            14.2554094,
            48.3176255
          ],
          [
            14.2553392,
            48.3176147
          ],
          [
            14.2551208,
            48.3175792
          ],
          [
            14.2549291,
            48.3175569
          ],
          [
            14.2547973,
            48.3175559
          ],
          [
            14.2546727,
            48.3175725
          ],
          [
            14.2545623,
            48.3175978
          ],
          [
            14.254511,
            48.3176164
          ],
          [
            14.2543962,
            48.3176701
          ],
          [
            14.2543178,
            48.3177204
          ],
          [
            14.2542837,
            48.3177502
          ],
          [
            14.2542268,
            48.3178074
          ],
          [
            14.25417,
            48.317879
          ],
          [
            14.2540971,
            48.3179651
          ],
          [
            14.2539948,
            48.3180811
          ],
          [
            14.253776,
            48.3183042
          ],
          [
            14.2533546,
            48.3187027
          ],
          [
            14.2531353,
            48.3189283
          ],
          [
            14.2530554,
            48.319023
          ],
          [
            14.2530302,
            48.3190609
          ],
          [
            14.2530005,
            48.3191144
          ],
          [
            14.2529771,
            48.3191662
          ],
          [
            14.2529569,
            48.3192146
          ],
          [
            14.2529336,
            48.3192955
          ],
          [
            14.2529268,
            48.3193368
          ],
          [
            14.2529211,
            48.3194337
          ],
          [
            14.2529279,
            48.3195086
          ],
          [
            14.2529417,
            48.3195634
          ],
          [
            14.2529568,
            48.3196018
          ],
          [
            14.2529927,
            48.3196634
          ],
          [
            14.2530338,
            48.3197117
          ],
          [
            14.2531086,
            48.3197799
          ],
          [
            14.2531545,
            48.3198101
          ],
          [
            14.2532367,
            48.3198534
          ],
          [
            14.2533134,
            48.3198842
          ],
          [
            14.2534107,
            48.3199147
          ],
          [
            14.2535919,
            48.31996
          ],
          [
            14.2537819,
            48.320012
          ],
          [
            14.2539013,
            48.3200454
          ],
          [
            14.2539713,
            48.3200674
          ],
          [
            14.2540818,
            48.3201057
          ],
          [
            14.254249,
            48.3201653
          ],
          [
            14.2543844,
            48.3202223
          ],
          [
            14.2545109,
            48.3202767
          ],
          [
            14.2546227,
            48.3203265
          ],
          [
            14.2547291,
            48.3203777
          ],
          [
            14.2548246,
            48.3204278
          ],
          [
            14.2548995,
            48.3204714
          ],
          [
            14.2549626,
            48.3205101
          ],
          [
            14.2550039,
            48.3205421
          ],
          [
            14.2550346,
            48.3205676
          ],
          [
            14.2550728,
            48.3206022
          ],
          [
            14.2551267,
            48.320657
          ],
          [
            14.2551933,
            48.3207303
          ],
          [
            14.2552925,
            48.320847
          ],
          [
            14.2553859,
            48.3209654
          ],
          [
            14.2554842,
            48.3210953
          ],
          [
            14.2555694,
            48.321218
          ],
          [
            14.2556292,
            48.3213111
          ],
          [
            14.2556739,
            48.3213813
          ],
          [
            14.2557185,
            48.3214563
          ],
          [
            14.2557638,
            48.3215347
          ],
          [
            14.255803,
            48.3216079
          ],
          [
            14.2558332,
            48.3216693
          ],
          [
            14.2558505,
            48.3217099
          ],
          [
            14.2558817,
            48.3217876
          ],
          [
            14.2558942,
            48.3218288
          ],
          [
            14.2559031,
            48.3218585
          ],
          [
            14.255912,
            48.3218948
          ],
          [
            14.2559211,
            48.321941
          ],
          [
            14.2559256,
            48.3219767
          ],
          [
            14.2559325,
            48.3220516
          ],
          [
            14.2559336,
            48.3221077
          ],
          [
            14.2559302,
            48.3222428
          ],
          [
            14.2559266,
            48.3222924
          ],
          [
            14.2559249,
            48.3223593
          ],
          [
            14.2559038,
            48.3225129
          ],
          [
            14.2558781,
            48.3226493
          ],
          [
            14.2558458,
            48.3227775
          ],
          [
            14.2558092,
            48.3229118
          ],
          [
            14.2557803,
            48.3230023
          ],
          [
            14.2557369,
            48.3231243
          ],
          [
            14.2556842,
            48.3232476
          ],
          [
            14.2556599,
            48.323299
          ],
          [
            14.2555999,
            48.32342
          ],
          [
            14.2555271,
            48.3235504
          ],
          [
            14.255475,
            48.3236398
          ],
          [
            14.2553912,
            48.3237805
          ],
          [
            14.2553212,
            48.3238931
          ],
          [
            14.2552787,
            48.323966
          ],
          [
            14.2552473,
            48.3240227
          ],
          [
            14.2552326,
            48.3240621
          ],
          [
            14.2552203,
            48.3241118
          ],
          [
            14.2552136,
            48.3241673
          ],
          [
            14.2552114,
            48.3242113
          ],
          [
            14.2552139,
            48.324278
          ],
          [
            14.2552274,
            48.3243383
          ],
          [
            14.255236,
            48.324367
          ],
          [
            14.2552443,
            48.3243949
          ],
          [
            14.2552622,
            48.3244413
          ],
          [
            14.2552886,
            48.3244936
          ],
          [
            14.2553139,
            48.3245333
          ],
          [
            14.2553603,
            48.3245926
          ],
          [
            14.2554144,
            48.3246493
          ],
          [
            14.2554716,
            48.3246993
          ],
          [
            14.2555603,
            48.3247744
          ],
          [
            14.2556545,
            48.3248574
          ],
          [
            14.2558123,
            48.3249983
          ],
          [
            14.2559779,
            48.3251501
          ],
          [
            14.2560926,
            48.3252573
          ],
          [
            14.256205,
            48.3253697
          ],
          [
            14.2562621,
            48.3254287
          ],
          [
            14.2563849,
            48.3255648
          ],
          [
            14.2565079,
            48.325702
          ],
          [
            14.2565956,
            48.3258078
          ],
          [
            14.2567232,
            48.3259578
          ],
          [
            14.2568023,
            48.3260517
          ],
          [
            14.2568804,
            48.3261476
          ],
          [
            14.2569676,
            48.3262579
          ],
          [
            14.2570308,
            48.3263445
          ],
          [
            14.2570897,
            48.3264255
          ],
          [
            14.2571766,
            48.3265503
          ],
          [
            14.257257,
            48.3266732
          ],
          [
            14.2573327,
            48.3268008
          ],
          [
            14.2573556,
            48.3268435
          ],
          [
            14.2574022,
            48.3269305
          ],
          [
            14.2574528,
            48.3270361
          ],
          [
            14.2574784,
            48.3270945
          ],
          [
            14.2575,
            48.3271421
          ],
          [
            14.2575255,
            48.3272101
          ],
          [
            14.2575444,
            48.327264
          ],
          [
            14.2575617,
            48.3273197
          ],
          [
            14.2575741,
            48.3273671
          ],
          [
            14.2575862,
            48.3274157
          ],
          [
            14.2575967,
            48.3274683
          ],
          [
            14.2576068,
            48.3275347
          ],
          [
            14.2576121,
            48.327587
          ],
          [
            14.2576176,
            48.3276533
          ],
          [
            14.2576196,
            48.3277305
          ],
          [
            14.2576196,
            48.3277948
          ],
          [
            14.2576184,
            48.3278942
          ],
          [
            14.2576033,
            48.3280279
          ],
          [
            14.2577026,
            48.3280312
          ],
          [
            14.2577485,
            48.3280303
          ],
          [
            14.2577869,
            48.3280258
          ],
          [
            14.2578268,
            48.3280178
          ],
          [
            14.2578693,
            48.3280043
          ],
          [
            14.2579098,
            48.3279844
          ],
          [
            14.2580715,
            48.3278769
          ],
          [
            14.2585118,
            48.3275538
          ],
          [
            14.2585876,
            48.3274992
          ],
          [
            14.2586685,
            48.3274332
          ],
          [
            14.2587371,
            48.3273735
          ],
          [
            14.2587801,
            48.3273329
          ],
          [
            14.2588159,
            48.3272984
          ],
          [
            14.2588717,
            48.3272446
          ],
          [
            14.2589717,
            48.3271318
          ],
          [
            14.259107,
            48.3269575
          ],
          [
            14.2591301,
            48.3269278
          ],
          [
            14.2592877,
            48.3267255
          ],
          [
            14.2593383,
            48.3266606
          ],
          [
            14.2594492,
            48.3265146
          ],
          [
            14.2594677,
            48.3264906
          ],
          [
            14.25948,
            48.3264746
          ],
          [
            14.259542,
            48.3263939
          ],
          [
            14.2595758,
            48.3263438
          ],
          [
            14.2596315,
            48.3262631
          ],
          [
            14.2596581,
            48.3261991
          ],
          [
            14.2596722,
            48.326119
          ],
          [
            14.259732,
            48.325739
          ],
          [
            14.2597442,
            48.3256614
          ],
          [
            14.259763,
            48.325542
          ],
          [
            14.2597748,
            48.3254671
          ],
          [
            14.2597938,
            48.325346
          ],
          [
            14.2598033,
            48.3252864
          ],
          [
            14.2598142,
            48.3252286
          ],
          [
            14.2598232,
            48.3251509
          ],
          [
            14.2598227,
            48.3250458
          ]
        ]
      },
      "id": "relation/17190366"
    }
  ]
}