{
  "type": "FeatureCollection",
  "features": [
    {
      "type": "Feature",
      "properties": {
        "@id": "relation/17137667",
        "colour": "#dbaf3b",
        "from": "Simonystraße",
        "gtfs:feed": "AT-Linz_AG",
        "gtfs:route_id": "at:esg:108:",
        "gtfs:shape_id": "4-108-E-d25-1.1.H",
        "gtfs:trip_id:like": "%4-108-E-d25-1.1.H",
        "gtfs:trip_id:sample": "3.TA.4-108-E-d25-1.1.H",
        "name": "Bus 108: Simonystraße => Industriepark Lunzer Straße",
        "network": "Oberösterreichischer Verkehrsverbund",
        "network:short": "OÖVV",
        "network:wikidata": "Q2011605",
        "operator": "Linz Linien GmbH",
        "public_transport:version": "2",
        "ref": "108",
        "route": "bus",
        "to": "Lunzer Straße Ost",
        "type": "route"
      },
      "geometry": {
        "type": "LineString",
        "coordinates": [
          [
            14.3487099,
            48.2716136
          ],
          [
            14.3486881,
            48.2713538
          ],
          [
            14.3486905,
            48.2713284
          ],
          [
            14.3486917,
            48.2712828
          ],
          [
            14.3487101,
            48.2712477
          ],
          [
            14.3487655,
            48.2712056
          ],
          [
            14.3492635,
            48.2709362
          ],
          [
            14.3493723,
            48.270874
          ],
          [
            14.3493254,
            48.2708334
          ],
          [
            14.3492741,
            48.2707842
          ],
          [
            14.3488508,
            48.2703735
          ],
          [
            14.3487893,
            48.2703069
          ],
          [
            14.3487333,
            48.2702462
          ],
          [
            14.3486089,
            48.2701061
          ],
          [
            14.3485153,
            48.2699875
          ],
          [
            14.3480546,
            48.2694035
          ],
          [
            14.3479968,
            48.2693303
          ],
          [
            14.3479513,
            48.2692711
          ],
          [
            14.3479033,
            48.2692086
          ],
          [
            14.3477618,
            48.2690637
          ],
          [
            14.3476172,
            48.2689379
          ],
          [
            14.3475486,
            48.2688919
          ],
          [
            14.3474429,
            48.268821
          ],
          [
            14.3472445,
            48.2687119
          ],
          [
            14.3467789,
            48.268525
          ],
          [
            14.3458427,
            48.2681491
          ],
          [
            14.3457367,
            48.2681134
          ],
          [
            14.3456733,
            48.2680991
          ],
          [
            14.3456129,
            48.2680991
          ],
          [
            14.3455941,
            48.2680462
          ],
          [
            14.3455601,
            48.2680209
          ],
          [
            14.3455043,
            48.2679853
          ],
          [
            14.345482,
            48.2679711
          ],
          [
            14.3453501,
            48.2678826
          ],
          [
            14.3452013,
            48.2677754
          ],
          [
            14.345063,
            48.2676675
          ],
          [
            14.3449311,
            48.2675638
          ],
          [
            14.3448409,
            48.2674893
          ],
          [
            14.3447958,
            48.267452
          ],
          [
            14.3446621,
            48.2673384
          ],
          [
            14.3445268,
            48.2672236
          ],
          [
            14.344388,
            48.2671058
          ],
          [
            14.3442434,
            48.2670045
          ],
          [
            14.3441473,
            48.2669533
          ],
          [
            14.3440517,
            48.2669096
          ],
          [
            14.3439374,
            48.2668575
          ],
          [
            14.3434035,
            48.2666172
          ],
          [
            14.3423257,
            48.2661321
          ],
          [
            14.3421188,
            48.2660572
          ],
          [
            14.3419945,
            48.26603
          ],
          [
            14.3418992,
            48.2660222
          ],
          [
            14.3417803,
            48.2660252
          ],
          [
            14.3416641,
            48.2660294
          ],
          [
            14.3415389,
            48.2660252
          ],
          [
            14.3414136,
            48.2660095
          ],
          [
            14.3412947,
            48.2659781
          ],
          [
            14.3411831,
            48.2659346
          ],
          [
            14.3410715,
            48.2658705
          ],
          [
            14.3409507,
            48.2657745
          ],
          [
            14.3409359,
            48.2657605
          ],
          [
            14.3409158,
            48.2657416
          ],
          [
            14.3403445,
            48.2652041
          ],
          [
            14.3402156,
            48.2650894
          ],
          [
            14.3401108,
            48.2650182
          ],
          [
            14.3399994,
            48.2649568
          ],
          [
            14.3399219,
            48.2648997
          ],
          [
            14.3398757,
            48.2648399
          ],
          [
            14.3397846,
            48.264785
          ],
          [
            14.3397983,
            48.2647637
          ],
          [
            14.3398071,
            48.2647413
          ],
          [
            14.3398092,
            48.2646954
          ],
          [
            14.339791,
            48.2646511
          ],
          [
            14.3397651,
            48.2646217
          ],
          [
            14.3397288,
            48.264596
          ],
          [
            14.3396846,
            48.2645764
          ],
          [
            14.3396349,
            48.2645641
          ],
          [
            14.3395619,
            48.2645308
          ],
          [
            14.3394778,
            48.2644648
          ],
          [
            14.3394029,
            48.2643895
          ],
          [
            14.3392389,
            48.2642384
          ],
          [
            14.3391221,
            48.2641083
          ],
          [
            14.3389497,
            48.2639408
          ],
          [
            14.3378589,
            48.2629585
          ],
          [
            14.3371475,
            48.2623217
          ],
          [
            14.3368778,
            48.2620767
          ],
          [
            14.3367649,
            48.2619758
          ],
          [
            14.3366938,
            48.2619137
          ],
          [
            14.3365577,
            48.2617888
          ],
          [
            14.336372,
            48.2616194
          ],
          [
            14.3363516,
            48.2616008
          ],
          [
            14.3362364,
            48.2615047
          ],
          [
            14.3361089,
            48.261408
          ],
          [
            14.3360276,
            48.2613528
          ],
          [
            14.3357199,
            48.2611902
          ],
          [
            14.3353167,
            48.2610054
          ],
          [
            14.3352504,
            48.2609743
          ],
          [
            14.3345283,
            48.2606432
          ],
          [
            14.3338752,
            48.2603436
          ],
          [
            14.3336009,
            48.2602151
          ],
          [
            14.3334145,
            48.2601168
          ],
          [
            14.3332536,
            48.2600137
          ],
          [
            14.333104,
            48.2599017
          ],
          [
            14.3329297,
            48.2597468
          ],
          [
            14.331781,
            48.2586959
          ],
          [
            14.3313843,
            48.2583416
          ],
          [
            14.3312281,
            48.2581629
          ],
          [
            14.3311567,
            48.2580965
          ],
          [
            14.331108,
            48.2580619
          ],
          [
            14.330878,
            48.2578772
          ],
          [
            14.3307672,
            48.2578
          ],
          [
            14.3305983,
            48.2577123
          ],
          [
            14.3305894,
            48.2576995
          ],
          [
            14.3305729,
            48.2576756
          ],
          [
            14.3305204,
            48.2575987
          ],
          [
            14.3304508,
            48.2574964
          ],
          [
            14.3304117,
            48.2574356
          ],
          [
            14.3303802,
            48.257393
          ],
          [
            14.3302988,
            48.2573029
          ],
          [
            14.3302604,
            48.2572647
          ],
          [
            14.3302111,
            48.2572149
          ],
          [
            14.3301973,
            48.2572017
          ],
          [
            14.330054,
            48.2570648
          ],
          [
            14.3298686,
            48.2568536
          ],
          [
            14.3297214,
            48.2566617
          ],
          [
            14.3294626,
            48.2563191
          ],
          [
            14.329377,
            48.2562349
          ],
          [
            14.3292612,
            48.2561609
          ],
          [
            14.3291375,
            48.2561018
          ],
          [
            14.3290271,
            48.2560599
          ],
          [
            14.3288877,
            48.2560245
          ],
          [
            14.3287367,
            48.2560017
          ],
          [
            14.328541,
            48.2559961
          ],
          [
            14.3283875,
            48.2560102
          ],
          [
            14.3281987,
            48.2560439
          ],
          [
            14.328019,
            48.2561012
          ],
          [
            14.3278374,
            48.2561928
          ],
          [
            14.3277358,
            48.2562476
          ],
          [
            14.3273869,
            48.2564359
          ],
          [
            14.3273209,
            48.2564731
          ],
          [
            14.3263194,
            48.2570289
          ],
          [
            14.3262201,
            48.2570872
          ],
          [
            14.3261137,
            48.2571488
          ],
          [
            14.3257138,
            48.2573825
          ],
          [
            14.3255891,
            48.2574554
          ],
          [
            14.3253203,
            48.2575849
          ],
          [
            14.3252537,
            48.2575982
          ],
          [
            14.3251795,
            48.2576016
          ],
          [
            14.3251202,
            48.257598
          ],
          [
            14.3250396,
            48.2575859
          ],
          [
            14.3249149,
            48.2575504
          ],
          [
            14.323866,
            48.2572161
          ],
          [
            14.3232628,
            48.2570238
          ],
          [
            14.3227214,
            48.2568425
          ],
          [
            14.322179,
            48.2566435
          ],
          [
            14.3221244,
            48.2566192
          ],
          [
            14.3220915,
            48.2566046
          ],
          [
            14.3220557,
            48.2565887
          ],
          [
            14.3220182,
            48.256572
          ],
          [
            14.3219352,
            48.2565341
          ],
          [
            14.3219852,
            48.2564268
          ],
          [
            14.3220875,
            48.2562164
          ],
          [
            14.322151,
            48.2560859
          ],
          [
            14.3222644,
            48.2558415
          ],
          [
            14.3223016,
            48.2557613
          ],
          [
            14.3223737,
            48.2556062
          ],
          [
            14.3223964,
            48.2555576
          ],
          [
            14.3224771,
            48.2553899
          ],
          [
            14.3224909,
            48.2553602
          ],
          [
            14.3225166,
            48.2553621
          ],
          [
            14.3225589,
            48.2553655
          ],
          [
            14.3226466,
            48.2553726
          ],
          [
            14.3227771,
            48.2553842
          ],
          [
            14.3228988,
            48.255399
          ],
          [
            14.323009,
            48.2554185
          ],
          [
            14.3230479,
            48.2553507
          ],
          [
            14.323122,
            48.2551774
          ],
          [
            14.3231568,
            48.255096
          ],
          [
            14.3231679,
            48.2550495
          ],
          [
            14.3231634,
            48.255015
          ],
          [
            14.3231485,
            48.2549827
          ],
          [
            14.3231163,
            48.2549586
          ],
          [
            14.3230669,
            48.2549369
          ],
          [
            14.3230108,
            48.2549277
          ],
          [
            14.3229575,
            48.2549284
          ],
          [
            14.3229214,
            48.2549639
          ],
          [
            14.3228952,
            48.2550402
          ]
        ]
      },
      "id": "relation/17137667"
    },
    {
      "type": "Feature",
      "properties": {
        "@id": "relation/17137668",
        "colour": "#dbaf3b",
        "from": "Lunzerstraße Ost",
        "gtfs:feed": "AT-Linz_AG",
        "gtfs:route_id": "at:esg:108:",
        "gtfs:shape_id": "4-108-E-d25-1.2.R",
        "gtfs:trip_id:like": "%4-108-E-d25-1.2.R",
        "gtfs:trip_id:sample": "47.TA.4-108-E-d25-1.2.R",
        "name": "Bus 108: Industriepark Lunzer Straße => Simonystraße",
        "network": "Oberösterreichischer Verkehrsverbund",
        "network:short": "OÖVV",
        "network:wikidata": "Q2011605",
        "operator": "Linz Linien GmbH",
        "public_transport:version": "2",
        "ref": "108",
        "route": "bus",
        "to": "Simonystraße",
        "type": "route"
      },
      "geometry": {
        "type": "LineString",
        "coordinates": [
          [
            14.3487099,
            48.2716136
          ],
          [
            14.3486881,
            48.2713538
          ],
          [
            14.3486905,
            48.2713284
          ],
          [
            14.3486917,
            48.2712828
          ],
          [
            14.3487101,
            48.2712477
          ],
          [
            14.3487655,
            48.2712056
          ],
          [
            14.3492635,
            48.2709362
          ],
          [
            14.3493723,
            48.270874
          ],
          [
            14.3493254,
            48.2708334
          ],
          [
            14.3492741,
            48.2707842
          ],
          [
            14.3488508,
            48.2703735
          ],
          [
            14.3487893,
            48.2703069
          ],
          [
            14.3487333,
            48.2702462
          ],
          [
            14.3486089,
            48.2701061
          ],
          [
            14.3485153,
            48.2699875
          ],
          [
            14.3480546,
            48.2694035
          ],
          [
            14.3479968,
            48.2693303
          ],
          [
            14.3479513,
            48.2692711
          ],
          [
            14.3479033,
            48.2692086
          ],
          [
            14.3477618,
            48.2690637
          ],
          [
            14.3476172,
            48.2689379
          ],
          [
            14.3475486,
            48.2688919
          ],
          [
            14.3474429,
            48.268821
          ],
          [
            14.3472445,
            48.2687119
          ],
          [
            14.3467789,
            48.268525
          ],
          [
            14.3458427,
            48.2681491
          ],
          [
            14.3457367,
            48.2681134
          ],
          [
            14.3456733,
            48.2680991
          ],
          [
            14.3456129,
            48.2680991
          ],
          [
            14.3455941,
            48.2680462
          ],
          [
            14.3455601,
            48.2680209
          ],
          [
            14.3455043,
            48.2679853
          ],
          [
            14.345482,
            48.2679711
          ],
          [
            14.3453501,
            48.2678826
          ],
          [
            14.3452013,
            48.2677754
          ],
          [
            14.345063,
            48.2676675
          ],
          [
            14.3449311,
            48.2675638
          ],
          [
            14.3448409,
            48.2674893
          ],
          [
            14.3447958,
            48.267452
          ],
          [
            14.3446621,
            48.2673384
          ],
          [
            14.3445268,
            48.2672236
          ],
          [
            14.344388,
            48.2671058
          ],
          [
            14.3442434,
            48.2670045
          ],
          [
            14.3441473,
            48.2669533
          ],
          [
            14.3440517,
            48.2669096
          ],
          [
            14.3439374,
            48.2668575
          ],
          [
            14.3434035,
            48.2666172
          ],
          [
            14.3423257,
            48.2661321
          ],
          [
            14.3421188,
            48.2660572
          ],
          [
            14.3419945,
            48.26603
          ],
          [
            14.3418992,
            48.2660222
          ],
          [
            14.3417803,
            48.2660252
          ],
          [
            14.3416641,
            48.2660294
          ],
          [
            14.3415389,
            48.2660252
          ],
          [
            14.3414136,
            48.2660095
          ],
          [
            14.3412947,
            48.2659781
          ],
          [
            14.3411831,
            48.2659346
          ],
          [
            14.3410715,
            48.2658705
          ],
          [
            14.3409507,
            48.2657745
          ],
          [
            14.3409359,
            48.2657605
          ],
          [
            14.3409158,
            48.2657416
          ],
          [
            14.3403445,
            48.2652041
          ],
          [
            14.3402156,
            48.2650894
          ],
          [
            14.3401108,
            48.2650182
          ],
          [
            14.3399994,
            48.2649568
          ],
          [
            14.3399219,
            48.2648997
          ],
          [
            14.3397541,
            48.2648603
          ],
          [
            14.3397171,
            48.2648375
          ],
          [
            14.339691,
            48.2648486
          ],
          [
            14.3396629,
            48.2648573
          ],
          [
            14.3396099,
            48.2648664
          ],
          [
            14.3395552,
            48.2648668
          ],
          [
            14.3395018,
            48.2648588
          ],
          [
            14.3394528,
            48.2648426
          ],
          [
            14.3394109,
            48.2648192
          ],
          [
            14.3393769,
            48.2647881
          ],
          [
            14.3393555,
            48.2647524
          ],
          [
            14.3393481,
            48.2647143
          ],
          [
            14.339355,
            48.2646761
          ],
          [
            14.3393386,
            48.2646215
          ],
          [
            14.3393335,
            48.2645893
          ],
          [
            14.3392544,
            48.2645176
          ],
          [
            14.3391714,
            48.2642985
          ],
          [
            14.3391221,
            48.2641083
          ],
          [
            14.3389497,
            48.2639408
          ],
          [
            14.3378589,
            48.2629585
          ],
          [
            14.3371475,
            48.2623217
          ],
          [
            14.3368778,
            48.2620767
          ],
          [
            14.3367649,
            48.2619758
          ],
          [
            14.3366938,
            48.2619137
          ],
          [
            14.3365577,
            48.2617888
          ],
          [
            14.336372,
            48.2616194
          ],
          [
            14.3363516,
            48.2616008
          ],
          [
            14.3362364,
            48.2615047
          ],
          [
            14.3361089,
            48.261408
          ],
          [
            14.3360276,
            48.2613528
          ],
          [
            14.3357199,
            48.2611902
          ],
          [
            14.3353167,
            48.2610054
          ],
          [
            14.3352504,
            48.2609743
          ],
          [
            14.3345283,
            48.2606432
          ],
          [
            14.3338752,
            48.2603436
          ],
          [
            14.3336009,
            48.2602151
          ],
          [
            14.3334145,
            48.2601168
          ],
          [
            14.3332536,
            48.2600137
          ],
          [
            14.333104,
            48.2599017
          ],
          [
            14.3329297,
            48.2597468
          ],
          [
            14.331781,
            48.2586959
          ],
          [
            14.3313843,
            48.2583416
          ],
          [
            14.3310669,
            48.2581571
          ],
          [
            14.3309528,
            48.2581064
          ],
          [
            14.330857,
            48.2580778
          ],
          [
            14.3307612,
            48.2580692
          ],
          [
            14.3306803,
            48.2580633
          ],
          [
            14.3306936,
            48.2580111
          ],
          [
            14.3306948,
            48.2579533
          ],
          [
            14.3306933,
            48.2579117
          ],
          [
            14.3306877,
            48.2578817
          ],
          [
            14.3306734,
            48.2578376
          ],
          [
            14.3305983,
            48.2577123
          ],
          [
            14.3305894,
            48.2576995
          ],
          [
            14.3305729,
            48.2576756
          ],
          [
            14.3305204,
            48.2575987
          ],
          [
            14.3304508,
            48.2574964
          ],
          [
            14.3304117,
            48.2574356
          ],
          [
            14.3303802,
            48.257393
          ],
          [
            14.3302988,
            48.2573029
          ],
          [
            14.3302604,
            48.2572647
          ],
          [
            14.3302111,
            48.2572149
          ],
          [
            14.3301973,
            48.2572017
          ],
          [
            14.330054,
            48.2570648
          ],
          [
            14.3298686,
            48.2568536
          ],
          [
            14.3297214,
            48.2566617
          ],
          [
            14.3294626,
            48.2563191
          ],
          [
            14.329377,
            48.2562349
          ],
          [
            14.3292612,
            48.2561609
          ],
          [
            14.3291375,
            48.2561018
          ],
          [
            14.3290271,
            48.2560599
          ],
          [
            14.3288877,
            48.2560245
          ],
          [
            14.3287367,
            48.2560017
          ],
          [
            14.328541,
            48.2559961
          ],
          [
            14.3283875,
            48.2560102
          ],
          [
            14.3281987,
            48.2560439
          ],
          [
            14.328019,
            48.2561012
          ],
          [
            14.3278374,
            48.2561928
          ],
          [
            14.3277358,
            48.2562476
          ],
          [
            14.3273869,
            48.2564359
          ],
          [
            14.3273209,
            48.2564731
          ],
          [
            14.3263194,
            48.2570289
          ],
          [
            14.3262201,
            48.2570872
          ],
          [
            14.3261137,
            48.2571488
          ],
          [
            14.3257138,
            48.2573825
          ],
          [
            14.3255891,
            48.2574554
          ],
          [
            14.3255365,
            48.2574004
          ],
          [
            14.3253474,
            48.2572025
          ],
          [
            14.3248538,
            48.2566861
          ],
          [
            14.3244187,
            48.2562309
          ],
          [
            14.3243752,
            48.2561854
          ],
          [
            14.3239994,
            48.2557922
          ],
          [
            14.3239438,
            48.2557377
          ],
          [
            14.3238535,
            48.2556764
          ],
          [
            14.3237422,
            48.2556172
          ],
          [
            14.3236167,
            48.255565
          ],
          [
            14.3234748,
            48.2555246
          ],
          [
            14.3231474,
            48.255452
          ],
          [
            14.323009,
            48.2554185
          ],
          [
            14.3228988,
            48.255399
          ],
          [
            14.3227771,
            48.2553842
          ],
          [
            14.3228043,
            48.2553043
          ],
          [
            14.3228094,
            48.2552893
          ],
          [
            14.3228952,
            48.2550402
          ]
        ]
      },
      "id": "relation/17137668"
    }
  ]
}