{
  "type": "FeatureCollection",
  "features": [
    {
      "type": "Feature",
      "properties": {
        "@id": "relation/150353",
        "alternate": "no",
        "colour": "#008F4D",
        "colour:text": "#FFFFFF",
        "from": "Pöstlingberg",
        "name": "50: Pöstlingberg – Hauptplatz",
        "network": "OÖVV",
        "network:wikidata": "Q2011605",
        "network:wikipedia": "de:Oberösterreichischer Verkehrsverbund",
        "operator": "Linz Linien GmbH",
        "public_transport:version": "2",
        "ref": "50",
        "route": "tram",
        "to": "Hauptplatz",
        "type": "route",
        "wikidata": "Q121368142"
      },
      "geometry": {
        "type": "MultiLineString",
        "coordinates": [
          [
            [
              14.2861108,
              48.3063646
            ],
            [
              14.2860766,
              48.3064317
            ],
            [
              14.2860467,
              48.306484
            ],
            [
              14.2860281,
              48.3065253
            ],
            [
              14.2860143,
              48.3065792
            ],
            [
              14.2860032,
              48.3066176
            ],
            [
              14.2858632,
              48.3068136
            ],
            [
              14.2858165,
              48.3068769
            ],
            [
              14.2857598,
              48.3069528
            ],
            [
              14.2855689,
              48.3072158
            ],
            [
              14.2840691,
              48.3092589
            ],
            [
              14.2839034,
              48.3094795
            ],
            [
              14.2836743,
              48.3098041
            ],
            [
              14.2835257,
              48.310004
            ],
            [
              14.2834543,
              48.3101039
            ],
            [
              14.28338,
              48.3102054
            ],
            [
              14.2833033,
              48.3103199
            ],
            [
              14.2832298,
              48.310433
            ],
            [
              14.2830853,
              48.3106578
            ],
            [
              14.2829405,
              48.3108785
            ],
            [
              14.2829035,
              48.3109405
            ],
            [
              14.2828871,
              48.3109702
            ],
            [
              14.2828746,
              48.3109977
            ],
            [
              14.282864,
              48.3110245
            ],
            [
              14.2828557,
              48.3110522
            ],
            [
              14.2828505,
              48.3110767
            ],
            [
              14.2828457,
              48.3111015
            ],
            [
              14.2828322,
              48.3111598
            ],
            [
              14.2828283,
              48.3111812
            ],
            [
              14.2828096,
              48.3112455
            ],
            [
              14.2827892,
              48.3113039
            ],
            [
              14.2827614,
              48.3113696
            ],
            [
              14.2827469,
              48.3113935
            ],
            [
              14.2827042,
              48.3114611
            ],
            [
              14.2826482,
              48.3115424
            ],
            [
              14.2825853,
              48.3116291
            ],
            [
              14.2825074,
              48.3117366
            ],
            [
              14.2824609,
              48.3118129
            ],
            [
              14.2823943,
              48.3119399
            ],
            [
              14.2823339,
              48.312067
            ],
            [
              14.2821863,
              48.3124025
            ],
            [
              14.2821652,
              48.312439
            ],
            [
              14.2821394,
              48.3124725
            ],
            [
              14.2821085,
              48.3124978
            ],
            [
              14.2820731,
              48.3125185
            ],
            [
              14.2820593,
              48.312524
            ],
            [
              14.28203,
              48.3125358
            ],
            [
              14.2819971,
              48.3125428
            ],
            [
              14.2819818,
              48.3125459
            ],
            [
              14.281929,
              48.3125466
            ],
            [
              14.2819123,
              48.3125445
            ],
            [
              14.2818779,
              48.3125403
            ],
            [
              14.2818312,
              48.3125278
            ],
            [
              14.2810199,
              48.3122235
            ],
            [
              14.2808927,
              48.3121758
            ],
            [
              14.280291,
              48.31195
            ],
            [
              14.2802103,
              48.3119195
            ],
            [
              14.2801019,
              48.3118786
            ],
            [
              14.2799678,
              48.3118278
            ],
            [
              14.2798188,
              48.3117715
            ],
            [
              14.278988,
              48.3114625
            ],
            [
              14.2785736,
              48.3113084
            ],
            [
              14.278052,
              48.3111144
            ],
            [
              14.277794,
              48.3110184
            ],
            [
              14.2776795,
              48.3109799
            ],
            [
              14.2776165,
              48.3109669
            ],
            [
              14.2775123,
              48.3109604
            ],
            [
              14.2773682,
              48.3109611
            ],
            [
              14.2772341,
              48.3109654
            ],
            [
              14.2771568,
              48.3109679
            ],
            [
              14.2771091,
              48.3109695
            ],
            [
              14.2770607,
              48.3109683
            ],
            [
              14.2770242,
              48.3109655
            ],
            [
              14.2769646,
              48.3109542
            ],
            [
              14.2768658,
              48.3109291
            ],
            [
              14.2768017,
              48.3109067
            ],
            [
              14.2767496,
              48.3108872
            ],
            [
              14.2764087,
              48.3107706
            ],
            [
              14.2762481,
              48.3107173
            ],
            [
              14.2761347,
              48.3106786
            ],
            [
              14.2760044,
              48.3106402
            ],
            [
              14.2758861,
              48.3106124
            ],
            [
              14.275718,
              48.3105737
            ],
            [
              14.2756774,
              48.3105621
            ],
            [
              14.2756308,
              48.310548
            ],
            [
              14.275586,
              48.3105291
            ],
            [
              14.2753691,
              48.3104244
            ],
            [
              14.2752718,
              48.3103918
            ],
            [
              14.2751846,
              48.310367
            ],
            [
              14.2750126,
              48.3103348
            ],
            [
              14.2749441,
              48.3103275
            ],
            [
              14.2748116,
              48.3103218
            ],
            [
              14.2746704,
              48.3103215
            ],
            [
              14.27455,
              48.3103318
            ],
            [
              14.2737312,
              48.3104733
            ],
            [
              14.2735824,
              48.3104845
            ],
            [
              14.2734197,
              48.3104853
            ],
            [
              14.2732717,
              48.3104723
            ],
            [
              14.2731275,
              48.3104603
            ],
            [
              14.2730248,
              48.3104346
            ],
            [
              14.2717884,
              48.3101743
            ],
            [
              14.2716169,
              48.3101435
            ],
            [
              14.2714773,
              48.3101271
            ],
            [
              14.2713094,
              48.3101149
            ],
            [
              14.2710992,
              48.3101133
            ],
            [
              14.2702477,
              48.3101171
            ],
            [
              14.2701351,
              48.3101127
            ],
            [
              14.2700244,
              48.3101041
            ],
            [
              14.2699019,
              48.3100855
            ],
            [
              14.2693726,
              48.3099699
            ],
            [
              14.2692639,
              48.3099516
            ],
            [
              14.2691621,
              48.3099435
            ],
            [
              14.2690512,
              48.3099514
            ],
            [
              14.2689482,
              48.3099733
            ],
            [
              14.2688496,
              48.3100028
            ],
            [
              14.2687566,
              48.3100455
            ],
            [
              14.2686806,
              48.3100963
            ],
            [
              14.2686127,
              48.3101541
            ],
            [
              14.2683688,
              48.3104153
            ],
            [
              14.2683059,
              48.310479
            ],
            [
              14.268221,
              48.3105398
            ],
            [
              14.2681329,
              48.3105863
            ],
            [
              14.2680187,
              48.3106252
            ],
            [
              14.2679053,
              48.3106345
            ],
            [
              14.2678436,
              48.3106395
            ],
            [
              14.2677826,
              48.3106445
            ],
            [
              14.2677261,
              48.3106491
            ],
            [
              14.2674018,
              48.3106756
            ],
            [
              14.2672138,
              48.310691
            ],
            [
              14.266482,
              48.3107499
            ],
            [
              14.2663215,
              48.3107535
            ],
            [
              14.2661817,
              48.3107473
            ],
            [
              14.2660449,
              48.3107355
            ],
            [
              14.2659135,
              48.3107246
            ],
            [
              14.2657729,
              48.3107296
            ],
            [
              14.2656334,
              48.310751
            ],
            [
              14.2655234,
              48.3107868
            ],
            [
              14.265438,
              48.3108248
            ],
            [
              14.2653527,
              48.3108808
            ],
            [
              14.2652845,
              48.3109446
            ],
            [
              14.2651927,
              48.3110325
            ],
            [
              14.2651564,
              48.3110687
            ],
            [
              14.265137,
              48.3110872
            ],
            [
              14.2646732,
              48.3115296
            ],
            [
              14.264575,
              48.311615
            ],
            [
              14.2644707,
              48.3116943
            ],
            [
              14.2643626,
              48.3117603
            ],
            [
              14.2642515,
              48.3118145
            ],
            [
              14.2641051,
              48.3118679
            ],
            [
              14.2637581,
              48.3119806
            ],
            [
              14.2636127,
              48.3120337
            ],
            [
              14.2635113,
              48.3120838
            ],
            [
              14.2634155,
              48.3121464
            ],
            [
              14.2633397,
              48.3122174
            ],
            [
              14.2632928,
              48.3122858
            ],
            [
              14.2632579,
              48.3123574
            ],
            [
              14.2632237,
              48.3124476
            ],
            [
              14.2631861,
              48.312571
            ],
            [
              14.2631445,
              48.3126823
            ],
            [
              14.2630878,
              48.3127529
            ],
            [
              14.2630229,
              48.3128153
            ],
            [
              14.2629544,
              48.3128625
            ],
            [
              14.2628563,
              48.3129121
            ],
            [
              14.2613532,
              48.3135753
            ],
            [
              14.2611921,
              48.3136518
            ],
            [
              14.2610937,
              48.3137093
            ],
            [
              14.2610132,
              48.3137665
            ],
            [
              14.2609181,
              48.3138488
            ],
            [
              14.2608284,
              48.3138947
            ],
            [
              14.2608153,
              48.3139014
            ],
            [
              14.2607609,
              48.3139386
            ],
            [
              14.2605961,
              48.3140785
            ],
            [
              14.2605784,
              48.3140935
            ],
            [
              14.2605609,
              48.3141134
            ],
            [
              14.2605312,
              48.3141472
            ],
            [
              14.2605104,
              48.3141823
            ],
            [
              14.2604726,
              48.314234
            ],
            [
              14.2603867,
              48.314313
            ],
            [
              14.2603259,
              48.3143826
            ],
            [
              14.2602814,
              48.3144513
            ],
            [
              14.2602453,
              48.3145258
            ],
            [
              14.260205,
              48.3146272
            ],
            [
              14.2601679,
              48.3147017
            ],
            [
              14.2601335,
              48.3147587
            ],
            [
              14.2600874,
              48.3148121
            ],
            [
              14.2600277,
              48.314867
            ],
            [
              14.2599656,
              48.3149155
            ],
            [
              14.2599046,
              48.3149578
            ],
            [
              14.2593988,
              48.3153205
            ],
            [
              14.2593085,
              48.3153912
            ],
            [
              14.2592475,
              48.3154535
            ],
            [
              14.2592002,
              48.3155166
            ],
            [
              14.2591696,
              48.3155802
            ],
            [
              14.259146,
              48.3156459
            ],
            [
              14.2590864,
              48.3158644
            ],
            [
              14.2590489,
              48.3159754
            ],
            [
              14.2590278,
              48.3160332
            ],
            [
              14.2589952,
              48.3160901
            ],
            [
              14.2589606,
              48.316142
            ],
            [
              14.2589302,
              48.3161853
            ],
            [
              14.2588845,
              48.316243
            ],
            [
              14.2588283,
              48.3162988
            ],
            [
              14.2586416,
              48.3164704
            ],
            [
              14.2585626,
              48.316529
            ],
            [
              14.2584754,
              48.3165733
            ],
            [
              14.2583963,
              48.3165988
            ],
            [
              14.258289,
              48.3166232
            ],
            [
              14.2581221,
              48.3166437
            ],
            [
              14.2578848,
              48.3166627
            ],
            [
              14.2577754,
              48.3166753
            ],
            [
              14.2576707,
              48.3166962
            ],
            [
              14.2575727,
              48.3167297
            ],
            [
              14.2574909,
              48.316765
            ],
            [
              14.2574154,
              48.3168089
            ],
            [
              14.2573502,
              48.3168644
            ],
            [
              14.2573107,
              48.3169144
            ],
            [
              14.2572723,
              48.316968
            ],
            [
              14.2572486,
              48.3170233
            ],
            [
              14.257239,
              48.3170767
            ],
            [
              14.2572399,
              48.3171238
            ],
            [
              14.2572451,
              48.3171643
            ],
            [
              14.2572703,
              48.3172516
            ],
            [
              14.2573193,
              48.3173382
            ],
            [
              14.2574316,
              48.3174548
            ],
            [
              14.2578929,
              48.3179356
            ],
            [
              14.2579645,
              48.3180185
            ],
            [
              14.2580123,
              48.3180845
            ],
            [
              14.2580383,
              48.3181443
            ],
            [
              14.2580519,
              48.3181963
            ],
            [
              14.2580548,
              48.31824
            ],
            [
              14.2580534,
              48.3182889
            ],
            [
              14.2580399,
              48.3183478
            ],
            [
              14.2580156,
              48.3183965
            ],
            [
              14.257979,
              48.3184485
            ],
            [
              14.257945,
              48.3184875
            ],
            [
              14.2578671,
              48.318551
            ],
            [
              14.257726,
              48.3186576
            ],
            [
              14.2576542,
              48.3187124
            ],
            [
              14.2570153,
              48.3192001
            ],
            [
              14.256947,
              48.3192702
            ],
            [
              14.2568843,
              48.3193509
            ],
            [
              14.2568399,
              48.3194236
            ],
            [
              14.2568057,
              48.3195011
            ],
            [
              14.2567703,
              48.3196117
            ],
            [
              14.2567569,
              48.3196581
            ],
            [
              14.256718,
              48.3197169
            ],
            [
              14.2566915,
              48.3197528
            ],
            [
              14.2566723,
              48.3197966
            ],
            [
              14.2566576,
              48.3198599
            ],
            [
              14.2566457,
              48.3199531
            ],
            [
              14.2566393,
              48.320034
            ],
            [
              14.2566405,
              48.3200433
            ],
            [
              14.2566457,
              48.3200815
            ],
            [
              14.2566594,
              48.3201247
            ],
            [
              14.2566924,
              48.3201966
            ],
            [
              14.2567126,
              48.3202662
            ],
            [
              14.2567528,
              48.3203445
            ],
            [
              14.256813,
              48.3204484
            ],
            [
              14.2568851,
              48.3205485
            ],
            [
              14.2569088,
              48.3205792
            ],
            [
              14.2569808,
              48.3206724
            ],
            [
              14.2571574,
              48.320891
            ],
            [
              14.2575837,
              48.3214072
            ],
            [
              14.2576443,
              48.3215006
            ],
            [
              14.2577054,
              48.3216089
            ],
            [
              14.2577755,
              48.3217744
            ],
            [
              14.2578331,
              48.3219343
            ],
            [
              14.2579297,
              48.3221442
            ],
            [
              14.2580343,
              48.3223017
            ],
            [
              14.2581673,
              48.3224587
            ],
            [
              14.2582513,
              48.3225391
            ],
            [
              14.2584884,
              48.3227455
            ],
            [
              14.2585305,
              48.322783
            ],
            [
              14.258583,
              48.3228188
            ],
            [
              14.2586476,
              48.3228602
            ],
            [
              14.2586996,
              48.3228878
            ],
            [
              14.2587806,
              48.322928
            ],
            [
              14.258869,
              48.3229645
            ],
            [
              14.2589024,
              48.3229763
            ],
            [
              14.2589272,
              48.3229851
            ],
            [
              14.2590551,
              48.3230304
            ],
            [
              14.2594828,
              48.3231748
            ],
            [
              14.2596279,
              48.3232335
            ],
            [
              14.2597108,
              48.3232803
            ],
            [
              14.2597564,
              48.3233153
            ],
            [
              14.2598073,
              48.3233645
            ],
            [
              14.2598403,
              48.3234075
            ],
            [
              14.2598696,
              48.3234654
            ],
            [
              14.2599095,
              48.323548
            ],
            [
              14.2599303,
              48.3236023
            ],
            [
              14.2599361,
              48.3236532
            ],
            [
              14.2599421,
              48.3237083
            ],
            [
              14.2599367,
              48.3237257
            ],
            [
              14.2599373,
              48.3237682
            ],
            [
              14.2599217,
              48.3238114
            ],
            [
              14.2598838,
              48.3238819
            ],
            [
              14.2598583,
              48.3239119
            ],
            [
              14.2596547,
              48.3241357
            ],
            [
              14.2595206,
              48.3242838
            ],
            [
              14.2593419,
              48.3244856
            ],
            [
              14.2592539,
              48.3245893
            ],
            [
              14.259214,
              48.3246297
            ],
            [
              14.2590801,
              48.3247653
            ],
            [
              14.2589676,
              48.3248786
            ],
            [
              14.2589422,
              48.3249047
            ],
            [
              14.2588776,
              48.3249812
            ]
          ],
          [
            [
              14.286109,
              48.3064409
            ],
            [
              14.2862689,
              48.3061435
            ],
            [
              14.2862946,
              48.3060955
            ]
          ],
          [
            [
              14.2830436,
              48.310649
            ],
            [
              14.2828768,
              48.310886
            ]
          ],
          [
            [
              14.2816558,
              48.312407
            ],
            [
              14.2818666,
              48.3124867
            ]
          ],
          [
            [
              14.2677848,
              48.310627
            ],
            [
              14.2673977,
              48.3106554
            ]
          ],
          [
            [
              14.265316,
              48.3109542
            ],
            [
              14.2651742,
              48.3110822
            ]
          ],
          [
            [
              14.2607592,
              48.313911
            ],
            [
              14.2605743,
              48.3140715
            ]
          ],
          [
            [
              14.2572726,
              48.3173004
            ],
            [
              14.2572419,
              48.3172455
            ],
            [
              14.2572232,
              48.3171963
            ],
            [
              14.2572141,
              48.3171546
            ]
          ],
          [
            [
              14.2576912,
              48.3186547
            ],
            [
              14.2577528,
              48.3186073
            ],
            [
              14.2578605,
              48.3185244
            ]
          ],
          [
            [
              14.2566456,
              48.3197842
            ],
            [
              14.2566256,
              48.3198745
            ],
            [
              14.256617,
              48.3199685
            ]
          ],
          [
            [
              14.258914,
              48.3229611
            ],
            [
              14.2588532,
              48.3229384
            ],
            [
              14.2587717,
              48.3228985
            ],
            [
              14.2586887,
              48.3228561
            ]
          ]
        ]
      },
      "id": "relation/150353"
    },
    {
      "type": "Feature",
      "properties": {
        "@id": "relation/1149420",
        "alternate": "no",
        "colour": "#008F4D",
        "colour:text": "#FFFFFF",
        "from": "Hauptplatz",
        "name": "50: Hauptplatz - Pöstlingberg",
        "network": "OÖVV",
        "network:wikidata": "Q2011605",
        "network:wikipedia": "de:Oberösterreichischer Verkehrsverbund",
        "operator": "Linz Linien GmbH",
        "public_transport:version": "2",
        "ref": "50",
        "route": "tram",
        "to": "Pöstlingberg",
        "type": "route",
        "wikidata": "Q121368142"
      },
      "geometry": {
        "type": "MultiLineString",
        "coordinates": [
          [
            [
              14.2861108,
              48.3063646
            ],
            [
              14.2860766,
              48.3064317
            ],
            [
              14.2860672,
              48.3064866
            ],
            [
              14.2860731,
              48.3065263
            ],
            [
              14.2860687,
              48.3065874
            ],
            [
              14.2860566,
              48.3066204
            ],
            [
              14.2860481,
              48.3066315
            ],
            [
              14.2859026,
              48.3068258
            ],
            [
              14.2858538,
              48.3068914
            ],
            [
              14.2857997,
              48.3069658
            ],
            [
              14.285607,
              48.3072282
            ],
            [
              14.2848669,
              48.3082236
            ],
            [
              14.2841081,
              48.3092715
            ],
            [
              14.2839436,
              48.3094904
            ],
            [
              14.2837121,
              48.3098128
            ],
            [
              14.283559,
              48.3100162
            ],
            [
              14.2834892,
              48.3101158
            ],
            [
              14.2834174,
              48.3102149
            ],
            [
              14.2833403,
              48.3103294
            ],
            [
              14.2832668,
              48.3104428
            ],
            [
              14.283121,
              48.3106674
            ],
            [
              14.2830433,
              48.3107833
            ],
            [
              14.2830017,
              48.3108493
            ],
            [
              14.2829739,
              48.3108924
            ],
            [
              14.2829464,
              48.3109378
            ],
            [
              14.2829247,
              48.3109737
            ],
            [
              14.2829123,
              48.3109998
            ],
            [
              14.2829055,
              48.3110164
            ],
            [
              14.2829001,
              48.3110356
            ],
            [
              14.2828938,
              48.3110643
            ],
            [
              14.2828865,
              48.3110986
            ],
            [
              14.2828779,
              48.3111482
            ],
            [
              14.2828638,
              48.311217
            ],
            [
              14.28285,
              48.3112663
            ],
            [
              14.2828449,
              48.3112814
            ],
            [
              14.2828382,
              48.3112996
            ],
            [
              14.2828138,
              48.3113555
            ],
            [
              14.2827858,
              48.311412
            ],
            [
              14.282681,
              48.311554
            ],
            [
              14.2826202,
              48.3116399
            ],
            [
              14.2825408,
              48.3117472
            ],
            [
              14.2824985,
              48.3118208
            ],
            [
              14.2824317,
              48.311948
            ],
            [
              14.2823722,
              48.312075
            ],
            [
              14.2822281,
              48.3124108
            ],
            [
              14.2821995,
              48.3124652
            ],
            [
              14.2821732,
              48.3125049
            ],
            [
              14.2821462,
              48.3125318
            ],
            [
              14.2821116,
              48.312556
            ],
            [
              14.2820676,
              48.3125741
            ],
            [
              14.2820328,
              48.3125831
            ],
            [
              14.2820036,
              48.3125871
            ],
            [
              14.2819834,
              48.3125878
            ],
            [
              14.2819568,
              48.3125868
            ],
            [
              14.2819139,
              48.3125845
            ],
            [
              14.2818571,
              48.3125703
            ],
            [
              14.280999,
              48.3122487
            ],
            [
              14.2808714,
              48.3122009
            ],
            [
              14.2804535,
              48.3120442
            ],
            [
              14.2801889,
              48.3119451
            ],
            [
              14.2800804,
              48.3119044
            ],
            [
              14.2799455,
              48.3118539
            ],
            [
              14.2797975,
              48.3117989
            ],
            [
              14.278812,
              48.31143
            ],
            [
              14.2787211,
              48.3114079
            ],
            [
              14.2786531,
              48.3113955
            ],
            [
              14.2785412,
              48.3113811
            ],
            [
              14.2784566,
              48.3113715
            ],
            [
              14.2783784,
              48.3113579
            ],
            [
              14.2782892,
              48.3113376
            ],
            [
              14.2781894,
              48.3113082
            ],
            [
              14.2779421,
              48.3112204
            ],
            [
              14.2776236,
              48.3111005
            ],
            [
              14.277559,
              48.3110873
            ],
            [
              14.2774807,
              48.3110699
            ],
            [
              14.277338,
              48.311039
            ],
            [
              14.2772149,
              48.311011
            ],
            [
              14.2769646,
              48.3109542
            ],
            [
              14.2768658,
              48.3109291
            ],
            [
              14.2768017,
              48.3109067
            ],
            [
              14.2767496,
              48.3108872
            ],
            [
              14.2764087,
              48.3107706
            ],
            [
              14.2762481,
              48.3107173
            ],
            [
              14.2761347,
              48.3106786
            ],
            [
              14.2760044,
              48.3106402
            ],
            [
              14.2758861,
              48.3106124
            ],
            [
              14.275718,
              48.3105737
            ],
            [
              14.2756774,
              48.3105621
            ],
            [
              14.2756308,
              48.310548
            ],
            [
              14.275586,
              48.3105291
            ],
            [
              14.2753691,
              48.3104244
            ],
            [
              14.2752718,
              48.3103918
            ],
            [
              14.2751846,
              48.310367
            ],
            [
              14.2750126,
              48.3103348
            ],
            [
              14.2749441,
              48.3103275
            ],
            [
              14.2748116,
              48.3103218
            ],
            [
              14.2746704,
              48.3103215
            ],
            [
              14.27455,
              48.3103318
            ],
            [
              14.2737312,
              48.3104733
            ],
            [
              14.2735824,
              48.3104845
            ],
            [
              14.2734197,
              48.3104853
            ],
            [
              14.2732717,
              48.3104723
            ],
            [
              14.2731275,
              48.3104603
            ],
            [
              14.2730248,
              48.3104346
            ],
            [
              14.2717884,
              48.3101743
            ],
            [
              14.2716169,
              48.3101435
            ],
            [
              14.2714773,
              48.3101271
            ],
            [
              14.2713094,
              48.3101149
            ],
            [
              14.2710992,
              48.3101133
            ],
            [
              14.2702477,
              48.3101171
            ],
            [
              14.2701351,
              48.3101127
            ],
            [
              14.2700244,
              48.3101041
            ],
            [
              14.2699019,
              48.3100855
            ],
            [
              14.2693726,
              48.3099699
            ],
            [
              14.2692639,
              48.3099516
            ],
            [
              14.2691621,
              48.3099435
            ],
            [
              14.2690512,
              48.3099514
            ],
            [
              14.2689482,
              48.3099733
            ],
            [
              14.2688496,
              48.3100028
            ],
            [
              14.2687566,
              48.3100455
            ],
            [
              14.2686806,
              48.3100963
            ],
            [
              14.2686127,
              48.3101541
            ],
            [
              14.2683688,
              48.3104153
            ],
            [
              14.2683059,
              48.310479
            ],
            [
              14.268221,
              48.3105398
            ],
            [
              14.2681329,
              48.3105863
            ],
            [
              14.2680187,
              48.3106252
            ],
            [
              14.267932,
              48.3106477
            ],
            [
              14.2679004,
              48.310655
            ],
            [
              14.2678688,
              48.3106623
            ],
            [
              14.2678396,
              48.3106652
            ],
            [
              14.2677793,
              48.3106711
            ],
            [
              14.2674584,
              48.3106972
            ],
            [
              14.267428,
              48.3106997
            ],
            [
              14.2674064,
              48.3106988
            ],
            [
              14.2672138,
              48.310691
            ],
            [
              14.266482,
              48.3107499
            ],
            [
              14.2663215,
              48.3107535
            ],
            [
              14.2661817,
              48.3107473
            ],
            [
              14.2660449,
              48.3107355
            ],
            [
              14.2659135,
              48.3107246
            ],
            [
              14.2657729,
              48.3107296
            ],
            [
              14.2656334,
              48.310751
            ],
            [
              14.2655234,
              48.3107868
            ],
            [
              14.265438,
              48.3108248
            ],
            [
              14.2653527,
              48.3108808
            ],
            [
              14.2652845,
              48.3109446
            ],
            [
              14.2651927,
              48.3110325
            ],
            [
              14.2651564,
              48.3110687
            ],
            [
              14.265137,
              48.3110872
            ],
            [
              14.2646732,
              48.3115296
            ],
            [
              14.264575,
              48.311615
            ],
            [
              14.2644707,
              48.3116943
            ],
            [
              14.2643626,
              48.3117603
            ],
            [
              14.2642515,
              48.3118145
            ],
            [
              14.2641051,
              48.3118679
            ],
            [
              14.2637581,
              48.3119806
            ],
            [
              14.2636127,
              48.3120337
            ],
            [
              14.2635113,
              48.3120838
            ],
            [
              14.2634155,
              48.3121464
            ],
            [
              14.2633397,
              48.3122174
            ],
            [
              14.2632928,
              48.3122858
            ],
            [
              14.2632579,
              48.3123574
            ],
            [
              14.2632237,
              48.3124476
            ],
            [
              14.2631861,
              48.312571
            ],
            [
              14.2631445,
              48.3126823
            ],
            [
              14.2630878,
              48.3127529
            ],
            [
              14.2630229,
              48.3128153
            ],
            [
              14.2629544,
              48.3128625
            ],
            [
              14.2628563,
              48.3129121
            ],
            [
              14.2613532,
              48.3135753
            ],
            [
              14.2611921,
              48.3136518
            ],
            [
              14.2610937,
              48.3137093
            ],
            [
              14.2610132,
              48.3137665
            ],
            [
              14.2609181,
              48.3138488
            ],
            [
              14.2608486,
              48.3139089
            ],
            [
              14.2606659,
              48.3140669
            ],
            [
              14.2606373,
              48.3140916
            ],
            [
              14.260594,
              48.314129
            ],
            [
              14.2604726,
              48.314234
            ],
            [
              14.2603867,
              48.314313
            ],
            [
              14.2603259,
              48.3143826
            ],
            [
              14.2602814,
              48.3144513
            ],
            [
              14.2602453,
              48.3145258
            ],
            [
              14.260205,
              48.3146272
            ],
            [
              14.2601679,
              48.3147017
            ],
            [
              14.2601335,
              48.3147587
            ],
            [
              14.2600874,
              48.3148121
            ],
            [
              14.2600277,
              48.314867
            ],
            [
              14.2599656,
              48.3149155
            ],
            [
              14.2599046,
              48.3149578
            ],
            [
              14.2593988,
              48.3153205
            ],
            [
              14.2593085,
              48.3153912
            ],
            [
              14.2592475,
              48.3154535
            ],
            [
              14.2592002,
              48.3155166
            ],
            [
              14.2591696,
              48.3155802
            ],
            [
              14.259146,
              48.3156459
            ],
            [
              14.2590864,
              48.3158644
            ],
            [
              14.2590489,
              48.3159754
            ],
            [
              14.2590278,
              48.3160332
            ],
            [
              14.2589952,
              48.3160901
            ],
            [
              14.2589606,
              48.316142
            ],
            [
              14.2589302,
              48.3161853
            ],
            [
              14.2588845,
              48.316243
            ],
            [
              14.2588283,
              48.3162988
            ],
            [
              14.2586416,
              48.3164704
            ],
            [
              14.2585626,
              48.316529
            ],
            [
              14.2584754,
              48.3165733
            ],
            [
              14.2583963,
              48.3165988
            ],
            [
              14.258289,
              48.3166232
            ],
            [
              14.2581221,
              48.3166437
            ],
            [
              14.2578848,
              48.3166627
            ],
            [
              14.2577754,
              48.3166753
            ],
            [
              14.2576707,
              48.3166962
            ],
            [
              14.2575727,
              48.3167297
            ],
            [
              14.2574909,
              48.316765
            ],
            [
              14.2574154,
              48.3168089
            ],
            [
              14.2573502,
              48.3168644
            ],
            [
              14.2573107,
              48.3169144
            ],
            [
              14.2572723,
              48.316968
            ],
            [
              14.2572486,
              48.3170233
            ],
            [
              14.257239,
              48.3170767
            ],
            [
              14.2572399,
              48.3171238
            ],
            [
              14.2572451,
              48.3171643
            ],
            [
              14.2572703,
              48.3172516
            ],
            [
              14.2573193,
              48.3173382
            ],
            [
              14.2574316,
              48.3174548
            ],
            [
              14.2578929,
              48.3179356
            ],
            [
              14.2579645,
              48.3180185
            ],
            [
              14.2580123,
              48.3180845
            ],
            [
              14.2580383,
              48.3181443
            ],
            [
              14.2580519,
              48.3181963
            ],
            [
              14.2580548,
              48.31824
            ],
            [
              14.2580534,
              48.3182889
            ],
            [
              14.2580399,
              48.3183478
            ],
            [
              14.2580156,
              48.3183965
            ],
            [
              14.257979,
              48.3184485
            ],
            [
              14.257945,
              48.3184875
            ],
            [
              14.2578671,
              48.318551
            ],
            [
              14.257726,
              48.3186576
            ],
            [
              14.2576542,
              48.3187124
            ],
            [
              14.2570153,
              48.3192001
            ],
            [
              14.256947,
              48.3192702
            ],
            [
              14.2568843,
              48.3193509
            ],
            [
              14.2568399,
              48.3194236
            ],
            [
              14.2568057,
              48.3195011
            ],
            [
              14.2567703,
              48.3196117
            ],
            [
              14.2567569,
              48.3196581
            ],
            [
              14.2567114,
              48.3198008
            ],
            [
              14.2566979,
              48.3198611
            ],
            [
              14.2566829,
              48.3199544
            ],
            [
              14.2566805,
              48.3200353
            ],
            [
              14.2566804,
              48.3200437
            ],
            [
              14.2566796,
              48.3201211
            ],
            [
              14.2566924,
              48.3201966
            ],
            [
              14.2567126,
              48.3202662
            ],
            [
              14.2567528,
              48.3203445
            ],
            [
              14.256813,
              48.3204484
            ],
            [
              14.2568851,
              48.3205485
            ],
            [
              14.2569088,
              48.3205792
            ],
            [
              14.2569808,
              48.3206724
            ],
            [
              14.2571574,
              48.320891
            ],
            [
              14.2575837,
              48.3214072
            ],
            [
              14.2576443,
              48.3215006
            ],
            [
              14.2577054,
              48.3216089
            ],
            [
              14.2577755,
              48.3217744
            ],
            [
              14.2578331,
              48.3219343
            ],
            [
              14.2579297,
              48.3221442
            ],
            [
              14.2580343,
              48.3223017
            ],
            [
              14.2581673,
              48.3224587
            ],
            [
              14.2582513,
              48.3225391
            ],
            [
              14.2584884,
              48.3227455
            ],
            [
              14.2585305,
              48.322783
            ],
            [
              14.258583,
              48.3228188
            ],
            [
              14.2586476,
              48.3228602
            ],
            [
              14.2586996,
              48.3228878
            ],
            [
              14.2587806,
              48.322928
            ],
            [
              14.258869,
              48.3229645
            ],
            [
              14.2589024,
              48.3229763
            ],
            [
              14.2589272,
              48.3229851
            ],
            [
              14.2590551,
              48.3230304
            ],
            [
              14.2594828,
              48.3231748
            ],
            [
              14.2596279,
              48.3232335
            ],
            [
              14.2597108,
              48.3232803
            ],
            [
              14.2597564,
              48.3233153
            ],
            [
              14.2598073,
              48.3233645
            ],
            [
              14.2598403,
              48.3234075
            ],
            [
              14.2598696,
              48.3234654
            ],
            [
              14.2599095,
              48.323548
            ],
            [
              14.2599303,
              48.3236023
            ],
            [
              14.2599361,
              48.3236532
            ],
            [
              14.2599421,
              48.3237083
            ],
            [
              14.2599367,
              48.3237257
            ],
            [
              14.2599373,
              48.3237682
            ],
            [
              14.2599217,
              48.3238114
            ],
            [
              14.2598838,
              48.3238819
            ],
            [
              14.2598583,
              48.3239119
            ],
            [
              14.2596547,
              48.3241357
            ],
            [
              14.2595206,
              48.3242838
            ],
            [
              14.2593419,
              48.3244856
            ],
            [
              14.2592539,
              48.3245893
            ],
            [
              14.259214,
              48.3246297
            ],
            [
              14.2590801,
              48.3247653
            ],
            [
              14.2589676,
              48.3248786
            ],
            [
              14.2589422,
              48.3249047
            ],
            [
              14.2588776,
              48.3249812
            ]
          ],
          [
            [
              14.258914,
              48.3229611
            ],
            [
              14.2588532,
              48.3229384
            ],
            [
              14.2587717,
              48.3228985
            ],
            [
              14.2586887,
              48.3228561
            ]
          ],
          [
            [
              14.2567464,
              48.3197997
            ],
            [
              14.256729,
              48.319863
            ],
            [
              14.2567113,
              48.3199701
            ]
          ],
          [
            [
              14.2576912,
              48.3186547
            ],
            [
              14.2577528,
              48.3186073
            ],
            [
              14.2578605,
              48.3185244
            ]
          ],
          [
            [
              14.2572726,
              48.3173004
            ],
            [
              14.2572419,
              48.3172455
            ],
            [
              14.2572232,
              48.3171963
            ],
            [
              14.2572141,
              48.3171546
            ]
          ],
          [
            [
              14.2608405,
              48.313949
            ],
            [
              14.2606633,
              48.3140999
            ]
          ],
          [
            [
              14.265316,
              48.3109542
            ],
            [
              14.2651742,
              48.3110822
            ]
          ],
          [
            [
              14.2674579,
              48.3107195
            ],
            [
              14.2677767,
              48.3106929
            ]
          ],
          [
            [
              14.2785331,
              48.311364
            ],
            [
              14.2784996,
              48.3113512
            ],
            [
              14.2784385,
              48.3113378
            ],
            [
              14.2783483,
              48.311317
            ],
            [
              14.2782447,
              48.3112898
            ],
            [
              14.2781474,
              48.3112597
            ],
            [
              14.2779174,
              48.3111776
            ],
            [
              14.2776964,
              48.3110939
            ],
            [
              14.2775677,
              48.3110548
            ],
            [
              14.2774424,
              48.3110231
            ],
            [
              14.277436,
              48.311035
            ],
            [
              14.2774299,
              48.311045
            ],
            [
              14.2775563,
              48.3110758
            ],
            [
              14.2776818,
              48.3111125
            ],
            [
              14.2779025,
              48.3111944
            ],
            [
              14.2781357,
              48.3112791
            ],
            [
              14.2782281,
              48.3113093
            ],
            [
              14.2783397,
              48.3113385
            ],
            [
              14.2784314,
              48.3113565
            ],
            [
              14.2784917,
              48.3113642
            ],
            [
              14.2785331,
              48.311364
            ]
          ],
          [
            [
              14.2801164,
              48.3119457
            ],
            [
              14.2805972,
              48.3121284
            ]
          ],
          [
            [
              14.2829454,
              48.3109886
            ],
            [
              14.282967,
              48.3109557
            ],
            [
              14.2830044,
              48.310898
            ],
            [
              14.2830496,
              48.3108298
            ],
            [
              14.2831417,
              48.3106909
            ]
          ],
          [
            [
              14.286109,
              48.3064409
            ],
            [
              14.2862689,
              48.3061435
            ],
            [
              14.2862946,
              48.3060955
            ]
          ]
        ]
      },
      "id": "relation/1149420"
    }
  ]
}