{
  "type": "FeatureCollection",
  "features": [
    {
      "type": "Feature",
      "properties": {
        "@id": "relation/13418243",
        "colour": "#964c29",
        "from": "Schiffswerft",
        "name": "Bus 72: Schiffswerft => Stadtfriedhof",
        "network": "Oberösterreichischer Verkehrsverbund",
        "network:short": "OÖVV",
        "network:wikidata": "Q2011605",
        "network:wikipedia": "de:Oberösterreichischer Verkehrsverbund",
        "operator": "Linz Linien GmbH",
        "public_transport:version": "2",
        "ref": "72",
        "route": "bus",
        "to": "Stadtfriedhof",
        "type": "route"
      },
      "geometry": {
        "type": "MultiLineString",
        "coordinates": [
          [
            [
              14.3103557,
              48.3172546
            ],
            [
              14.3108577,
              48.3165839
            ],
            [
              14.3109847,
              48.3164141
            ],
            [
              14.3110644,
              48.3163071
            ],
            [
              14.3112487,
              48.3160597
            ],
            [
              14.3113501,
              48.3159335
            ],
            [
              14.3115061,
              48.3157328
            ],
            [
              14.3115061,
              48.3156456
            ],
            [
              14.3115354,
              48.3155808
            ],
            [
              14.3116557,
              48.3154002
            ],
            [
              14.3117758,
              48.3152009
            ],
            [
              14.3118286,
              48.3151174
            ],
            [
              14.3119185,
              48.3149579
            ],
            [
              14.3119605,
              48.3148685
            ],
            [
              14.3119793,
              48.3148321
            ],
            [
              14.3120098,
              48.3147577
            ],
            [
              14.3120834,
              48.3145948
            ],
            [
              14.312164,
              48.3144186
            ],
            [
              14.3122831,
              48.3141562
            ],
            [
              14.3124677,
              48.3137447
            ],
            [
              14.3124907,
              48.3137032
            ],
            [
              14.3125051,
              48.3136743
            ],
            [
              14.3125463,
              48.313599
            ],
            [
              14.3127031,
              48.3132682
            ],
            [
              14.3127767,
              48.3131353
            ],
            [
              14.3128664,
              48.312932
            ],
            [
              14.3128927,
              48.3128724
            ],
            [
              14.312942,
              48.3127491
            ],
            [
              14.3129926,
              48.3126256
            ],
            [
              14.3131438,
              48.312299
            ],
            [
              14.3131901,
              48.3121905
            ],
            [
              14.3133493,
              48.3118575
            ],
            [
              14.3133971,
              48.3117725
            ],
            [
              14.3134311,
              48.31171
            ],
            [
              14.3134875,
              48.3116004
            ],
            [
              14.3134976,
              48.3115837
            ],
            [
              14.3135674,
              48.3114681
            ],
            [
              14.3136554,
              48.3113361
            ],
            [
              14.3137128,
              48.3112545
            ],
            [
              14.3137793,
              48.31116
            ],
            [
              14.3138736,
              48.3110191
            ],
            [
              14.3139382,
              48.3109045
            ],
            [
              14.3139693,
              48.3108452
            ],
            [
              14.3139814,
              48.3108201
            ],
            [
              14.3140731,
              48.3106192
            ],
            [
              14.3141137,
              48.3105303
            ],
            [
              14.3141497,
              48.3104486
            ],
            [
              14.3142587,
              48.3102038
            ],
            [
              14.314328,
              48.3100486
            ],
            [
              14.3143501,
              48.310019
            ],
            [
              14.3144764,
              48.3099338
            ],
            [
              14.3145592,
              48.3097289
            ],
            [
              14.3145738,
              48.3096964
            ],
            [
              14.3145944,
              48.3096552
            ],
            [
              14.3146231,
              48.3096053
            ],
            [
              14.3147792,
              48.3093141
            ],
            [
              14.3148227,
              48.3092328
            ],
            [
              14.3149187,
              48.3090535
            ],
            [
              14.3150289,
              48.3088506
            ],
            [
              14.3151605,
              48.3086071
            ],
            [
              14.3151986,
              48.3085376
            ],
            [
              14.3152244,
              48.3084954
            ],
            [
              14.3153936,
              48.3081862
            ],
            [
              14.315466,
              48.308054
            ],
            [
              14.3154704,
              48.3080455
            ],
            [
              14.3155783,
              48.3078324
            ],
            [
              14.3156865,
              48.3076444
            ],
            [
              14.3156984,
              48.3076231
            ],
            [
              14.3157281,
              48.3075703
            ],
            [
              14.3157628,
              48.3075096
            ],
            [
              14.315831,
              48.3073902
            ],
            [
              14.315923,
              48.3072291
            ],
            [
              14.31601,
              48.3070769
            ],
            [
              14.3160388,
              48.3070264
            ],
            [
              14.3162328,
              48.3066869
            ],
            [
              14.3163387,
              48.3065015
            ],
            [
              14.316437,
              48.3063196
            ],
            [
              14.3167402,
              48.3057588
            ],
            [
              14.3167576,
              48.3057266
            ],
            [
              14.3168217,
              48.305608
            ],
            [
              14.316905,
              48.3054677
            ],
            [
              14.3170247,
              48.3052662
            ],
            [
              14.3171128,
              48.3051178
            ],
            [
              14.3171889,
              48.3049897
            ],
            [
              14.3172511,
              48.3048836
            ],
            [
              14.3173128,
              48.304778
            ],
            [
              14.3173829,
              48.3046583
            ],
            [
              14.317623,
              48.3042995
            ],
            [
              14.3177782,
              48.3040616
            ],
            [
              14.3178906,
              48.3039011
            ],
            [
              14.3180384,
              48.3036997
            ],
            [
              14.3183249,
              48.3033186
            ],
            [
              14.3184512,
              48.3031717
            ],
            [
              14.3185244,
              48.3030799
            ],
            [
              14.3189126,
              48.3026119
            ],
            [
              14.3190851,
              48.302405
            ],
            [
              14.3192856,
              48.3021817
            ],
            [
              14.3191036,
              48.3021357
            ],
            [
              14.319018,
              48.3021141
            ],
            [
              14.3188919,
              48.3020829
            ],
            [
              14.3184455,
              48.3019743
            ],
            [
              14.3181293,
              48.3018972
            ],
            [
              14.3170472,
              48.301629
            ],
            [
              14.3156847,
              48.3012831
            ],
            [
              14.3154736,
              48.301236
            ],
            [
              14.3152703,
              48.3011886
            ],
            [
              14.3148541,
              48.301106
            ],
            [
              14.3147214,
              48.3010878
            ],
            [
              14.3145932,
              48.3010703
            ],
            [
              14.3145245,
              48.3010609
            ],
            [
              14.3142089,
              48.3010178
            ],
            [
              14.3134456,
              48.3009242
            ],
            [
              14.3132186,
              48.3008963
            ],
            [
              14.3131104,
              48.3008842
            ],
            [
              14.312698,
              48.3008348
            ],
            [
              14.3124504,
              48.3008052
            ],
            [
              14.3123997,
              48.3007992
            ],
            [
              14.3121671,
              48.3007726
            ],
            [
              14.311499,
              48.300696
            ],
            [
              14.3114256,
              48.3006876
            ],
            [
              14.3113232,
              48.3006759
            ],
            [
              14.3110392,
              48.3006427
            ],
            [
              14.3109854,
              48.3006364
            ],
            [
              14.3105597,
              48.3005866
            ],
            [
              14.3104752,
              48.3005767
            ],
            [
              14.3101645,
              48.3005404
            ],
            [
              14.3100669,
              48.3005291
            ],
            [
              14.3090426,
              48.3004092
            ],
            [
              14.3087832,
              48.3003789
            ],
            [
              14.3086477,
              48.3003642
            ],
            [
              14.308605,
              48.3003595
            ],
            [
              14.3082818,
              48.3003244
            ],
            [
              14.3080166,
              48.3002955
            ],
            [
              14.3079655,
              48.30029
            ],
            [
              14.3076171,
              48.3002521
            ],
            [
              14.3074834,
              48.3002375
            ],
            [
              14.3072412,
              48.3002112
            ],
            [
              14.3061038,
              48.3000836
            ],
            [
              14.3060233,
              48.3000734
            ],
            [
              14.3059267,
              48.3000612
            ],
            [
              14.3057388,
              48.3000189
            ],
            [
              14.3055842,
              48.2999654
            ],
            [
              14.3055407,
              48.2999491
            ],
            [
              14.3054709,
              48.299923
            ],
            [
              14.3051068,
              48.2997867
            ],
            [
              14.3050859,
              48.2997789
            ],
            [
              14.3045838,
              48.2995909
            ],
            [
              14.3044214,
              48.2995281
            ],
            [
              14.3041186,
              48.299411
            ],
            [
              14.3039758,
              48.2993475
            ],
            [
              14.3038129,
              48.299275
            ],
            [
              14.3033407,
              48.2990655
            ],
            [
              14.3032929,
              48.2990443
            ],
            [
              14.3031606,
              48.2989902
            ],
            [
              14.3030241,
              48.298934
            ],
            [
              14.3029744,
              48.2989044
            ],
            [
              14.3028526,
              48.2988318
            ],
            [
              14.3027652,
              48.2987665
            ],
            [
              14.3026662,
              48.2986781
            ],
            [
              14.3025501,
              48.2985673
            ],
            [
              14.302521,
              48.2985396
            ],
            [
              14.3024759,
              48.2984976
            ],
            [
              14.3023775,
              48.2983867
            ],
            [
              14.3023075,
              48.2983059
            ],
            [
              14.3021877,
              48.2981614
            ],
            [
              14.3021079,
              48.2980574
            ],
            [
              14.302045,
              48.2979519
            ],
            [
              14.3019895,
              48.2978494
            ],
            [
              14.3019374,
              48.2977635
            ],
            [
              14.3018819,
              48.2976944
            ],
            [
              14.3018218,
              48.2976324
            ],
            [
              14.3017606,
              48.2975804
            ],
            [
              14.3016969,
              48.2975366
            ],
            [
              14.3016406,
              48.2975026
            ],
            [
              14.301187,
              48.297335
            ],
            [
              14.3010626,
              48.2972891
            ],
            [
              14.3008097,
              48.2971955
            ],
            [
              14.3006978,
              48.2971998
            ],
            [
              14.3006802,
              48.2971934
            ],
            [
              14.3005513,
              48.2971467
            ],
            [
              14.3004545,
              48.2971116
            ],
            [
              14.3003861,
              48.2970408
            ],
            [
              14.2996825,
              48.2967846
            ],
            [
              14.2994164,
              48.2966933
            ],
            [
              14.2993407,
              48.2966673
            ],
            [
              14.2992158,
              48.2966244
            ],
            [
              14.2991659,
              48.2966059
            ],
            [
              14.2991054,
              48.2965851
            ],
            [
              14.2990443,
              48.2965655
            ],
            [
              14.2988844,
              48.2965114
            ],
            [
              14.2982824,
              48.2962971
            ],
            [
              14.2978142,
              48.2961301
            ],
            [
              14.2973977,
              48.2959783
            ],
            [
              14.2971575,
              48.2958907
            ],
            [
              14.2969078,
              48.2957996
            ],
            [
              14.2967227,
              48.2957363
            ],
            [
              14.2966435,
              48.2957092
            ],
            [
              14.2965275,
              48.2956739
            ],
            [
              14.2964246,
              48.2956426
            ],
            [
              14.2962575,
              48.2955927
            ],
            [
              14.2961437,
              48.2955514
            ],
            [
              14.2960406,
              48.2954906
            ],
            [
              14.2958731,
              48.2953547
            ],
            [
              14.2958469,
              48.2953329
            ],
            [
              14.2957219,
              48.2952391
            ],
            [
              14.2955806,
              48.2951428
            ],
            [
              14.2954355,
              48.2950465
            ],
            [
              14.2953786,
              48.2950021
            ],
            [
              14.2951019,
              48.2947955
            ],
            [
              14.2948721,
              48.2945999
            ],
            [
              14.2947548,
              48.2944863
            ],
            [
              14.2946608,
              48.2944029
            ],
            [
              14.2945718,
              48.2943393
            ],
            [
              14.2944835,
              48.2942999
            ],
            [
              14.2943864,
              48.2942698
            ],
            [
              14.2942834,
              48.2942535
            ],
            [
              14.2942316,
              48.2942525
            ],
            [
              14.294056,
              48.2942492
            ],
            [
              14.293855,
              48.2942503
            ],
            [
              14.2934682,
              48.2942449
            ],
            [
              14.2932839,
              48.2942418
            ],
            [
              14.2931566,
              48.2942396
            ],
            [
              14.2930392,
              48.2942271
            ],
            [
              14.2929266,
              48.2942008
            ],
            [
              14.2927807,
              48.2941425
            ],
            [
              14.2926721,
              48.2940767
            ],
            [
              14.2925551,
              48.2939853
            ],
            [
              14.2924717,
              48.2938934
            ],
            [
              14.2922162,
              48.2935912
            ],
            [
              14.2921831,
              48.2935522
            ],
            [
              14.2921216,
              48.2933496
            ],
            [
              14.2920222,
              48.2932314
            ],
            [
              14.2919681,
              48.293167
            ],
            [
              14.2916737,
              48.292817
            ],
            [
              14.2913042,
              48.2923777
            ],
            [
              14.291022,
              48.2920416
            ],
            [
              14.2909653,
              48.2919717
            ],
            [
              14.2908578,
              48.2918505
            ],
            [
              14.290813,
              48.2918006
            ],
            [
              14.2905937,
              48.2915567
            ],
            [
              14.2902324,
              48.2911546
            ],
            [
              14.2900172,
              48.2909395
            ],
            [
              14.2898888,
              48.2908323
            ],
            [
              14.2897626,
              48.2907591
            ],
            [
              14.2896934,
              48.2907234
            ],
            [
              14.2896364,
              48.290694
            ],
            [
              14.2895209,
              48.2906481
            ],
            [
              14.2893375,
              48.2906029
            ],
            [
              14.2892542,
              48.2905863
            ],
            [
              14.289157,
              48.2905673
            ],
            [
              14.2889577,
              48.2905643
            ],
            [
              14.2888014,
              48.2905442
            ],
            [
              14.2885122,
              48.2905038
            ],
            [
              14.2881607,
              48.2904671
            ],
            [
              14.2879021,
              48.2904442
            ],
            [
              14.2878634,
              48.2904399
            ],
            [
              14.2878135,
              48.2904365
            ],
            [
              14.2877186,
              48.2904236
            ],
            [
              14.2876388,
              48.2904052
            ],
            [
              14.287549,
              48.2903726
            ],
            [
              14.2874923,
              48.2903443
            ],
            [
              14.2874528,
              48.2903082
            ],
            [
              14.287428,
              48.2902608
            ],
            [
              14.2874331,
              48.2902028
            ],
            [
              14.2874546,
              48.2899595
            ],
            [
              14.2874673,
              48.2898446
            ],
            [
              14.2874851,
              48.2895895
            ],
            [
              14.2874856,
              48.2894191
            ],
            [
              14.2874856,
              48.289394
            ],
            [
              14.287492,
              48.289326
            ],
            [
              14.287495,
              48.2892945
            ],
            [
              14.2875047,
              48.2892334
            ],
            [
              14.2875369,
              48.2891223
            ],
            [
              14.2875496,
              48.2890863
            ],
            [
              14.2876312,
              48.2889209
            ],
            [
              14.2876519,
              48.2887552
            ],
            [
              14.2876616,
              48.2886958
            ],
            [
              14.2876689,
              48.2886508
            ],
            [
              14.2876821,
              48.2885693
            ],
            [
              14.2877062,
              48.2883692
            ],
            [
              14.2877186,
              48.2882462
            ],
            [
              14.2877212,
              48.2881684
            ],
            [
              14.287723,
              48.2880972
            ],
            [
              14.2875979,
              48.2878996
            ],
            [
              14.287551,
              48.2878113
            ],
            [
              14.2875129,
              48.2877433
            ],
            [
              14.2874317,
              48.2875983
            ],
            [
              14.2873904,
              48.2875228
            ],
            [
              14.2873536,
              48.2873639
            ],
            [
              14.2872198,
              48.287143
            ],
            [
              14.2867281,
              48.2863311
            ],
            [
              14.2864889,
              48.2859562
            ],
            [
              14.286291,
              48.2856461
            ],
            [
              14.2862697,
              48.2856127
            ],
            [
              14.2862341,
              48.285557
            ],
            [
              14.286048,
              48.2852654
            ],
            [
              14.2860215,
              48.2852242
            ],
            [
              14.2859219,
              48.2851133
            ],
            [
              14.2857999,
              48.285062
            ],
            [
              14.2857684,
              48.2850382
            ],
            [
              14.2856752,
              48.2849591
            ],
            [
              14.2855625,
              48.2848726
            ],
            [
              14.2854911,
              48.2848181
            ],
            [
              14.2854596,
              48.2847952
            ],
            [
              14.2853901,
              48.2847447
            ],
            [
              14.2852886,
              48.2846858
            ],
            [
              14.2851893,
              48.2846373
            ],
            [
              14.2846742,
              48.284399
            ],
            [
              14.2844999,
              48.2843184
            ],
            [
              14.2844047,
              48.2842663
            ],
            [
              14.2843782,
              48.2842515
            ],
            [
              14.2842996,
              48.2841991
            ],
            [
              14.2842282,
              48.2841243
            ],
            [
              14.2841616,
              48.2840037
            ],
            [
              14.2841551,
              48.2839806
            ],
            [
              14.2841479,
              48.2839484
            ],
            [
              14.2841556,
              48.2838949
            ],
            [
              14.2841749,
              48.2838364
            ],
            [
              14.2842067,
              48.2837732
            ],
            [
              14.2842477,
              48.2837148
            ],
            [
              14.2846101,
              48.2832674
            ],
            [
              14.2846958,
              48.2831611
            ],
            [
              14.2849746,
              48.282841
            ],
            [
              14.2852427,
              48.2825566
            ],
            [
              14.2854314,
              48.282375
            ],
            [
              14.285715,
              48.2821141
            ],
            [
              14.2860021,
              48.2818685
            ],
            [
              14.2861701,
              48.2817372
            ],
            [
              14.2863745,
              48.2815906
            ],
            [
              14.2866126,
              48.2814344
            ],
            [
              14.2866621,
              48.2814054
            ],
            [
              14.2869124,
              48.2812599
            ],
            [
              14.2872936,
              48.281068
            ],
            [
              14.2876537,
              48.2809045
            ],
            [
              14.2880589,
              48.2807454
            ],
            [
              14.2883799,
              48.2806334
            ],
            [
              14.2885942,
              48.2805628
            ],
            [
              14.2889156,
              48.2804629
            ],
            [
              14.2896164,
              48.2802564
            ],
            [
              14.291405,
              48.2797783
            ],
            [
              14.2918558,
              48.2796562
            ],
            [
              14.2923236,
              48.2794878
            ],
            [
              14.2925684,
              48.2793955
            ],
            [
              14.2928385,
              48.27928
            ],
            [
              14.2930317,
              48.2791859
            ],
            [
              14.293235,
              48.2790649
            ],
            [
              14.2935138,
              48.2788693
            ],
            [
              14.2937061,
              48.2786977
            ],
            [
              14.2939105,
              48.2784829
            ],
            [
              14.2939574,
              48.2784188
            ],
            [
              14.294057,
              48.2782893
            ],
            [
              14.2941592,
              48.2781251
            ],
            [
              14.2942449,
              48.2779563
            ],
            [
              14.2942618,
              48.2779205
            ],
            [
              14.2943321,
              48.2777152
            ],
            [
              14.2943781,
              48.2775623
            ],
            [
              14.2944678,
              48.2773338
            ],
            [
              14.2945449,
              48.2769528
            ],
            [
              14.2946375,
              48.2764477
            ],
            [
              14.2946913,
              48.2761928
            ],
            [
              14.2947432,
              48.2759511
            ],
            [
              14.2947995,
              48.2756737
            ],
            [
              14.294931,
              48.275025
            ],
            [
              14.2949685,
              48.2748152
            ],
            [
              14.2949767,
              48.2747691
            ],
            [
              14.2949959,
              48.2746078
            ],
            [
              14.2950755,
              48.2739395
            ],
            [
              14.2952231,
              48.2710258
            ],
            [
              14.2952938,
              48.27048
            ],
            [
              14.295353,
              48.2702557
            ],
            [
              14.2957125,
              48.2692881
            ],
            [
              14.2961809,
              48.2684853
            ],
            [
              14.2966154,
              48.2677682
            ],
            [
              14.296934,
              48.2670422
            ],
            [
              14.2970483,
              48.2667302
            ],
            [
              14.2971114,
              48.2665256
            ],
            [
              14.2971203,
              48.2664968
            ],
            [
              14.2971628,
              48.2663159
            ],
            [
              14.297207,
              48.2660862
            ],
            [
              14.2972526,
              48.2657663
            ],
            [
              14.2972876,
              48.2654472
            ],
            [
              14.2972941,
              48.2650517
            ],
            [
              14.2972785,
              48.2643806
            ],
            [
              14.2972264,
              48.2635734
            ],
            [
              14.297205,
              48.2632139
            ],
            [
              14.2970629,
              48.2629044
            ],
            [
              14.2969994,
              48.2627106
            ],
            [
              14.2968999,
              48.2624595
            ],
            [
              14.2967473,
              48.2621679
            ],
            [
              14.2966103,
              48.2619389
            ],
            [
              14.2964368,
              48.2616907
            ],
            [
              14.2961292,
              48.261311
            ],
            [
              14.2958927,
              48.2610454
            ],
            [
              14.2955685,
              48.2606968
            ],
            [
              14.2952074,
              48.2603395
            ],
            [
              14.2947275,
              48.2598961
            ],
            [
              14.294483,
              48.2596873
            ],
            [
              14.294004,
              48.259296
            ],
            [
              14.2933498,
              48.2587979
            ],
            [
              14.292947,
              48.2585318
            ],
            [
              14.29252,
              48.2582586
            ],
            [
              14.2921443,
              48.2580138
            ],
            [
              14.2917878,
              48.2578025
            ],
            [
              14.2909508,
              48.2573234
            ],
            [
              14.2904106,
              48.2570142
            ],
            [
              14.2887634,
              48.2560861
            ],
            [
              14.28848,
              48.2559305
            ],
            [
              14.2880752,
              48.2557013
            ],
            [
              14.287767,
              48.2555408
            ],
            [
              14.2876584,
              48.2554843
            ],
            [
              14.2874696,
              48.2554042
            ],
            [
              14.2872715,
              48.2553185
            ],
            [
              14.2872036,
              48.2552901
            ],
            [
              14.2867791,
              48.2551112
            ],
            [
              14.286543,
              48.255016
            ],
            [
              14.2862693,
              48.2549177
            ],
            [
              14.285114,
              48.2545533
            ],
            [
              14.2837043,
              48.2541804
            ],
            [
              14.2828975,
              48.2539738
            ],
            [
              14.2825619,
              48.2538903
            ],
            [
              14.2822358,
              48.2538091
            ],
            [
              14.2816453,
              48.2536577
            ],
            [
              14.2792385,
              48.2530437
            ],
            [
              14.2780789,
              48.2527363
            ],
            [
              14.2771831,
              48.2524963
            ],
            [
              14.276913,
              48.252416
            ],
            [
              14.2765292,
              48.2523098
            ],
            [
              14.2762902,
              48.2522405
            ],
            [
              14.2760549,
              48.2521609
            ],
            [
              14.2754241,
              48.2519583
            ],
            [
              14.2748261,
              48.2517587
            ],
            [
              14.2741861,
              48.2515444
            ],
            [
              14.2736927,
              48.2513645
            ],
            [
              14.2730737,
              48.2511138
            ],
            [
              14.2722874,
              48.2507953
            ],
            [
              14.2719556,
              48.2506712
            ],
            [
              14.2717484,
              48.2505938
            ],
            [
              14.2716985,
              48.250575
            ],
            [
              14.2710322,
              48.2503005
            ],
            [
              14.2708438,
              48.2502191
            ],
            [
              14.2702962,
              48.2499826
            ],
            [
              14.2699402,
              48.2498273
            ],
            [
              14.2696298,
              48.2497037
            ],
            [
              14.2694862,
              48.2496466
            ],
            [
              14.2692232,
              48.2495381
            ],
            [
              14.2661094,
              48.248254
            ],
            [
              14.2659483,
              48.2481868
            ],
            [
              14.2651242,
              48.2478432
            ],
            [
              14.2650897,
              48.2478285
            ],
            [
              14.2648734,
              48.2477392
            ],
            [
              14.2646573,
              48.247658
            ],
            [
              14.264363,
              48.2475272
            ],
            [
              14.2626317,
              48.246808
            ],
            [
              14.261895,
              48.2464872
            ],
            [
              14.2612068,
              48.2461653
            ],
            [
              14.260761,
              48.2459534
            ],
            [
              14.2600846,
              48.2456319
            ],
            [
              14.259732,
              48.2454629
            ],
            [
              14.2592462,
              48.2452304
            ],
            [
              14.2569726,
              48.2441425
            ],
            [
              14.2559833,
              48.243675
            ],
            [
              14.2556248,
              48.2435056
            ],
            [
              14.2555666,
              48.2434781
            ],
            [
              14.2550393,
              48.2432301
            ],
            [
              14.2538439,
              48.2426731
            ],
            [
              14.2537276,
              48.2426193
            ],
            [
              14.2517066,
              48.2417193
            ],
            [
              14.2510857,
              48.2414506
            ],
            [
              14.2502331,
              48.2410779
            ],
            [
              14.2498832,
              48.240925
            ],
            [
              14.2497723,
              48.2408798
            ],
            [
              14.2496443,
              48.2408278
            ],
            [
              14.2494707,
              48.2407583
            ],
            [
              14.2490284,
              48.2405815
            ],
            [
              14.2469194,
              48.2397228
            ],
            [
              14.2463443,
              48.2394992
            ],
            [
              14.2453925,
              48.2391293
            ],
            [
              14.2452267,
              48.2390649
            ],
            [
              14.2450079,
              48.2389799
            ],
            [
              14.2450922,
              48.2388789
            ],
            [
              14.2451545,
              48.2388043
            ],
            [
              14.2451789,
              48.2387813
            ],
            [
              14.245321,
              48.2386477
            ],
            [
              14.2458324,
              48.2388847
            ],
            [
              14.2459352,
              48.2389305
            ],
            [
              14.24603,
              48.2389737
            ],
            [
              14.2468045,
              48.2393142
            ],
            [
              14.2470911,
              48.2394402
            ]
          ],
          [
            [
              14.2471447,
              48.2393947
            ],
            [
              14.2468214,
              48.2392481
            ]
          ],
          [
            [
              14.2548828,
              48.2432367
            ],
            [
              14.2552772,
              48.2434172
            ]
          ],
          [
            [
              14.25952,
              48.245447
            ],
            [
              14.259341,
              48.2453649
            ],
            [
              14.2592339,
              48.2453133
            ],
            [
              14.25917,
              48.2452768
            ]
          ],
          [
            [
              14.2691638,
              48.2495993
            ],
            [
              14.269425,
              48.2497116
            ]
          ],
          [
            [
              14.2822336,
              48.2538619
            ],
            [
              14.2821287,
              48.2538402
            ],
            [
              14.2815634,
              48.2537024
            ]
          ],
          [
            [
              14.2903912,
              48.2915043
            ],
            [
              14.2902529,
              48.2913412
            ],
            [
              14.2900966,
              48.2911569
            ]
          ],
          [
            [
              14.29385,
              48.2943113
            ],
            [
              14.293405,
              48.2942954
            ],
            [
              14.2931606,
              48.2942927
            ],
            [
              14.2930855,
              48.2942847
            ],
            [
              14.2930803,
              48.2943029
            ]
          ],
          [
            [
              14.2954984,
              48.2951852
            ],
            [
              14.2955142,
              48.2951747
            ],
            [
              14.2957737,
              48.2953496
            ],
            [
              14.2958569,
              48.2954245
            ],
            [
              14.2959608,
              48.295512
            ],
            [
              14.2959336,
              48.2955268
            ]
          ],
          [
            [
              14.3026656,
              48.2988335
            ],
            [
              14.3023586,
              48.2986042
            ]
          ],
          [
            [
              14.3101332,
              48.3006146
            ],
            [
              14.3103764,
              48.3006439
            ]
          ],
          [
            [
              14.3187743,
              48.3021373
            ],
            [
              14.3184141,
              48.3020475
            ]
          ],
          [
            [
              14.3169031,
              48.3052258
            ],
            [
              14.3168017,
              48.3053985
            ]
          ],
          [
            [
              14.3126623,
              48.313203
            ],
            [
              14.3128068,
              48.3128995
            ],
            [
              14.3127769,
              48.3128924
            ]
          ],
          [
            [
              14.3116081,
              48.3153075
            ],
            [
              14.311632,
              48.3152531
            ],
            [
              14.3117249,
              48.3150891
            ]
          ]
        ]
      },
      "id": "relation/13418243"
    },
    {
      "type": "Feature",
      "properties": {
        "@id": "relation/13418244",
        "colour": "#964c29",
        "from": "Stadtfriedhof",
        "name": "Bus 72: Stadtfriedhof => Schiffswerft",
        "network": "Oberösterreichischer Verkehrsverbund",
        "network:short": "OÖVV",
        "network:wikidata": "Q2011605",
        "network:wikipedia": "de:Oberösterreichischer Verkehrsverbund",
        "operator": "Linz Linien GmbH",
        "public_transport:version": "2",
        "ref": "72",
        "route": "bus",
        "to": "Industriezeile",
        "type": "route"
      },
      "geometry": {
        "type": "MultiLineString",
        "coordinates": [
          [
            [
              14.3103557,
              48.3172546
            ],
            [
              14.310164,
              48.3175225
            ],
            [
              14.3100817,
              48.317649
            ],
            [
              14.3099912,
              48.3177881
            ],
            [
              14.309904,
              48.3179221
            ],
            [
              14.3097957,
              48.3180359
            ],
            [
              14.3096639,
              48.3182981
            ],
            [
              14.3095916,
              48.3184343
            ],
            [
              14.3095587,
              48.3184817
            ],
            [
              14.3095116,
              48.3185225
            ],
            [
              14.3094583,
              48.3185591
            ],
            [
              14.309403,
              48.3185903
            ],
            [
              14.3093536,
              48.3186113
            ],
            [
              14.3093184,
              48.3186231
            ],
            [
              14.3092662,
              48.318637
            ],
            [
              14.3092081,
              48.3186459
            ],
            [
              14.3091521,
              48.3186509
            ],
            [
              14.3090941,
              48.3186522
            ],
            [
              14.3090371,
              48.3186493
            ],
            [
              14.3089429,
              48.3186384
            ],
            [
              14.3088648,
              48.3186223
            ],
            [
              14.3086131,
              48.3185575
            ],
            [
              14.3084149,
              48.3185064
            ],
            [
              14.3082079,
              48.3184531
            ],
            [
              14.3080166,
              48.3184038
            ],
            [
              14.3078235,
              48.3183541
            ],
            [
              14.307624,
              48.3183027
            ],
            [
              14.3074269,
              48.3182519
            ],
            [
              14.3072321,
              48.3182018
            ],
            [
              14.3070363,
              48.3181513
            ],
            [
              14.3068484,
              48.3181029
            ],
            [
              14.3065058,
              48.3180147
            ],
            [
              14.306398,
              48.3179862
            ],
            [
              14.3061472,
              48.3179199
            ],
            [
              14.3057959,
              48.3178283
            ],
            [
              14.3056681,
              48.317795
            ],
            [
              14.3056,
              48.3177854
            ],
            [
              14.3054221,
              48.3177708
            ],
            [
              14.3052362,
              48.3177218
            ],
            [
              14.3051447,
              48.3176977
            ],
            [
              14.3051051,
              48.3176873
            ],
            [
              14.3048939,
              48.3176106
            ],
            [
              14.3046626,
              48.3175386
            ],
            [
              14.3043585,
              48.3174503
            ],
            [
              14.30432,
              48.3174398
            ],
            [
              14.3041716,
              48.317397
            ],
            [
              14.3039717,
              48.3173365
            ],
            [
              14.3037903,
              48.3172735
            ],
            [
              14.3035456,
              48.3171842
            ],
            [
              14.3033601,
              48.3171031
            ],
            [
              14.3032109,
              48.3170306
            ],
            [
              14.3030543,
              48.3169415
            ],
            [
              14.3029028,
              48.3168527
            ],
            [
              14.3027511,
              48.3167539
            ],
            [
              14.3025908,
              48.3166417
            ],
            [
              14.3025084,
              48.3165792
            ],
            [
              14.3024078,
              48.3164986
            ],
            [
              14.3022856,
              48.3163971
            ],
            [
              14.3020699,
              48.316213
            ],
            [
              14.3019673,
              48.3161155
            ],
            [
              14.3019335,
              48.3160834
            ],
            [
              14.3018883,
              48.3160386
            ],
            [
              14.3018485,
              48.3160006
            ],
            [
              14.3016872,
              48.3158394
            ],
            [
              14.3014883,
              48.315648
            ],
            [
              14.3014018,
              48.3155648
            ],
            [
              14.3012476,
              48.3154659
            ],
            [
              14.3010535,
              48.315262
            ],
            [
              14.3009528,
              48.3151579
            ],
            [
              14.3008084,
              48.3150069
            ],
            [
              14.3007555,
              48.3149518
            ],
            [
              14.300672,
              48.3148643
            ],
            [
              14.3006219,
              48.3148145
            ],
            [
              14.3005701,
              48.3147629
            ],
            [
              14.3005325,
              48.3147255
            ],
            [
              14.3004616,
              48.3146538
            ],
            [
              14.3004494,
              48.3146417
            ],
            [
              14.3003771,
              48.3145673
            ],
            [
              14.3000425,
              48.3142382
            ],
            [
              14.2999058,
              48.3141038
            ],
            [
              14.2997471,
              48.3139496
            ],
            [
              14.2996687,
              48.3138809
            ],
            [
              14.2995563,
              48.3137863
            ],
            [
              14.2994717,
              48.3137212
            ],
            [
              14.2994247,
              48.3136851
            ],
            [
              14.2993887,
              48.3136568
            ],
            [
              14.2992418,
              48.313541
            ],
            [
              14.2991831,
              48.3134952
            ],
            [
              14.2990388,
              48.3133818
            ],
            [
              14.2986412,
              48.3130693
            ],
            [
              14.2985068,
              48.3129644
            ],
            [
              14.2984503,
              48.3129202
            ],
            [
              14.2982348,
              48.31278
            ],
            [
              14.298204,
              48.31276
            ],
            [
              14.2979829,
              48.3126162
            ],
            [
              14.2978968,
              48.3125651
            ],
            [
              14.2977929,
              48.3125034
            ],
            [
              14.2977201,
              48.3124603
            ],
            [
              14.2973665,
              48.3122507
            ],
            [
              14.296964,
              48.3120087
            ],
            [
              14.2967599,
              48.3118903
            ],
            [
              14.2966945,
              48.3118514
            ],
            [
              14.2968403,
              48.3117401
            ],
            [
              14.2969204,
              48.3116805
            ],
            [
              14.2969448,
              48.3116623
            ],
            [
              14.2975057,
              48.3112329
            ],
            [
              14.2977756,
              48.3110263
            ],
            [
              14.2979583,
              48.3108428
            ],
            [
              14.2980367,
              48.310794
            ],
            [
              14.2981466,
              48.3107119
            ],
            [
              14.2983128,
              48.3106037
            ],
            [
              14.2983739,
              48.310557
            ],
            [
              14.2985001,
              48.3104484
            ],
            [
              14.2986154,
              48.3103378
            ],
            [
              14.2987049,
              48.3102297
            ],
            [
              14.2987868,
              48.310127
            ],
            [
              14.2988871,
              48.3099864
            ],
            [
              14.298961,
              48.3098551
            ],
            [
              14.2989891,
              48.3098007
            ],
            [
              14.2990043,
              48.3097713
            ],
            [
              14.2990477,
              48.3096872
            ],
            [
              14.2991109,
              48.309557
            ],
            [
              14.2991275,
              48.3095229
            ],
            [
              14.2991811,
              48.3093805
            ],
            [
              14.2992906,
              48.3091057
            ],
            [
              14.2994161,
              48.3087889
            ],
            [
              14.2995415,
              48.308446
            ],
            [
              14.2996325,
              48.308098
            ],
            [
              14.2998185,
              48.3073121
            ],
            [
              14.2998701,
              48.307094
            ],
            [
              14.2998726,
              48.3070835
            ],
            [
              14.2999283,
              48.3068479
            ],
            [
              14.2999374,
              48.3068094
            ],
            [
              14.2999537,
              48.3067405
            ],
            [
              14.2999627,
              48.3066653
            ],
            [
              14.2999675,
              48.3066246
            ],
            [
              14.2999851,
              48.306476
            ],
            [
              14.3,
              48.3063493
            ],
            [
              14.3000347,
              48.3060558
            ],
            [
              14.3001559,
              48.3049786
            ],
            [
              14.3003304,
              48.3037646
            ],
            [
              14.3003547,
              48.3035958
            ],
            [
              14.3003604,
              48.3035565
            ],
            [
              14.3003813,
              48.3034484
            ],
            [
              14.3004003,
              48.3033471
            ],
            [
              14.3004082,
              48.3033157
            ],
            [
              14.30042,
              48.3032688
            ],
            [
              14.3005271,
              48.3028422
            ],
            [
              14.3005339,
              48.3028204
            ],
            [
              14.3006293,
              48.3024307
            ],
            [
              14.3006475,
              48.3023856
            ],
            [
              14.3006842,
              48.3022942
            ],
            [
              14.3007176,
              48.3022109
            ],
            [
              14.3007273,
              48.3021868
            ],
            [
              14.3007677,
              48.3020923
            ],
            [
              14.3007943,
              48.30203
            ],
            [
              14.3009637,
              48.3017132
            ],
            [
              14.3011589,
              48.3013476
            ],
            [
              14.3012193,
              48.30132
            ],
            [
              14.3012763,
              48.3012201
            ],
            [
              14.3012878,
              48.3011999
            ],
            [
              14.3013091,
              48.3011625
            ],
            [
              14.3012799,
              48.3011191
            ],
            [
              14.3014278,
              48.30084
            ],
            [
              14.3015076,
              48.3008057
            ],
            [
              14.301649,
              48.3005532
            ],
            [
              14.3016645,
              48.3005255
            ],
            [
              14.3017551,
              48.3003998
            ],
            [
              14.30174,
              48.3003496
            ],
            [
              14.3017779,
              48.3002936
            ],
            [
              14.3018472,
              48.3002068
            ],
            [
              14.3019356,
              48.3001227
            ],
            [
              14.3020085,
              48.3001056
            ],
            [
              14.3020405,
              48.3000751
            ],
            [
              14.3020636,
              48.3000531
            ],
            [
              14.3021192,
              48.3000001
            ],
            [
              14.3022785,
              48.2998017
            ],
            [
              14.3024818,
              48.2996111
            ],
            [
              14.3026595,
              48.2994486
            ],
            [
              14.3029862,
              48.2991498
            ],
            [
              14.3030263,
              48.2991131
            ],
            [
              14.3031606,
              48.2989902
            ],
            [
              14.3030241,
              48.298934
            ],
            [
              14.3029744,
              48.2989044
            ],
            [
              14.3028526,
              48.2988318
            ],
            [
              14.3027652,
              48.2987665
            ],
            [
              14.3026662,
              48.2986781
            ],
            [
              14.3025501,
              48.2985673
            ],
            [
              14.302521,
              48.2985396
            ],
            [
              14.3024759,
              48.2984976
            ],
            [
              14.3023775,
              48.2983867
            ],
            [
              14.3023075,
              48.2983059
            ],
            [
              14.3021877,
              48.2981614
            ],
            [
              14.3021079,
              48.2980574
            ],
            [
              14.302045,
              48.2979519
            ],
            [
              14.3019895,
              48.2978494
            ],
            [
              14.3019374,
              48.2977635
            ],
            [
              14.3018819,
              48.2976944
            ],
            [
              14.3018218,
              48.2976324
            ],
            [
              14.3017606,
              48.2975804
            ],
            [
              14.3016969,
              48.2975366
            ],
            [
              14.3016406,
              48.2975026
            ],
            [
              14.301187,
              48.297335
            ],
            [
              14.3010626,
              48.2972891
            ],
            [
              14.3008097,
              48.2971955
            ],
            [
              14.3007575,
              48.2971297
            ],
            [
              14.3007386,
              48.2971226
            ],
            [
              14.3005142,
              48.2970387
            ],
            [
              14.3003861,
              48.2970408
            ],
            [
              14.2996825,
              48.2967846
            ],
            [
              14.2994164,
              48.2966933
            ],
            [
              14.2993407,
              48.2966673
            ],
            [
              14.2992158,
              48.2966244
            ],
            [
              14.2991659,
              48.2966059
            ],
            [
              14.2991054,
              48.2965851
            ],
            [
              14.2990443,
              48.2965655
            ],
            [
              14.2988844,
              48.2965114
            ],
            [
              14.2982824,
              48.2962971
            ],
            [
              14.2978142,
              48.2961301
            ],
            [
              14.2973977,
              48.2959783
            ],
            [
              14.2971575,
              48.2958907
            ],
            [
              14.2969078,
              48.2957996
            ],
            [
              14.2967227,
              48.2957363
            ],
            [
              14.2966435,
              48.2957092
            ],
            [
              14.2965275,
              48.2956739
            ],
            [
              14.2964246,
              48.2956426
            ],
            [
              14.2963177,
              48.2955823
            ],
            [
              14.2961688,
              48.2954893
            ],
            [
              14.2961252,
              48.2954581
            ],
            [
              14.2960275,
              48.295368
            ],
            [
              14.2958842,
              48.2952359
            ],
            [
              14.295653,
              48.2950708
            ],
            [
              14.2955269,
              48.2949854
            ],
            [
              14.2954686,
              48.2949448
            ],
            [
              14.2951866,
              48.2947427
            ],
            [
              14.2951207,
              48.2946895
            ],
            [
              14.2950676,
              48.2946467
            ],
            [
              14.2949255,
              48.2945319
            ],
            [
              14.2946923,
              48.2943117
            ],
            [
              14.2946465,
              48.2942726
            ],
            [
              14.2945938,
              48.2942393
            ],
            [
              14.2945178,
              48.2942062
            ],
            [
              14.2944108,
              48.2941745
            ],
            [
              14.294295,
              48.2941546
            ],
            [
              14.2942374,
              48.2941492
            ],
            [
              14.2940624,
              48.2941409
            ],
            [
              14.2938607,
              48.2941411
            ],
            [
              14.2938058,
              48.2941412
            ],
            [
              14.2937414,
              48.2941435
            ],
            [
              14.2933082,
              48.294159
            ],
            [
              14.2931404,
              48.2941547
            ],
            [
              14.2929974,
              48.2941268
            ],
            [
              14.2928843,
              48.2940837
            ],
            [
              14.2927875,
              48.2940237
            ],
            [
              14.2927045,
              48.2939549
            ],
            [
              14.292616,
              48.2938671
            ],
            [
              14.2924901,
              48.2937115
            ],
            [
              14.2924002,
              48.2935727
            ],
            [
              14.2923422,
              48.2934915
            ],
            [
              14.2921216,
              48.2933496
            ],
            [
              14.2920222,
              48.2932314
            ],
            [
              14.2919681,
              48.293167
            ],
            [
              14.2916737,
              48.292817
            ],
            [
              14.2913042,
              48.2923777
            ],
            [
              14.291022,
              48.2920416
            ],
            [
              14.2909653,
              48.2919717
            ],
            [
              14.290963,
              48.2919594
            ],
            [
              14.2909639,
              48.2919481
            ],
            [
              14.2909689,
              48.2919291
            ],
            [
              14.2909863,
              48.2918814
            ],
            [
              14.2909871,
              48.2918616
            ],
            [
              14.2909872,
              48.2918409
            ],
            [
              14.2909659,
              48.2918075
            ],
            [
              14.2905788,
              48.2913499
            ],
            [
              14.2904739,
              48.2912259
            ],
            [
              14.2901896,
              48.2908899
            ],
            [
              14.2901344,
              48.290832
            ],
            [
              14.290076,
              48.2907847
            ],
            [
              14.2900077,
              48.2907428
            ],
            [
              14.2899265,
              48.2907013
            ],
            [
              14.2897448,
              48.2906272
            ],
            [
              14.2897091,
              48.2906224
            ],
            [
              14.2895209,
              48.2906481
            ],
            [
              14.2893375,
              48.2906029
            ],
            [
              14.2892542,
              48.2905863
            ],
            [
              14.289157,
              48.2905673
            ],
            [
              14.2890849,
              48.2905398
            ],
            [
              14.2888147,
              48.2904369
            ],
            [
              14.2882996,
              48.2902419
            ],
            [
              14.2881649,
              48.2901643
            ],
            [
              14.2880855,
              48.2901073
            ],
            [
              14.2880431,
              48.2900765
            ],
            [
              14.2879571,
              48.2900101
            ],
            [
              14.2879226,
              48.2899829
            ],
            [
              14.2878535,
              48.2899141
            ],
            [
              14.2877862,
              48.2898483
            ],
            [
              14.2877742,
              48.2898288
            ],
            [
              14.2877348,
              48.2897604
            ],
            [
              14.2876971,
              48.2896823
            ],
            [
              14.287657,
              48.2895813
            ],
            [
              14.2876389,
              48.2894921
            ],
            [
              14.2876373,
              48.2894265
            ],
            [
              14.2876366,
              48.2894003
            ],
            [
              14.287636,
              48.2893439
            ],
            [
              14.2876356,
              48.2893006
            ],
            [
              14.287636,
              48.2892835
            ],
            [
              14.2876346,
              48.2891054
            ],
            [
              14.2876312,
              48.2889209
            ],
            [
              14.2876519,
              48.2887552
            ],
            [
              14.2876616,
              48.2886958
            ],
            [
              14.2876689,
              48.2886508
            ],
            [
              14.2876821,
              48.2885693
            ],
            [
              14.2877062,
              48.2883692
            ],
            [
              14.2877186,
              48.2882462
            ],
            [
              14.2877212,
              48.2881684
            ],
            [
              14.287723,
              48.2880972
            ],
            [
              14.2877235,
              48.2879584
            ],
            [
              14.2876924,
              48.2878444
            ],
            [
              14.2876203,
              48.2877147
            ],
            [
              14.2876106,
              48.2876972
            ],
            [
              14.287489,
              48.2874956
            ],
            [
              14.2873536,
              48.2873639
            ],
            [
              14.2872198,
              48.287143
            ],
            [
              14.2867281,
              48.2863311
            ],
            [
              14.2864889,
              48.2859562
            ],
            [
              14.286291,
              48.2856461
            ],
            [
              14.2862697,
              48.2856127
            ],
            [
              14.2862341,
              48.285557
            ],
            [
              14.286048,
              48.2852654
            ],
            [
              14.2860215,
              48.2852242
            ],
            [
              14.2859219,
              48.2851133
            ],
            [
              14.2858979,
              48.2850312
            ],
            [
              14.2858837,
              48.2849956
            ],
            [
              14.2857948,
              48.2849097
            ],
            [
              14.2857229,
              48.2848537
            ],
            [
              14.2856461,
              48.2847982
            ],
            [
              14.2855691,
              48.2847482
            ],
            [
              14.2854738,
              48.2846919
            ],
            [
              14.2854583,
              48.284683
            ],
            [
              14.28536,
              48.2846266
            ],
            [
              14.2845929,
              48.2842704
            ],
            [
              14.2845191,
              48.2842273
            ],
            [
              14.2844588,
              48.2841866
            ],
            [
              14.2844115,
              48.2841434
            ],
            [
              14.2843741,
              48.2840996
            ],
            [
              14.2843505,
              48.2840573
            ],
            [
              14.2843384,
              48.2840077
            ],
            [
              14.2843339,
              48.2839612
            ],
            [
              14.284338,
              48.2839069
            ],
            [
              14.2843465,
              48.2838582
            ],
            [
              14.2843603,
              48.2838242
            ],
            [
              14.2843799,
              48.2837759
            ],
            [
              14.2844295,
              48.2836927
            ],
            [
              14.2844907,
              48.2836029
            ],
            [
              14.2847174,
              48.2833097
            ],
            [
              14.2848011,
              48.2832037
            ],
            [
              14.2850716,
              48.2828922
            ],
            [
              14.2853504,
              48.2825936
            ],
            [
              14.2855348,
              48.2824188
            ],
            [
              14.285815,
              48.2821632
            ],
            [
              14.2860759,
              48.2819432
            ],
            [
              14.2862408,
              48.2818084
            ],
            [
              14.2864378,
              48.281668
            ],
            [
              14.286634,
              48.2815375
            ],
            [
              14.2868304,
              48.2814179
            ],
            [
              14.287023,
              48.2813064
            ],
            [
              14.2872447,
              48.2811891
            ],
            [
              14.287581,
              48.2810296
            ],
            [
              14.2880187,
              48.2808545
            ],
            [
              14.2883878,
              48.2807216
            ],
            [
              14.2886886,
              48.2806209
            ],
            [
              14.2889476,
              48.2805422
            ],
            [
              14.2892232,
              48.2804586
            ],
            [
              14.2894636,
              48.2804267
            ],
            [
              14.2898665,
              48.2803149
            ],
            [
              14.2907858,
              48.280069
            ],
            [
              14.2910492,
              48.2799979
            ],
            [
              14.2912458,
              48.2799478
            ],
            [
              14.2915133,
              48.2799059
            ],
            [
              14.2918958,
              48.2798589
            ],
            [
              14.2922372,
              48.2798245
            ],
            [
              14.2925383,
              48.2797889
            ],
            [
              14.2928439,
              48.2797425
            ],
            [
              14.2931326,
              48.279675
            ],
            [
              14.2933914,
              48.2795988
            ],
            [
              14.2936814,
              48.2794868
            ],
            [
              14.2938908,
              48.2793777
            ],
            [
              14.2940803,
              48.2792598
            ],
            [
              14.2942187,
              48.2791601
            ],
            [
              14.2943845,
              48.2790107
            ],
            [
              14.2944896,
              48.2789048
            ],
            [
              14.2946033,
              48.2787515
            ],
            [
              14.2947104,
              48.278575
            ],
            [
              14.2947635,
              48.2784564
            ],
            [
              14.2948208,
              48.278286
            ],
            [
              14.2948807,
              48.2780024
            ],
            [
              14.2949196,
              48.2777751
            ],
            [
              14.2949403,
              48.2774935
            ],
            [
              14.2949638,
              48.276693
            ],
            [
              14.295046,
              48.2764019
            ],
            [
              14.2950476,
              48.2762174
            ],
            [
              14.2950661,
              48.2759793
            ],
            [
              14.2950987,
              48.2757195
            ],
            [
              14.2952001,
              48.2751309
            ],
            [
              14.2954069,
              48.2741869
            ],
            [
              14.2954521,
              48.2738145
            ],
            [
              14.2954855,
              48.2733674
            ],
            [
              14.2955704,
              48.2711019
            ],
            [
              14.2956453,
              48.270456
            ],
            [
              14.2957653,
              48.2698905
            ],
            [
              14.2957941,
              48.269794
            ],
            [
              14.2958687,
              48.2695439
            ],
            [
              14.2959421,
              48.269348
            ],
            [
              14.2959882,
              48.2692247
            ],
            [
              14.2960079,
              48.2691845
            ],
            [
              14.2960865,
              48.2690326
            ],
            [
              14.2962602,
              48.2687581
            ],
            [
              14.2962804,
              48.2687226
            ],
            [
              14.2965175,
              48.2683149
            ],
            [
              14.2971212,
              48.267301
            ],
            [
              14.2973614,
              48.2668634
            ],
            [
              14.2973818,
              48.2667912
            ],
            [
              14.2974439,
              48.2665823
            ],
            [
              14.2974587,
              48.2665323
            ],
            [
              14.2975612,
              48.2663034
            ],
            [
              14.2976687,
              48.2660433
            ],
            [
              14.29775,
              48.2658007
            ],
            [
              14.297807,
              48.2655866
            ],
            [
              14.2978575,
              48.2653427
            ],
            [
              14.2978915,
              48.2650614
            ],
            [
              14.2978979,
              48.2648254
            ],
            [
              14.2978897,
              48.2645869
            ],
            [
              14.297847,
              48.2642627
            ],
            [
              14.2977864,
              48.2639509
            ],
            [
              14.2976559,
              48.2634507
            ],
            [
              14.2974683,
              48.2629056
            ],
            [
              14.2973509,
              48.2626373
            ],
            [
              14.2972541,
              48.2624105
            ],
            [
              14.297061,
              48.262024
            ],
            [
              14.2968469,
              48.2616646
            ],
            [
              14.296628,
              48.2613477
            ],
            [
              14.2963102,
              48.260934
            ],
            [
              14.2960341,
              48.2606068
            ],
            [
              14.2956548,
              48.2602408
            ],
            [
              14.2952962,
              48.2599117
            ],
            [
              14.2948679,
              48.2595805
            ],
            [
              14.2944566,
              48.2592899
            ],
            [
              14.2941584,
              48.2590928
            ],
            [
              14.2938492,
              48.2588943
            ],
            [
              14.2935984,
              48.2587422
            ],
            [
              14.2934286,
              48.258595
            ],
            [
              14.2930996,
              48.2584018
            ],
            [
              14.2924714,
              48.2580708
            ],
            [
              14.2910476,
              48.2572434
            ],
            [
              14.2887541,
              48.2559328
            ],
            [
              14.288287,
              48.2556718
            ],
            [
              14.2880231,
              48.2555329
            ],
            [
              14.2877427,
              48.2553948
            ],
            [
              14.2875286,
              48.2553057
            ],
            [
              14.2873022,
              48.2552116
            ],
            [
              14.2872795,
              48.2552021
            ],
            [
              14.2871475,
              48.2551471
            ],
            [
              14.2867103,
              48.2549737
            ],
            [
              14.2863341,
              48.2548388
            ],
            [
              14.286025,
              48.2547367
            ],
            [
              14.2857051,
              48.2546343
            ],
            [
              14.2851621,
              48.2544752
            ],
            [
              14.2845334,
              48.254303
            ],
            [
              14.2832128,
              48.253943
            ],
            [
              14.2828992,
              48.2538638
            ],
            [
              14.2826239,
              48.2537874
            ],
            [
              14.2821912,
              48.2536673
            ],
            [
              14.2813501,
              48.2534614
            ],
            [
              14.2810298,
              48.2533862
            ],
            [
              14.2808622,
              48.253344
            ],
            [
              14.2798756,
              48.253096
            ],
            [
              14.2787776,
              48.2528112
            ],
            [
              14.2776426,
              48.2525129
            ],
            [
              14.2769553,
              48.2523218
            ],
            [
              14.2765918,
              48.2522056
            ],
            [
              14.2761265,
              48.2520646
            ],
            [
              14.2755016,
              48.251866
            ],
            [
              14.2749021,
              48.2516674
            ],
            [
              14.2742523,
              48.2514486
            ],
            [
              14.2737642,
              48.2512712
            ],
            [
              14.2729395,
              48.2509524
            ],
            [
              14.2722691,
              48.2506852
            ],
            [
              14.2720217,
              48.2505922
            ],
            [
              14.2718205,
              48.2505165
            ],
            [
              14.2716783,
              48.2504631
            ],
            [
              14.2708714,
              48.2501114
            ],
            [
              14.2706987,
              48.2500361
            ],
            [
              14.2702128,
              48.2498357
            ],
            [
              14.2698977,
              48.2497057
            ],
            [
              14.2697032,
              48.2496304
            ],
            [
              14.2695553,
              48.2495731
            ],
            [
              14.2694554,
              48.2495343
            ],
            [
              14.268533,
              48.2491362
            ],
            [
              14.2682944,
              48.2490332
            ],
            [
              14.265678,
              48.2479487
            ],
            [
              14.2651663,
              48.2477426
            ],
            [
              14.2649574,
              48.2476551
            ],
            [
              14.264743,
              48.2475672
            ],
            [
              14.2646483,
              48.2475291
            ],
            [
              14.2639314,
              48.247218
            ],
            [
              14.2636016,
              48.2470749
            ],
            [
              14.2632798,
              48.2469442
            ],
            [
              14.2627092,
              48.2467154
            ],
            [
              14.2620175,
              48.2464146
            ],
            [
              14.2612941,
              48.2460848
            ],
            [
              14.2604712,
              48.2456858
            ],
            [
              14.2603735,
              48.2456379
            ],
            [
              14.2600599,
              48.245484
            ],
            [
              14.2597564,
              48.2453382
            ],
            [
              14.2593439,
              48.2451428
            ],
            [
              14.2581279,
              48.2445569
            ],
            [
              14.2568006,
              48.2439229
            ],
            [
              14.2560531,
              48.2435696
            ],
            [
              14.2556099,
              48.2433602
            ],
            [
              14.2555496,
              48.2433323
            ],
            [
              14.2538749,
              48.2425531
            ],
            [
              14.2517991,
              48.2416253
            ],
            [
              14.2498461,
              48.2407936
            ],
            [
              14.2497187,
              48.2407376
            ],
            [
              14.2495556,
              48.2406691
            ],
            [
              14.2493816,
              48.240596
            ],
            [
              14.2490524,
              48.2404576
            ],
            [
              14.2483579,
              48.2401749
            ],
            [
              14.2480444,
              48.2400473
            ],
            [
              14.2479916,
              48.2399714
            ],
            [
              14.2478653,
              48.2397901
            ],
            [
              14.2475889,
              48.2396728
            ],
            [
              14.2470911,
              48.2394402
            ]
          ],
          [
            [
              14.3049913,
              48.317568
            ],
            [
              14.3051979,
              48.3176228
            ]
          ],
          [
            [
              14.3021788,
              48.3162153
            ],
            [
              14.3023548,
              48.316364
            ]
          ],
          [
            [
              14.2990741,
              48.3098963
            ],
            [
              14.2989855,
              48.3100537
            ]
          ],
          [
            [
              14.3005877,
              48.303296
            ],
            [
              14.3005239,
              48.303289
            ],
            [
              14.3005616,
              48.3031324
            ],
            [
              14.3006253,
              48.3031394
            ]
          ],
          [
            [
              14.3027389,
              48.2995182
            ],
            [
              14.3027258,
              48.2995099
            ],
            [
              14.3028921,
              48.2993573
            ],
            [
              14.3029098,
              48.2993659
            ]
          ],
          [
            [
              14.2938103,
              48.2940478
            ],
            [
              14.2938104,
              48.2940632
            ],
            [
              14.2936045,
              48.2940643
            ],
            [
              14.2934489,
              48.294079
            ],
            [
              14.2934466,
              48.2940671
            ]
          ],
          [
            [
              14.2902328,
              48.2908133
            ],
            [
              14.2902412,
              48.2908624
            ],
            [
              14.2902796,
              48.2908946
            ],
            [
              14.2903734,
              48.2909894
            ],
            [
              14.2905946,
              48.2912475
            ],
            [
              14.2906501,
              48.2912521
            ]
          ],
          [
            [
              14.283312,
              48.2538687
            ],
            [
              14.2833001,
              48.2538903
            ],
            [
              14.2829357,
              48.2538009
            ],
            [
              14.2829509,
              48.2537735
            ]
          ],
          [
            [
              14.2702736,
              48.2497821
            ],
            [
              14.2699128,
              48.2496345
            ]
          ],
          [
            [
              14.2605527,
              48.2456488
            ],
            [
              14.2604396,
              48.2455901
            ],
            [
              14.2601734,
              48.2454637
            ],
            [
              14.2601186,
              48.2454244
            ]
          ],
          [
            [
              14.2562124,
              48.2435658
            ],
            [
              14.2558591,
              48.2433936
            ]
          ],
          [
            [
              14.2471447,
              48.2393947
            ],
            [
              14.2468214,
              48.2392481
            ]
          ]
        ]
      },
      "id": "relation/13418244"
    }
  ]
}