{
  "type": "FeatureCollection",
  "features": [
    {
      "type": "Feature",
      "properties": {
        "@id": "relation/61645",
        "alternate": "no",
        "colour": "#51bc4a",
        "from": "Südpark Linz",
        "name": "Bus 105: Südpark Linz => Siriusweg",
        "network": "Oberösterreichischer Verkehrsverbund",
        "network:short": "OÖVV",
        "network:wikidata": "Q2011605",
        "network:wikipedia": "de:Oberösterreichischer Verkehrsverbund",
        "operator": "Linz Linien GmbH",
        "public_transport:version": "2",
        "ref": "105",
        "route": "bus",
        "to": "Siriusweg",
        "type": "route"
      },
      "geometry": {
        "type": "MultiLineString",
        "coordinates": [
          [
            [
              14.357306,
              48.254499
            ],
            [
              14.3572748,
              48.2544733
            ],
            [
              14.3572365,
              48.2544528
            ],
            [
              14.3572064,
              48.2544506
            ],
            [
              14.3571772,
              48.254454
            ],
            [
              14.3571599,
              48.2544607
            ],
            [
              14.3571038,
              48.2544824
            ],
            [
              14.3572014,
              48.2545477
            ],
            [
              14.3573136,
              48.2546318
            ],
            [
              14.3574005,
              48.2547112
            ],
            [
              14.3575034,
              48.2548201
            ],
            [
              14.3575491,
              48.2548749
            ],
            [
              14.3576838,
              48.2550404
            ],
            [
              14.3577423,
              48.2550751
            ],
            [
              14.3575302,
              48.2552446
            ],
            [
              14.3572961,
              48.2554316
            ],
            [
              14.3572475,
              48.2554705
            ],
            [
              14.3570575,
              48.2556228
            ],
            [
              14.3569638,
              48.2556981
            ],
            [
              14.3569161,
              48.2557364
            ],
            [
              14.3567774,
              48.2558477
            ],
            [
              14.3567005,
              48.2559094
            ],
            [
              14.3567993,
              48.2559676
            ],
            [
              14.3569032,
              48.2560288
            ],
            [
              14.3569854,
              48.2560773
            ],
            [
              14.3572168,
              48.2562136
            ],
            [
              14.3581662,
              48.2567607
            ],
            [
              14.3582495,
              48.2568087
            ],
            [
              14.358301,
              48.2568384
            ],
            [
              14.3585579,
              48.2569866
            ],
            [
              14.3589484,
              48.2572044
            ],
            [
              14.3591772,
              48.2573379
            ],
            [
              14.3593881,
              48.2574439
            ],
            [
              14.3594975,
              48.2574973
            ],
            [
              14.359583,
              48.2575287
            ],
            [
              14.3596549,
              48.2575406
            ],
            [
              14.3597422,
              48.2575506
            ],
            [
              14.3598362,
              48.2575577
            ],
            [
              14.3601454,
              48.257562
            ],
            [
              14.3601778,
              48.2575625
            ],
            [
              14.3604301,
              48.2575661
            ],
            [
              14.3609256,
              48.2575735
            ],
            [
              14.3612003,
              48.2575769
            ],
            [
              14.3612721,
              48.2575717
            ],
            [
              14.3613494,
              48.2575624
            ],
            [
              14.3613997,
              48.257552
            ],
            [
              14.3614909,
              48.2575248
            ],
            [
              14.3616349,
              48.2574694
            ],
            [
              14.3617651,
              48.2574107
            ],
            [
              14.3618613,
              48.2573673
            ],
            [
              14.3621485,
              48.2572248
            ],
            [
              14.3630456,
              48.2567795
            ],
            [
              14.3631453,
              48.25673
            ],
            [
              14.3633028,
              48.2566519
            ],
            [
              14.3635953,
              48.2565067
            ],
            [
              14.3638817,
              48.2563646
            ],
            [
              14.3642015,
              48.2561997
            ],
            [
              14.36431,
              48.2561422
            ],
            [
              14.3644166,
              48.2560716
            ],
            [
              14.3643813,
              48.2560288
            ],
            [
              14.3643664,
              48.2560121
            ],
            [
              14.3643238,
              48.2559642
            ],
            [
              14.3642791,
              48.2559075
            ],
            [
              14.3642506,
              48.255852
            ],
            [
              14.3642398,
              48.2558138
            ],
            [
              14.3642371,
              48.2556185
            ],
            [
              14.3642409,
              48.2555822
            ],
            [
              14.3642677,
              48.2554703
            ],
            [
              14.3642734,
              48.25542
            ],
            [
              14.3642647,
              48.2553045
            ],
            [
              14.3642589,
              48.2552283
            ],
            [
              14.3642622,
              48.2551843
            ],
            [
              14.364279,
              48.2551398
            ],
            [
              14.3643312,
              48.2550506
            ],
            [
              14.3643961,
              48.2549687
            ],
            [
              14.3644412,
              48.2549267
            ],
            [
              14.3644532,
              48.2549155
            ],
            [
              14.3644905,
              48.2548807
            ],
            [
              14.3645091,
              48.2548668
            ],
            [
              14.3647826,
              48.2546623
            ],
            [
              14.3649226,
              48.254587
            ],
            [
              14.365063,
              48.2545198
            ],
            [
              14.3651078,
              48.2544983
            ],
            [
              14.365147,
              48.2544695
            ],
            [
              14.3651739,
              48.2544194
            ],
            [
              14.3650121,
              48.2543794
            ],
            [
              14.3649941,
              48.254375
            ],
            [
              14.3649426,
              48.2543604
            ],
            [
              14.3647967,
              48.254318
            ],
            [
              14.3647473,
              48.2543028
            ],
            [
              14.3645396,
              48.2542344
            ],
            [
              14.3645694,
              48.2541968
            ],
            [
              14.3646056,
              48.2541513
            ],
            [
              14.3646689,
              48.254082
            ],
            [
              14.3647027,
              48.2540471
            ],
            [
              14.3647225,
              48.2540266
            ],
            [
              14.3647802,
              48.2539526
            ],
            [
              14.3648435,
              48.2538451
            ],
            [
              14.3648825,
              48.2537528
            ],
            [
              14.3649094,
              48.2536625
            ],
            [
              14.3649218,
              48.2535776
            ],
            [
              14.3649207,
              48.2535314
            ],
            [
              14.3649197,
              48.2534907
            ],
            [
              14.3649172,
              48.2533848
            ],
            [
              14.3649164,
              48.2533495
            ],
            [
              14.3649183,
              48.2533063
            ],
            [
              14.3649212,
              48.2532428
            ],
            [
              14.3649275,
              48.2531719
            ],
            [
              14.3649524,
              48.2530694
            ],
            [
              14.3649733,
              48.2529913
            ],
            [
              14.364996,
              48.2529063
            ],
            [
              14.3650562,
              48.2527047
            ],
            [
              14.3651723,
              48.2523161
            ],
            [
              14.3651933,
              48.2522459
            ],
            [
              14.3652201,
              48.2521561
            ],
            [
              14.3652429,
              48.2520861
            ],
            [
              14.3653069,
              48.2518894
            ],
            [
              14.3653326,
              48.2518106
            ],
            [
              14.3653623,
              48.2517192
            ],
            [
              14.3653787,
              48.2516989
            ],
            [
              14.3653923,
              48.2516939
            ],
            [
              14.3654157,
              48.2516854
            ],
            [
              14.3654683,
              48.2516718
            ],
            [
              14.3655728,
              48.2516543
            ],
            [
              14.3656472,
              48.2516418
            ],
            [
              14.3657558,
              48.2516236
            ],
            [
              14.3657851,
              48.2516187
            ],
            [
              14.3661092,
              48.251565
            ],
            [
              14.3661523,
              48.2515553
            ],
            [
              14.3662335,
              48.251533
            ],
            [
              14.3663053,
              48.2515137
            ],
            [
              14.3663681,
              48.2514999
            ],
            [
              14.3671532,
              48.2513771
            ],
            [
              14.3675426,
              48.251312
            ],
            [
              14.3676678,
              48.2512911
            ],
            [
              14.3677153,
              48.2512832
            ],
            [
              14.3681948,
              48.2512031
            ],
            [
              14.3682538,
              48.2511933
            ],
            [
              14.368305,
              48.2511848
            ],
            [
              14.3684504,
              48.2511605
            ],
            [
              14.3685127,
              48.2511501
            ],
            [
              14.3686274,
              48.2511309
            ],
            [
              14.3686948,
              48.2511197
            ],
            [
              14.3689355,
              48.2510795
            ],
            [
              14.3690097,
              48.2510671
            ],
            [
              14.3696455,
              48.250961
            ],
            [
              14.369658,
              48.2509589
            ],
            [
              14.3696866,
              48.2509541
            ],
            [
              14.3700252,
              48.2508975
            ],
            [
              14.37023,
              48.2508632
            ],
            [
              14.3704461,
              48.2508269
            ],
            [
              14.3704738,
              48.2508223
            ],
            [
              14.370537,
              48.2508117
            ],
            [
              14.3708905,
              48.2507523
            ],
            [
              14.371686,
              48.2506187
            ],
            [
              14.3717356,
              48.2506104
            ],
            [
              14.3717109,
              48.2505448
            ],
            [
              14.3716727,
              48.2504296
            ],
            [
              14.3716616,
              48.2503966
            ],
            [
              14.3715615,
              48.2501003
            ],
            [
              14.3715545,
              48.2500792
            ],
            [
              14.3715405,
              48.250037
            ],
            [
              14.3715256,
              48.2499848
            ],
            [
              14.3715167,
              48.2499534
            ],
            [
              14.3714507,
              48.2497312
            ],
            [
              14.371387,
              48.2495167
            ],
            [
              14.3713843,
              48.2495077
            ],
            [
              14.3713711,
              48.2494632
            ],
            [
              14.3713555,
              48.2494104
            ],
            [
              14.3713509,
              48.249395
            ],
            [
              14.3712778,
              48.2491488
            ],
            [
              14.3712168,
              48.2489431
            ],
            [
              14.3712061,
              48.2489071
            ],
            [
              14.3711967,
              48.2488754
            ],
            [
              14.3711861,
              48.2488398
            ],
            [
              14.3711789,
              48.2488155
            ],
            [
              14.3711409,
              48.2486876
            ],
            [
              14.37113,
              48.2486509
            ],
            [
              14.3710749,
              48.2484654
            ],
            [
              14.371061,
              48.2484186
            ],
            [
              14.371043,
              48.2483577
            ],
            [
              14.3710228,
              48.2482899
            ],
            [
              14.3709699,
              48.2481115
            ],
            [
              14.3709279,
              48.2480129
            ],
            [
              14.3709405,
              48.2479855
            ],
            [
              14.370941,
              48.2479792
            ],
            [
              14.3709426,
              48.2479599
            ],
            [
              14.3709369,
              48.2479244
            ],
            [
              14.3708825,
              48.2477407
            ],
            [
              14.3708752,
              48.2477161
            ],
            [
              14.3708613,
              48.247669
            ],
            [
              14.370807,
              48.247486
            ],
            [
              14.370791,
              48.2474255
            ],
            [
              14.3707869,
              48.2473701
            ],
            [
              14.3707893,
              48.2473529
            ],
            [
              14.3707953,
              48.2473101
            ],
            [
              14.3708095,
              48.2472374
            ],
            [
              14.3708128,
              48.2471733
            ],
            [
              14.370804,
              48.2471092
            ],
            [
              14.3707844,
              48.2470545
            ],
            [
              14.3707602,
              48.2470069
            ],
            [
              14.370715,
              48.2469488
            ],
            [
              14.3706672,
              48.2468949
            ],
            [
              14.3706281,
              48.2468393
            ],
            [
              14.3706002,
              48.2467777
            ],
            [
              14.3705636,
              48.246701
            ],
            [
              14.3705376,
              48.2466468
            ],
            [
              14.3705184,
              48.2466067
            ],
            [
              14.3705068,
              48.2465824
            ],
            [
              14.3704539,
              48.246441
            ],
            [
              14.3703744,
              48.2462271
            ],
            [
              14.3701394,
              48.2455558
            ],
            [
              14.370033,
              48.245252
            ],
            [
              14.3699569,
              48.2450601
            ],
            [
              14.3698805,
              48.2449213
            ],
            [
              14.3697781,
              48.2447651
            ],
            [
              14.3697203,
              48.2446921
            ],
            [
              14.3696845,
              48.2446557
            ],
            [
              14.3695863,
              48.2445554
            ],
            [
              14.3694806,
              48.2444565
            ],
            [
              14.3693705,
              48.2443711
            ],
            [
              14.369353,
              48.2443575
            ],
            [
              14.3692182,
              48.2442593
            ],
            [
              14.369122,
              48.2441968
            ],
            [
              14.3690749,
              48.2441668
            ],
            [
              14.368936,
              48.244085
            ],
            [
              14.3687771,
              48.2440058
            ],
            [
              14.368538,
              48.2439055
            ],
            [
              14.3685091,
              48.2438943
            ],
            [
              14.3679479,
              48.2436756
            ],
            [
              14.367899,
              48.2436576
            ],
            [
              14.3677958,
              48.2436197
            ],
            [
              14.3677613,
              48.243607
            ],
            [
              14.3676887,
              48.2435845
            ],
            [
              14.3675865,
              48.2435529
            ],
            [
              14.3674322,
              48.2435195
            ],
            [
              14.3672961,
              48.2434901
            ],
            [
              14.3672204,
              48.2434739
            ],
            [
              14.367092,
              48.2434465
            ],
            [
              14.3671432,
              48.2434273
            ],
            [
              14.3671973,
              48.2433963
            ],
            [
              14.3672968,
              48.2433317
            ],
            [
              14.3673897,
              48.2432713
            ],
            [
              14.3679121,
              48.2429619
            ],
            [
              14.367957,
              48.2429354
            ],
            [
              14.3681556,
              48.2428177
            ],
            [
              14.3682214,
              48.2427788
            ],
            [
              14.3684707,
              48.2426353
            ],
            [
              14.3685361,
              48.2425977
            ],
            [
              14.3691184,
              48.2422848
            ],
            [
              14.3693299,
              48.2421711
            ],
            [
              14.3693932,
              48.2421259
            ],
            [
              14.3695044,
              48.242039
            ],
            [
              14.3697462,
              48.2418557
            ],
            [
              14.3698133,
              48.2418111
            ],
            [
              14.3699273,
              48.2417394
            ],
            [
              14.369958,
              48.2417201
            ],
            [
              14.3700098,
              48.2417337
            ],
            [
              14.3702173,
              48.2417457
            ],
            [
              14.3702802,
              48.2417369
            ],
            [
              14.3703523,
              48.2417149
            ],
            [
              14.3703339,
              48.2416705
            ],
            [
              14.3703032,
              48.2416207
            ],
            [
              14.3702671,
              48.2415732
            ],
            [
              14.3703425,
              48.2415434
            ],
            [
              14.3703588,
              48.2415353
            ],
            [
              14.3704283,
              48.2415008
            ],
            [
              14.370494,
              48.241484
            ],
            [
              14.3705559,
              48.2414789
            ],
            [
              14.3706072,
              48.2414872
            ],
            [
              14.3706676,
              48.2415056
            ],
            [
              14.3709533,
              48.2416224
            ],
            [
              14.3711025,
              48.2416705
            ],
            [
              14.3711231,
              48.2416752
            ],
            [
              14.3712512,
              48.2417044
            ],
            [
              14.3712767,
              48.2417102
            ],
            [
              14.3714177,
              48.2417294
            ],
            [
              14.3714646,
              48.2417343
            ],
            [
              14.372223,
              48.2418136
            ],
            [
              14.3724697,
              48.2418394
            ],
            [
              14.372692,
              48.2418626
            ],
            [
              14.3728274,
              48.2418768
            ],
            [
              14.3730654,
              48.241893
            ],
            [
              14.3732243,
              48.2418951
            ],
            [
              14.3733582,
              48.2418909
            ],
            [
              14.373441,
              48.2418789
            ],
            [
              14.3734982,
              48.2418602
            ],
            [
              14.3735458,
              48.2418343
            ],
            [
              14.3735737,
              48.241808
            ],
            [
              14.3735955,
              48.2417629
            ],
            [
              14.3736068,
              48.2417178
            ],
            [
              14.3736308,
              48.2415903
            ],
            [
              14.3736472,
              48.241505
            ],
            [
              14.3736564,
              48.2414746
            ],
            [
              14.373679,
              48.241416
            ],
            [
              14.3737176,
              48.241357
            ],
            [
              14.37376,
              48.2413212
            ],
            [
              14.3738185,
              48.2412956
            ],
            [
              14.3738651,
              48.2412909
            ],
            [
              14.3739632,
              48.2412981
            ],
            [
              14.3740213,
              48.2413058
            ],
            [
              14.3745121,
              48.2413711
            ],
            [
              14.3746861,
              48.2413792
            ],
            [
              14.3748465,
              48.2413729
            ],
            [
              14.3749763,
              48.2413412
            ],
            [
              14.3750956,
              48.2412899
            ],
            [
              14.3751984,
              48.2412301
            ],
            [
              14.3754438,
              48.2410707
            ],
            [
              14.3755483,
              48.2411345
            ],
            [
              14.3756977,
              48.2411969
            ],
            [
              14.3758849,
              48.2412561
            ],
            [
              14.3761089,
              48.2412992
            ],
            [
              14.3780143,
              48.2415368
            ],
            [
              14.378199,
              48.2415611
            ],
            [
              14.3783566,
              48.2415869
            ],
            [
              14.3784727,
              48.2416157
            ],
            [
              14.3786006,
              48.2416604
            ],
            [
              14.3786857,
              48.2416933
            ],
            [
              14.3787785,
              48.2417413
            ],
            [
              14.378923,
              48.2418279
            ],
            [
              14.3796012,
              48.2424046
            ],
            [
              14.3797996,
              48.242603
            ],
            [
              14.3800382,
              48.2428548
            ],
            [
              14.3802354,
              48.2430756
            ],
            [
              14.3804178,
              48.2432929
            ],
            [
              14.380577,
              48.2434867
            ],
            [
              14.3807455,
              48.2437094
            ],
            [
              14.3809378,
              48.2439877
            ],
            [
              14.3811702,
              48.2443561
            ],
            [
              14.3812667,
              48.2445329
            ],
            [
              14.3813072,
              48.2446157
            ],
            [
              14.3813349,
              48.2446939
            ],
            [
              14.381357,
              48.2447838
            ],
            [
              14.3813676,
              48.2449002
            ],
            [
              14.3813685,
              48.2450209
            ],
            [
              14.3813623,
              48.2450884
            ],
            [
              14.3813584,
              48.2451316
            ],
            [
              14.3813429,
              48.2452006
            ],
            [
              14.3813256,
              48.2452625
            ],
            [
              14.3812893,
              48.2453553
            ],
            [
              14.3812461,
              48.2454346
            ],
            [
              14.3811983,
              48.2455089
            ],
            [
              14.3809583,
              48.2458314
            ],
            [
              14.3808934,
              48.245938
            ],
            [
              14.3808479,
              48.2460282
            ],
            [
              14.3808048,
              48.2461305
            ],
            [
              14.3807801,
              48.246228
            ],
            [
              14.3807673,
              48.2463197
            ],
            [
              14.3807672,
              48.2464093
            ],
            [
              14.3807743,
              48.2465203
            ],
            [
              14.3807893,
              48.2466311
            ],
            [
              14.3808071,
              48.2467031
            ],
            [
              14.3808379,
              48.2467872
            ],
            [
              14.3808951,
              48.2468933
            ],
            [
              14.3809522,
              48.2469755
            ],
            [
              14.3809628,
              48.2469907
            ],
            [
              14.3810274,
              48.2470815
            ],
            [
              14.3825596,
              48.2488369
            ],
            [
              14.3825037,
              48.2488675
            ],
            [
              14.3824758,
              48.2489004
            ],
            [
              14.3824652,
              48.2489405
            ],
            [
              14.3824728,
              48.2489744
            ],
            [
              14.382493,
              48.2490034
            ],
            [
              14.3825159,
              48.2490224
            ],
            [
              14.3825572,
              48.249043
            ],
            [
              14.3826176,
              48.2490559
            ],
            [
              14.3826762,
              48.2490544
            ],
            [
              14.3827301,
              48.2490403
            ],
            [
              14.3827787,
              48.2490957
            ],
            [
              14.3829037,
              48.2492385
            ],
            [
              14.3830093,
              48.249359
            ],
            [
              14.3831367,
              48.2495045
            ],
            [
              14.3834584,
              48.2498718
            ],
            [
              14.3833961,
              48.2498966
            ],
            [
              14.3830346,
              48.2500408
            ],
            [
              14.3822758,
              48.2503433
            ],
            [
              14.3813219,
              48.2507236
            ],
            [
              14.3812394,
              48.2507565
            ],
            [
              14.3811647,
              48.2506746
            ]
          ],
          [
            [
              14.3573575,
              48.2544506
            ],
            [
              14.3573418,
              48.2544689
            ],
            [
              14.3573311,
              48.2544577
            ],
            [
              14.3573096,
              48.2544452
            ],
            [
              14.3572815,
              48.2544336
            ],
            [
              14.3572526,
              48.2544249
            ],
            [
              14.3572111,
              48.2544149
            ],
            [
              14.3571769,
              48.2544117
            ],
            [
              14.3571635,
              48.2544126
            ],
            [
              14.3571259,
              48.2544265
            ],
            [
              14.357139,
              48.2543922
            ]
          ],
          [
            [
              14.3572512,
              48.2563026
            ],
            [
              14.3567476,
              48.256007
            ]
          ],
          [
            [
              14.3607973,
              48.2576351
            ],
            [
              14.3601399,
              48.2576198
            ]
          ],
          [
            [
              14.3717119,
              48.2503732
            ],
            [
              14.3716884,
              48.2503761
            ],
            [
              14.3717036,
              48.2504315
            ],
            [
              14.3717267,
              48.2504276
            ]
          ],
          [
            [
              14.3710119,
              48.247955
            ],
            [
              14.3709422,
              48.2477372
            ]
          ],
          [
            [
              14.3678288,
              48.2435637
            ],
            [
              14.3678079,
              48.2435896
            ],
            [
              14.3677578,
              48.2435717
            ],
            [
              14.367708,
              48.2435539
            ],
            [
              14.36768,
              48.2435439
            ],
            [
              14.3675848,
              48.2435098
            ],
            [
              14.3676107,
              48.2434777
            ]
          ],
          [
            [
              14.3696167,
              48.2420129
            ],
            [
              14.36948,
              48.2421247
            ]
          ],
          [
            [
              14.3794808,
              48.2423851
            ],
            [
              14.3795552,
              48.2424431
            ],
            [
              14.3796109,
              48.2425083
            ]
          ],
          [
            [
              14.3807473,
              48.2467026
            ],
            [
              14.380775,
              48.2467772
            ],
            [
              14.3807494,
              48.2468058
            ]
          ],
          [
            [
              14.3812499,
              48.2506444
            ],
            [
              14.3811882,
              48.2505766
            ]
          ]
        ]
      },
      "id": "relation/61645"
    },
    {
      "type": "Feature",
      "properties": {
        "@id": "relation/1147281",
        "alternate": "no",
        "colour": "#51bc4a",
        "from": "Siriusweg",
        "name": "Bus 105: Siriusweg => Südpark Linz",
        "network": "Oberösterreichischer Verkehrsverbund",
        "network:short": "OÖVV",
        "network:wikidata": "Q2011605",
        "network:wikipedia": "de:Oberösterreichischer Verkehrsverbund",
        "operator": "Linz Linien GmbH",
        "public_transport:version": "2",
        "ref": "105",
        "route": "bus",
        "to": "Südpark Linz",
        "type": "route"
      },
      "geometry": {
        "type": "MultiLineString",
        "coordinates": [
          [
            [
              14.357306,
              48.254499
            ],
            [
              14.3575141,
              48.2546872
            ],
            [
              14.3576545,
              48.2548386
            ],
            [
              14.3575491,
              48.2548749
            ],
            [
              14.3576838,
              48.2550404
            ],
            [
              14.3577423,
              48.2550751
            ],
            [
              14.3575302,
              48.2552446
            ],
            [
              14.3572961,
              48.2554316
            ],
            [
              14.3572475,
              48.2554705
            ],
            [
              14.3570575,
              48.2556228
            ],
            [
              14.3569638,
              48.2556981
            ],
            [
              14.3569161,
              48.2557364
            ],
            [
              14.3567774,
              48.2558477
            ],
            [
              14.3567005,
              48.2559094
            ],
            [
              14.3567993,
              48.2559676
            ],
            [
              14.3569032,
              48.2560288
            ],
            [
              14.3569854,
              48.2560773
            ],
            [
              14.3572168,
              48.2562136
            ],
            [
              14.3581662,
              48.2567607
            ],
            [
              14.3582495,
              48.2568087
            ],
            [
              14.358301,
              48.2568384
            ],
            [
              14.3585579,
              48.2569866
            ],
            [
              14.3589484,
              48.2572044
            ],
            [
              14.3591772,
              48.2573379
            ],
            [
              14.3593881,
              48.2574439
            ],
            [
              14.3594975,
              48.2574973
            ],
            [
              14.359583,
              48.2575287
            ],
            [
              14.3596549,
              48.2575406
            ],
            [
              14.3597422,
              48.2575506
            ],
            [
              14.3598362,
              48.2575577
            ],
            [
              14.3601454,
              48.257562
            ],
            [
              14.3601778,
              48.2575625
            ],
            [
              14.3604301,
              48.2575661
            ],
            [
              14.3609256,
              48.2575735
            ],
            [
              14.3612003,
              48.2575769
            ],
            [
              14.3612721,
              48.2575717
            ],
            [
              14.3613494,
              48.2575624
            ],
            [
              14.3613997,
              48.257552
            ],
            [
              14.3614909,
              48.2575248
            ],
            [
              14.3616349,
              48.2574694
            ],
            [
              14.3617651,
              48.2574107
            ],
            [
              14.3618613,
              48.2573673
            ],
            [
              14.3621485,
              48.2572248
            ],
            [
              14.3630456,
              48.2567795
            ],
            [
              14.3631453,
              48.25673
            ],
            [
              14.3633028,
              48.2566519
            ],
            [
              14.3635953,
              48.2565067
            ],
            [
              14.3638817,
              48.2563646
            ],
            [
              14.3642015,
              48.2561997
            ],
            [
              14.36431,
              48.2561422
            ],
            [
              14.3644166,
              48.2560716
            ],
            [
              14.3643813,
              48.2560288
            ],
            [
              14.3643664,
              48.2560121
            ],
            [
              14.3643238,
              48.2559642
            ],
            [
              14.3642791,
              48.2559075
            ],
            [
              14.3642506,
              48.255852
            ],
            [
              14.3642398,
              48.2558138
            ],
            [
              14.3642371,
              48.2556185
            ],
            [
              14.3642409,
              48.2555822
            ],
            [
              14.3642677,
              48.2554703
            ],
            [
              14.3642734,
              48.25542
            ],
            [
              14.3642647,
              48.2553045
            ],
            [
              14.3642589,
              48.2552283
            ],
            [
              14.3642622,
              48.2551843
            ],
            [
              14.364279,
              48.2551398
            ],
            [
              14.3643312,
              48.2550506
            ],
            [
              14.3643961,
              48.2549687
            ],
            [
              14.3644412,
              48.2549267
            ],
            [
              14.3644532,
              48.2549155
            ],
            [
              14.3644905,
              48.2548807
            ],
            [
              14.3645091,
              48.2548668
            ],
            [
              14.3647826,
              48.2546623
            ],
            [
              14.3649226,
              48.254587
            ],
            [
              14.365063,
              48.2545198
            ],
            [
              14.3651078,
              48.2544983
            ],
            [
              14.365147,
              48.2544695
            ],
            [
              14.3651739,
              48.2544194
            ],
            [
              14.3650121,
              48.2543794
            ],
            [
              14.3649941,
              48.254375
            ],
            [
              14.3649426,
              48.2543604
            ],
            [
              14.3647967,
              48.254318
            ],
            [
              14.3647473,
              48.2543028
            ],
            [
              14.3645396,
              48.2542344
            ],
            [
              14.3645694,
              48.2541968
            ],
            [
              14.3646056,
              48.2541513
            ],
            [
              14.3646689,
              48.254082
            ],
            [
              14.3647027,
              48.2540471
            ],
            [
              14.3647225,
              48.2540266
            ],
            [
              14.3647802,
              48.2539526
            ],
            [
              14.3648435,
              48.2538451
            ],
            [
              14.3648825,
              48.2537528
            ],
            [
              14.3649094,
              48.2536625
            ],
            [
              14.3649218,
              48.2535776
            ],
            [
              14.3649207,
              48.2535314
            ],
            [
              14.3649197,
              48.2534907
            ],
            [
              14.3649172,
              48.2533848
            ],
            [
              14.3649164,
              48.2533495
            ],
            [
              14.3649183,
              48.2533063
            ],
            [
              14.3649212,
              48.2532428
            ],
            [
              14.3649275,
              48.2531719
            ],
            [
              14.3649524,
              48.2530694
            ],
            [
              14.3649733,
              48.2529913
            ],
            [
              14.364996,
              48.2529063
            ],
            [
              14.3650562,
              48.2527047
            ],
            [
              14.3651723,
              48.2523161
            ],
            [
              14.3651933,
              48.2522459
            ],
            [
              14.3652201,
              48.2521561
            ],
            [
              14.3652429,
              48.2520861
            ],
            [
              14.3653069,
              48.2518894
            ],
            [
              14.3653326,
              48.2518106
            ],
            [
              14.3653623,
              48.2517192
            ],
            [
              14.3653787,
              48.2516989
            ],
            [
              14.3653923,
              48.2516939
            ],
            [
              14.3654157,
              48.2516854
            ],
            [
              14.3654683,
              48.2516718
            ],
            [
              14.3655728,
              48.2516543
            ],
            [
              14.3656472,
              48.2516418
            ],
            [
              14.3657558,
              48.2516236
            ],
            [
              14.3657851,
              48.2516187
            ],
            [
              14.3661092,
              48.251565
            ],
            [
              14.3661523,
              48.2515553
            ],
            [
              14.3662335,
              48.251533
            ],
            [
              14.3663053,
              48.2515137
            ],
            [
              14.3663681,
              48.2514999
            ],
            [
              14.3671532,
              48.2513771
            ],
            [
              14.3675426,
              48.251312
            ],
            [
              14.3676678,
              48.2512911
            ],
            [
              14.3677153,
              48.2512832
            ],
            [
              14.3681948,
              48.2512031
            ],
            [
              14.3682538,
              48.2511933
            ],
            [
              14.368305,
              48.2511848
            ],
            [
              14.3684504,
              48.2511605
            ],
            [
              14.3685127,
              48.2511501
            ],
            [
              14.3686274,
              48.2511309
            ],
            [
              14.3686948,
              48.2511197
            ],
            [
              14.3689355,
              48.2510795
            ],
            [
              14.3690097,
              48.2510671
            ],
            [
              14.3696455,
              48.250961
            ],
            [
              14.369658,
              48.2509589
            ],
            [
              14.3696866,
              48.2509541
            ],
            [
              14.3700252,
              48.2508975
            ],
            [
              14.37023,
              48.2508632
            ],
            [
              14.3704461,
              48.2508269
            ],
            [
              14.3704738,
              48.2508223
            ],
            [
              14.370537,
              48.2508117
            ],
            [
              14.3708905,
              48.2507523
            ],
            [
              14.371686,
              48.2506187
            ],
            [
              14.3717356,
              48.2506104
            ],
            [
              14.3717109,
              48.2505448
            ],
            [
              14.3716727,
              48.2504296
            ],
            [
              14.3716616,
              48.2503966
            ],
            [
              14.3715615,
              48.2501003
            ],
            [
              14.3715545,
              48.2500792
            ],
            [
              14.3715405,
              48.250037
            ],
            [
              14.3715256,
              48.2499848
            ],
            [
              14.3715167,
              48.2499534
            ],
            [
              14.3714507,
              48.2497312
            ],
            [
              14.371387,
              48.2495167
            ],
            [
              14.3713843,
              48.2495077
            ],
            [
              14.3713711,
              48.2494632
            ],
            [
              14.3713555,
              48.2494104
            ],
            [
              14.3713509,
              48.249395
            ],
            [
              14.3712778,
              48.2491488
            ],
            [
              14.3712168,
              48.2489431
            ],
            [
              14.3712061,
              48.2489071
            ],
            [
              14.3711967,
              48.2488754
            ],
            [
              14.3711861,
              48.2488398
            ],
            [
              14.3711789,
              48.2488155
            ],
            [
              14.3711409,
              48.2486876
            ],
            [
              14.37113,
              48.2486509
            ],
            [
              14.3710749,
              48.2484654
            ],
            [
              14.371061,
              48.2484186
            ],
            [
              14.371043,
              48.2483577
            ],
            [
              14.3710228,
              48.2482899
            ],
            [
              14.3709699,
              48.2481115
            ],
            [
              14.3709279,
              48.2480129
            ],
            [
              14.3709405,
              48.2479855
            ],
            [
              14.370941,
              48.2479792
            ],
            [
              14.3709426,
              48.2479599
            ],
            [
              14.3709369,
              48.2479244
            ],
            [
              14.3708825,
              48.2477407
            ],
            [
              14.3708752,
              48.2477161
            ],
            [
              14.3708613,
              48.247669
            ],
            [
              14.370807,
              48.247486
            ],
            [
              14.370791,
              48.2474255
            ],
            [
              14.3707869,
              48.2473701
            ],
            [
              14.3707893,
              48.2473529
            ],
            [
              14.3707953,
              48.2473101
            ],
            [
              14.3708095,
              48.2472374
            ],
            [
              14.3708128,
              48.2471733
            ],
            [
              14.370804,
              48.2471092
            ],
            [
              14.3707844,
              48.2470545
            ],
            [
              14.3707602,
              48.2470069
            ],
            [
              14.370715,
              48.2469488
            ],
            [
              14.3706672,
              48.2468949
            ],
            [
              14.3706281,
              48.2468393
            ],
            [
              14.3706002,
              48.2467777
            ],
            [
              14.3705636,
              48.246701
            ],
            [
              14.3705376,
              48.2466468
            ],
            [
              14.3705184,
              48.2466067
            ],
            [
              14.3705068,
              48.2465824
            ],
            [
              14.3704539,
              48.246441
            ],
            [
              14.3703744,
              48.2462271
            ],
            [
              14.3701394,
              48.2455558
            ],
            [
              14.370033,
              48.245252
            ],
            [
              14.3699569,
              48.2450601
            ],
            [
              14.3698805,
              48.2449213
            ],
            [
              14.3697781,
              48.2447651
            ],
            [
              14.3697203,
              48.2446921
            ],
            [
              14.3696845,
              48.2446557
            ],
            [
              14.3695863,
              48.2445554
            ],
            [
              14.3694806,
              48.2444565
            ],
            [
              14.3693705,
              48.2443711
            ],
            [
              14.369353,
              48.2443575
            ],
            [
              14.3692182,
              48.2442593
            ],
            [
              14.369122,
              48.2441968
            ],
            [
              14.3690749,
              48.2441668
            ],
            [
              14.368936,
              48.244085
            ],
            [
              14.3687771,
              48.2440058
            ],
            [
              14.368538,
              48.2439055
            ],
            [
              14.3685091,
              48.2438943
            ],
            [
              14.3679479,
              48.2436756
            ],
            [
              14.367899,
              48.2436576
            ],
            [
              14.3677958,
              48.2436197
            ],
            [
              14.3677613,
              48.243607
            ],
            [
              14.3676887,
              48.2435845
            ],
            [
              14.3675865,
              48.2435529
            ],
            [
              14.3674322,
              48.2435195
            ],
            [
              14.3672961,
              48.2434901
            ],
            [
              14.3672204,
              48.2434739
            ],
            [
              14.367092,
              48.2434465
            ],
            [
              14.3671432,
              48.2434273
            ],
            [
              14.3671973,
              48.2433963
            ],
            [
              14.3672968,
              48.2433317
            ],
            [
              14.3673897,
              48.2432713
            ],
            [
              14.3679121,
              48.2429619
            ],
            [
              14.367957,
              48.2429354
            ],
            [
              14.3681556,
              48.2428177
            ],
            [
              14.3682214,
              48.2427788
            ],
            [
              14.3684707,
              48.2426353
            ],
            [
              14.3685361,
              48.2425977
            ],
            [
              14.3691184,
              48.2422848
            ],
            [
              14.3693299,
              48.2421711
            ],
            [
              14.3693932,
              48.2421259
            ],
            [
              14.3695044,
              48.242039
            ],
            [
              14.3697462,
              48.2418557
            ],
            [
              14.3698133,
              48.2418111
            ],
            [
              14.3699273,
              48.2417394
            ],
            [
              14.369958,
              48.2417201
            ],
            [
              14.3700616,
              48.2416613
            ],
            [
              14.3700775,
              48.2416523
            ],
            [
              14.3701709,
              48.2416086
            ],
            [
              14.3702671,
              48.2415732
            ],
            [
              14.3703425,
              48.2415434
            ],
            [
              14.3703588,
              48.2415353
            ],
            [
              14.3704283,
              48.2415008
            ],
            [
              14.370494,
              48.241484
            ],
            [
              14.3705559,
              48.2414789
            ],
            [
              14.3706072,
              48.2414872
            ],
            [
              14.3706676,
              48.2415056
            ],
            [
              14.3709533,
              48.2416224
            ],
            [
              14.3711025,
              48.2416705
            ],
            [
              14.3711231,
              48.2416752
            ],
            [
              14.3712512,
              48.2417044
            ],
            [
              14.3712767,
              48.2417102
            ],
            [
              14.3714177,
              48.2417294
            ],
            [
              14.3714646,
              48.2417343
            ],
            [
              14.372223,
              48.2418136
            ],
            [
              14.3724697,
              48.2418394
            ],
            [
              14.372692,
              48.2418626
            ],
            [
              14.3728274,
              48.2418768
            ],
            [
              14.3730654,
              48.241893
            ],
            [
              14.3732243,
              48.2418951
            ],
            [
              14.3733582,
              48.2418909
            ],
            [
              14.373441,
              48.2418789
            ],
            [
              14.3734982,
              48.2418602
            ],
            [
              14.3735458,
              48.2418343
            ],
            [
              14.3735737,
              48.241808
            ],
            [
              14.3735955,
              48.2417629
            ],
            [
              14.3736068,
              48.2417178
            ],
            [
              14.3736308,
              48.2415903
            ],
            [
              14.3736472,
              48.241505
            ],
            [
              14.3736564,
              48.2414746
            ],
            [
              14.373679,
              48.241416
            ],
            [
              14.3737176,
              48.241357
            ],
            [
              14.37376,
              48.2413212
            ],
            [
              14.3738185,
              48.2412956
            ],
            [
              14.3738651,
              48.2412909
            ],
            [
              14.3739632,
              48.2412981
            ],
            [
              14.3740213,
              48.2413058
            ],
            [
              14.3745121,
              48.2413711
            ],
            [
              14.3746861,
              48.2413792
            ],
            [
              14.3748465,
              48.2413729
            ],
            [
              14.3749763,
              48.2413412
            ],
            [
              14.3750956,
              48.2412899
            ],
            [
              14.3751984,
              48.2412301
            ],
            [
              14.3754438,
              48.2410707
            ],
            [
              14.3755483,
              48.2411345
            ],
            [
              14.3756977,
              48.2411969
            ],
            [
              14.3758849,
              48.2412561
            ],
            [
              14.3761089,
              48.2412992
            ],
            [
              14.3780143,
              48.2415368
            ],
            [
              14.378199,
              48.2415611
            ],
            [
              14.3783566,
              48.2415869
            ],
            [
              14.3784727,
              48.2416157
            ],
            [
              14.3786006,
              48.2416604
            ],
            [
              14.3786857,
              48.2416933
            ],
            [
              14.3787785,
              48.2417413
            ],
            [
              14.378923,
              48.2418279
            ],
            [
              14.3796012,
              48.2424046
            ],
            [
              14.3797996,
              48.242603
            ],
            [
              14.3800382,
              48.2428548
            ],
            [
              14.3802354,
              48.2430756
            ],
            [
              14.3804178,
              48.2432929
            ],
            [
              14.380577,
              48.2434867
            ],
            [
              14.3807455,
              48.2437094
            ],
            [
              14.3809378,
              48.2439877
            ],
            [
              14.3811702,
              48.2443561
            ],
            [
              14.3812667,
              48.2445329
            ],
            [
              14.3813072,
              48.2446157
            ],
            [
              14.3813349,
              48.2446939
            ],
            [
              14.381357,
              48.2447838
            ],
            [
              14.3813676,
              48.2449002
            ],
            [
              14.3813685,
              48.2450209
            ],
            [
              14.3813623,
              48.2450884
            ],
            [
              14.3813584,
              48.2451316
            ],
            [
              14.3813429,
              48.2452006
            ],
            [
              14.3813256,
              48.2452625
            ],
            [
              14.3812893,
              48.2453553
            ],
            [
              14.3812461,
              48.2454346
            ],
            [
              14.3811983,
              48.2455089
            ],
            [
              14.3809583,
              48.2458314
            ],
            [
              14.3808934,
              48.245938
            ],
            [
              14.3808479,
              48.2460282
            ],
            [
              14.3808048,
              48.2461305
            ],
            [
              14.3807801,
              48.246228
            ],
            [
              14.3807673,
              48.2463197
            ],
            [
              14.3807672,
              48.2464093
            ],
            [
              14.3807743,
              48.2465203
            ],
            [
              14.3807893,
              48.2466311
            ],
            [
              14.3808071,
              48.2467031
            ],
            [
              14.3808379,
              48.2467872
            ],
            [
              14.3808951,
              48.2468933
            ],
            [
              14.3809522,
              48.2469755
            ],
            [
              14.3809628,
              48.2469907
            ],
            [
              14.3810274,
              48.2470815
            ],
            [
              14.3825596,
              48.2488369
            ],
            [
              14.3826164,
              48.2488249
            ],
            [
              14.3826708,
              48.2488256
            ],
            [
              14.3827176,
              48.2488359
            ],
            [
              14.3827609,
              48.248856
            ],
            [
              14.3827878,
              48.2488777
            ],
            [
              14.3828064,
              48.2489039
            ],
            [
              14.3828149,
              48.248934
            ],
            [
              14.3828097,
              48.2489694
            ],
            [
              14.3827926,
              48.2489976
            ],
            [
              14.3827673,
              48.2490204
            ],
            [
              14.3827301,
              48.2490403
            ],
            [
              14.3826762,
              48.2490544
            ],
            [
              14.3826176,
              48.2490559
            ],
            [
              14.3825572,
              48.249043
            ],
            [
              14.3825159,
              48.2490224
            ],
            [
              14.382493,
              48.2490034
            ],
            [
              14.3823927,
              48.2490439
            ],
            [
              14.3822888,
              48.2490858
            ],
            [
              14.3819432,
              48.2492253
            ],
            [
              14.3819026,
              48.2492417
            ],
            [
              14.3816757,
              48.2493332
            ],
            [
              14.3809849,
              48.249612
            ],
            [
              14.3804074,
              48.249845
            ],
            [
              14.3804592,
              48.2499017
            ],
            [
              14.3808121,
              48.2502884
            ],
            [
              14.3809519,
              48.2504416
            ],
            [
              14.3809725,
              48.2504641
            ],
            [
              14.3811481,
              48.2506565
            ],
            [
              14.3811647,
              48.2506746
            ]
          ],
          [
            [
              14.3812499,
              48.2506444
            ],
            [
              14.3811882,
              48.2505766
            ]
          ],
          [
            [
              14.381081,
              48.2470643
            ],
            [
              14.3810212,
              48.24698
            ]
          ],
          [
            [
              14.3781299,
              48.2414971
            ],
            [
              14.3781564,
              48.2415165
            ],
            [
              14.3782818,
              48.2415348
            ],
            [
              14.3783931,
              48.2415585
            ],
            [
              14.378481,
              48.2415795
            ],
            [
              14.3785533,
              48.2415857
            ]
          ],
          [
            [
              14.3695693,
              48.2419109
            ],
            [
              14.3694148,
              48.2420359
            ]
          ],
          [
            [
              14.3703244,
              48.2462371
            ],
            [
              14.370356,
              48.2463246
            ],
            [
              14.3703845,
              48.2464036
            ]
          ],
          [
            [
              14.3708036,
              48.2477477
            ],
            [
              14.3708227,
              48.2477451
            ],
            [
              14.3708457,
              48.2478194
            ],
            [
              14.3708262,
              48.2478221
            ]
          ],
          [
            [
              14.3607382,
              48.2575087
            ],
            [
              14.360928,
              48.2575121
            ]
          ],
          [
            [
              14.3573575,
              48.2544506
            ],
            [
              14.3573418,
              48.2544689
            ],
            [
              14.3573311,
              48.2544577
            ],
            [
              14.3573096,
              48.2544452
            ],
            [
              14.3572815,
              48.2544336
            ],
            [
              14.3572526,
              48.2544249
            ],
            [
              14.3572111,
              48.2544149
            ],
            [
              14.3571769,
              48.2544117
            ],
            [
              14.3571635,
              48.2544126
            ],
            [
              14.3571259,
              48.2544265
            ],
            [
              14.357139,
              48.2543922
            ]
          ]
        ]
      },
      "id": "relation/1147281"
    }
  ]
}