{
  "type": "FeatureCollection",
  "features": [
    {
      "type": "Feature",
      "properties": {
        "@id": "relation/32271",
        "alternate": "no",
        "colour": "#cd98a5",
        "from": "Riesenhof",
        "name": "Bus 33: Riesenhof => Pleschinger See",
        "network": "Oberösterreichischer Verkehrsverbund",
        "network:short": "OÖVV",
        "network:wikidata": "Q2011605",
        "network:wikipedia": "de:Oberösterreichischer Verkehrsverbund",
        "operator": "Linz Linien GmbH",
        "public_transport:version": "2",
        "ref": "33",
        "route": "bus",
        "to": "Pleschinger See",
        "type": "route"
      },
      "geometry": {
        "type": "MultiLineString",
        "coordinates": [
          [
            [
              14.2715858,
              48.3164142
            ],
            [
              14.2716197,
              48.3163463
            ],
            [
              14.2716945,
              48.3161953
            ],
            [
              14.2717133,
              48.3161575
            ],
            [
              14.2717589,
              48.3160639
            ],
            [
              14.2718022,
              48.3159752
            ],
            [
              14.271901,
              48.31577
            ],
            [
              14.271905,
              48.3157618
            ],
            [
              14.2719787,
              48.3156086
            ],
            [
              14.272029,
              48.3155041
            ],
            [
              14.2720755,
              48.3154075
            ],
            [
              14.272221,
              48.3154394
            ],
            [
              14.272837,
              48.3155745
            ],
            [
              14.2729562,
              48.3156006
            ],
            [
              14.2731263,
              48.3156376
            ],
            [
              14.2733611,
              48.3156886
            ],
            [
              14.2734328,
              48.31572
            ],
            [
              14.2735102,
              48.315754
            ],
            [
              14.2735652,
              48.3157117
            ],
            [
              14.273636,
              48.3156714
            ],
            [
              14.2739269,
              48.3155319
            ],
            [
              14.2740926,
              48.3154088
            ],
            [
              14.2743065,
              48.3153008
            ],
            [
              14.274392,
              48.3152576
            ],
            [
              14.2743583,
              48.3152277
            ],
            [
              14.2742078,
              48.3150946
            ],
            [
              14.2740552,
              48.3149593
            ],
            [
              14.2738157,
              48.3147472
            ],
            [
              14.2736405,
              48.314592
            ],
            [
              14.2735599,
              48.3145196
            ],
            [
              14.2736127,
              48.3144876
            ],
            [
              14.2741111,
              48.3141856
            ],
            [
              14.2741703,
              48.314149
            ],
            [
              14.2741714,
              48.3141347
            ],
            [
              14.2741783,
              48.3140232
            ],
            [
              14.2740991,
              48.3139632
            ],
            [
              14.2738225,
              48.3137536
            ],
            [
              14.2733579,
              48.3134017
            ],
            [
              14.2732897,
              48.31335
            ],
            [
              14.2732506,
              48.3132994
            ],
            [
              14.2732347,
              48.3132372
            ],
            [
              14.2731882,
              48.3128466
            ],
            [
              14.2731659,
              48.3127276
            ],
            [
              14.2731336,
              48.3125821
            ],
            [
              14.2731156,
              48.3125323
            ],
            [
              14.2732522,
              48.3125088
            ],
            [
              14.273467,
              48.3124718
            ],
            [
              14.2736748,
              48.312449
            ],
            [
              14.2737465,
              48.3124443
            ],
            [
              14.2739208,
              48.3124328
            ],
            [
              14.2741161,
              48.3124167
            ],
            [
              14.2742651,
              48.3123988
            ],
            [
              14.2743845,
              48.3123822
            ],
            [
              14.2745003,
              48.312366
            ],
            [
              14.2747202,
              48.3123208
            ],
            [
              14.2749845,
              48.3122586
            ],
            [
              14.2751393,
              48.3122221
            ],
            [
              14.2752311,
              48.3121956
            ],
            [
              14.2752692,
              48.3121837
            ],
            [
              14.2753243,
              48.3121664
            ],
            [
              14.2753991,
              48.3121395
            ],
            [
              14.275499,
              48.312091
            ],
            [
              14.2759758,
              48.3118159
            ],
            [
              14.2761542,
              48.3117129
            ],
            [
              14.2761964,
              48.3116748
            ],
            [
              14.2762246,
              48.3116421
            ],
            [
              14.2763171,
              48.3115276
            ],
            [
              14.2766099,
              48.3111728
            ],
            [
              14.276634,
              48.3111262
            ],
            [
              14.2766527,
              48.3110901
            ],
            [
              14.2767606,
              48.3109561
            ],
            [
              14.2767764,
              48.3109368
            ],
            [
              14.2768017,
              48.3109067
            ],
            [
              14.2768238,
              48.3108805
            ],
            [
              14.2768655,
              48.3108303
            ],
            [
              14.2769389,
              48.3107421
            ],
            [
              14.2769556,
              48.3107224
            ],
            [
              14.2769737,
              48.3107008
            ],
            [
              14.2770788,
              48.3107413
            ],
            [
              14.2771091,
              48.3107532
            ],
            [
              14.2773497,
              48.3108463
            ],
            [
              14.2774139,
              48.3108711
            ],
            [
              14.2774813,
              48.3108972
            ],
            [
              14.277794,
              48.3110184
            ],
            [
              14.278052,
              48.3111144
            ],
            [
              14.2785736,
              48.3113084
            ],
            [
              14.278988,
              48.3114625
            ],
            [
              14.2798188,
              48.3117715
            ],
            [
              14.2799689,
              48.3118265
            ],
            [
              14.280104,
              48.311876
            ],
            [
              14.2802148,
              48.3119154
            ],
            [
              14.2802953,
              48.3119454
            ],
            [
              14.2805438,
              48.3120372
            ],
            [
              14.2806107,
              48.3120618
            ],
            [
              14.2807321,
              48.3121065
            ],
            [
              14.2807904,
              48.3121281
            ],
            [
              14.280899,
              48.3121684
            ],
            [
              14.2810264,
              48.3122157
            ],
            [
              14.2810806,
              48.3122358
            ],
            [
              14.2811323,
              48.312255
            ],
            [
              14.2814942,
              48.3123893
            ],
            [
              14.2815513,
              48.3124105
            ],
            [
              14.2819123,
              48.3125445
            ],
            [
              14.2819881,
              48.3125724
            ],
            [
              14.2820328,
              48.3125831
            ],
            [
              14.2821094,
              48.3126013
            ],
            [
              14.2820867,
              48.3126443
            ],
            [
              14.2820405,
              48.3127315
            ],
            [
              14.2819858,
              48.3128179
            ],
            [
              14.2819453,
              48.3128838
            ],
            [
              14.2819177,
              48.3129266
            ],
            [
              14.2818995,
              48.3129554
            ],
            [
              14.2818666,
              48.3130121
            ],
            [
              14.281768,
              48.313182
            ],
            [
              14.2815586,
              48.3135484
            ],
            [
              14.281538,
              48.3135845
            ],
            [
              14.2815068,
              48.3136372
            ],
            [
              14.281004,
              48.3145288
            ],
            [
              14.280977,
              48.3145766
            ],
            [
              14.280945,
              48.3146333
            ],
            [
              14.2808343,
              48.3148296
            ],
            [
              14.2806584,
              48.3151402
            ],
            [
              14.2805752,
              48.315287
            ],
            [
              14.2805255,
              48.3154152
            ],
            [
              14.2804878,
              48.3155042
            ],
            [
              14.2808322,
              48.3157494
            ],
            [
              14.280852,
              48.3157613
            ],
            [
              14.2810145,
              48.3158694
            ],
            [
              14.2810673,
              48.3159045
            ],
            [
              14.2814438,
              48.3161551
            ],
            [
              14.281623,
              48.3162743
            ],
            [
              14.2820421,
              48.3165602
            ],
            [
              14.2821005,
              48.3166001
            ],
            [
              14.2825949,
              48.316955
            ],
            [
              14.2826221,
              48.3169761
            ],
            [
              14.2827116,
              48.3170454
            ],
            [
              14.2828159,
              48.3171263
            ],
            [
              14.2829892,
              48.3172666
            ],
            [
              14.2830214,
              48.3172926
            ],
            [
              14.2830774,
              48.3173386
            ],
            [
              14.2831921,
              48.3174329
            ],
            [
              14.2832904,
              48.3175046
            ],
            [
              14.2833741,
              48.3175652
            ],
            [
              14.2834351,
              48.3176079
            ],
            [
              14.2835149,
              48.3176635
            ],
            [
              14.2835976,
              48.3177194
            ],
            [
              14.283783,
              48.3178451
            ],
            [
              14.2838105,
              48.3178638
            ],
            [
              14.2839127,
              48.3179339
            ],
            [
              14.283988,
              48.3179856
            ],
            [
              14.2842467,
              48.3181611
            ],
            [
              14.2843372,
              48.3182243
            ],
            [
              14.2845044,
              48.3183215
            ],
            [
              14.2846846,
              48.3184025
            ],
            [
              14.2848175,
              48.3184439
            ],
            [
              14.284959,
              48.3184791
            ],
            [
              14.2851369,
              48.3185121
            ],
            [
              14.2852346,
              48.3185314
            ],
            [
              14.2853797,
              48.31856
            ],
            [
              14.285563,
              48.3185975
            ],
            [
              14.2858574,
              48.3186664
            ],
            [
              14.2862619,
              48.3187651
            ],
            [
              14.2866677,
              48.318864
            ],
            [
              14.286866,
              48.3189122
            ],
            [
              14.2870742,
              48.3189706
            ],
            [
              14.2870988,
              48.3189775
            ],
            [
              14.2872229,
              48.3190126
            ],
            [
              14.2873317,
              48.3190465
            ],
            [
              14.2875556,
              48.3191161
            ],
            [
              14.2877621,
              48.3191967
            ],
            [
              14.2879474,
              48.3192753
            ],
            [
              14.28817,
              48.3193818
            ],
            [
              14.2883496,
              48.3194772
            ],
            [
              14.2884059,
              48.3195095
            ],
            [
              14.288456,
              48.3195383
            ],
            [
              14.2885962,
              48.3196246
            ],
            [
              14.2889375,
              48.3198589
            ],
            [
              14.2890829,
              48.3199587
            ],
            [
              14.289117,
              48.3199828
            ],
            [
              14.2891856,
              48.3200311
            ],
            [
              14.2892519,
              48.3200781
            ],
            [
              14.2892767,
              48.3200956
            ],
            [
              14.2893392,
              48.3201398
            ],
            [
              14.2894023,
              48.3201844
            ],
            [
              14.2894649,
              48.3202279
            ],
            [
              14.2895431,
              48.3202822
            ],
            [
              14.2898256,
              48.3204836
            ],
            [
              14.2900546,
              48.3206411
            ],
            [
              14.2901557,
              48.3207009
            ],
            [
              14.2903287,
              48.320799
            ],
            [
              14.2905387,
              48.3209037
            ],
            [
              14.2906131,
              48.3208873
            ],
            [
              14.2906943,
              48.3209229
            ],
            [
              14.2908868,
              48.3210075
            ],
            [
              14.2909997,
              48.3210537
            ],
            [
              14.2910826,
              48.3210826
            ],
            [
              14.2911973,
              48.3211219
            ],
            [
              14.2915433,
              48.3212228
            ],
            [
              14.2916288,
              48.3212436
            ],
            [
              14.2917867,
              48.3212826
            ],
            [
              14.2922354,
              48.3213946
            ],
            [
              14.292533,
              48.3214769
            ],
            [
              14.2928078,
              48.3215886
            ],
            [
              14.2930207,
              48.321646
            ],
            [
              14.2932326,
              48.3217101
            ],
            [
              14.2934146,
              48.3217712
            ],
            [
              14.2935528,
              48.3218282
            ],
            [
              14.2936455,
              48.3218709
            ],
            [
              14.2937815,
              48.3219421
            ],
            [
              14.2939416,
              48.3220318
            ],
            [
              14.2946928,
              48.3225294
            ],
            [
              14.2951722,
              48.3228512
            ],
            [
              14.2953159,
              48.3229479
            ],
            [
              14.295363,
              48.3229796
            ],
            [
              14.295742,
              48.3232346
            ],
            [
              14.2959042,
              48.323343
            ],
            [
              14.2959236,
              48.3233567
            ],
            [
              14.2959858,
              48.3233958
            ],
            [
              14.2960252,
              48.3234204
            ],
            [
              14.2962176,
              48.3235414
            ],
            [
              14.2963503,
              48.3236249
            ],
            [
              14.2965446,
              48.3237396
            ],
            [
              14.2966682,
              48.323796
            ],
            [
              14.2968072,
              48.3238518
            ],
            [
              14.2969757,
              48.3239056
            ],
            [
              14.2971273,
              48.3239435
            ],
            [
              14.2973396,
              48.3239801
            ],
            [
              14.2976529,
              48.3240199
            ],
            [
              14.2978785,
              48.3240373
            ],
            [
              14.2980697,
              48.3240432
            ],
            [
              14.2981361,
              48.3240452
            ],
            [
              14.2983094,
              48.3240505
            ],
            [
              14.2986343,
              48.3240493
            ],
            [
              14.2988082,
              48.3240482
            ],
            [
              14.2989608,
              48.3240502
            ],
            [
              14.2990923,
              48.3240572
            ],
            [
              14.2991926,
              48.3240662
            ],
            [
              14.299291,
              48.3240817
            ],
            [
              14.2993814,
              48.3241021
            ],
            [
              14.2994864,
              48.3241332
            ],
            [
              14.2995456,
              48.3241567
            ],
            [
              14.2996238,
              48.3241943
            ],
            [
              14.2996568,
              48.3242153
            ],
            [
              14.2996976,
              48.3242413
            ],
            [
              14.2997878,
              48.3243126
            ],
            [
              14.2998884,
              48.3244095
            ],
            [
              14.2999007,
              48.3244214
            ],
            [
              14.2999903,
              48.3245078
            ],
            [
              14.3001809,
              48.324692
            ],
            [
              14.3003927,
              48.324893
            ],
            [
              14.3006519,
              48.3251281
            ],
            [
              14.300783,
              48.325234
            ],
            [
              14.3009301,
              48.3253529
            ],
            [
              14.3009552,
              48.3253721
            ],
            [
              14.3010281,
              48.3254279
            ],
            [
              14.3011394,
              48.3255113
            ],
            [
              14.3012008,
              48.3255581
            ],
            [
              14.3013362,
              48.3256681
            ],
            [
              14.3015183,
              48.3258086
            ],
            [
              14.3016145,
              48.3258849
            ],
            [
              14.301712,
              48.3259622
            ],
            [
              14.3018417,
              48.3260659
            ],
            [
              14.3019177,
              48.3261248
            ],
            [
              14.3019728,
              48.3261676
            ],
            [
              14.3019888,
              48.32618
            ],
            [
              14.3020635,
              48.326238
            ],
            [
              14.3022044,
              48.3263473
            ],
            [
              14.3023738,
              48.3264788
            ],
            [
              14.3024148,
              48.3265043
            ],
            [
              14.3025368,
              48.3265841
            ],
            [
              14.3026348,
              48.3266402
            ],
            [
              14.3028301,
              48.3267373
            ],
            [
              14.3028723,
              48.3267583
            ],
            [
              14.3029385,
              48.3267884
            ],
            [
              14.3029868,
              48.3268176
            ],
            [
              14.3030728,
              48.3268688
            ],
            [
              14.3030966,
              48.3268791
            ],
            [
              14.3031185,
              48.3268888
            ],
            [
              14.3033744,
              48.3269814
            ],
            [
              14.3034968,
              48.3270248
            ],
            [
              14.3035733,
              48.3270471
            ],
            [
              14.3036865,
              48.3270752
            ],
            [
              14.3037248,
              48.3270674
            ],
            [
              14.3037741,
              48.3270643
            ],
            [
              14.3038291,
              48.3270703
            ],
            [
              14.3038837,
              48.3270795
            ],
            [
              14.3039471,
              48.3270931
            ],
            [
              14.3039699,
              48.3271011
            ],
            [
              14.3040092,
              48.3271384
            ],
            [
              14.3042054,
              48.3271727
            ],
            [
              14.3042859,
              48.3271868
            ],
            [
              14.3045565,
              48.3272356
            ],
            [
              14.3046509,
              48.3272552
            ],
            [
              14.3047823,
              48.3272862
            ],
            [
              14.3049331,
              48.3273287
            ],
            [
              14.3050909,
              48.3273781
            ],
            [
              14.3052486,
              48.3274331
            ],
            [
              14.3053914,
              48.3274872
            ],
            [
              14.3055337,
              48.3275507
            ],
            [
              14.3057134,
              48.3276316
            ],
            [
              14.3057615,
              48.3276518
            ],
            [
              14.3058802,
              48.3277016
            ],
            [
              14.3059458,
              48.3277258
            ],
            [
              14.3060128,
              48.3277505
            ],
            [
              14.3061552,
              48.3277986
            ],
            [
              14.3063196,
              48.3278493
            ],
            [
              14.3063563,
              48.3278598
            ],
            [
              14.3066699,
              48.3279474
            ],
            [
              14.3069789,
              48.3280241
            ],
            [
              14.3070517,
              48.3280422
            ],
            [
              14.307251,
              48.328091
            ],
            [
              14.3073366,
              48.3281132
            ],
            [
              14.3074882,
              48.3281516
            ],
            [
              14.307541,
              48.328165
            ],
            [
              14.3081644,
              48.3283433
            ],
            [
              14.308678,
              48.3284904
            ],
            [
              14.3090587,
              48.3285936
            ],
            [
              14.3094395,
              48.3287019
            ],
            [
              14.3096865,
              48.3287692
            ],
            [
              14.3098341,
              48.3288112
            ],
            [
              14.3102928,
              48.3289395
            ],
            [
              14.3105744,
              48.3290182
            ],
            [
              14.3109302,
              48.3291116
            ],
            [
              14.3111779,
              48.3291755
            ],
            [
              14.3113218,
              48.3292081
            ],
            [
              14.311413,
              48.329213
            ],
            [
              14.3114707,
              48.329221
            ],
            [
              14.3116252,
              48.3292524
            ],
            [
              14.3117825,
              48.3292843
            ],
            [
              14.3119499,
              48.3293139
            ],
            [
              14.3121848,
              48.3293539
            ],
            [
              14.3122512,
              48.3293766
            ],
            [
              14.3123338,
              48.3294122
            ],
            [
              14.3126331,
              48.3294542
            ],
            [
              14.3129529,
              48.3294942
            ],
            [
              14.3132116,
              48.3295209
            ],
            [
              14.3132687,
              48.3295254
            ],
            [
              14.3135094,
              48.329545
            ],
            [
              14.3137789,
              48.329565
            ],
            [
              14.3138312,
              48.329569
            ],
            [
              14.31458,
              48.3296257
            ],
            [
              14.3147819,
              48.3296334
            ],
            [
              14.3151083,
              48.3296441
            ],
            [
              14.3155412,
              48.3296573
            ],
            [
              14.3157476,
              48.3296571
            ],
            [
              14.3159406,
              48.3296529
            ],
            [
              14.3160677,
              48.3296496
            ],
            [
              14.3162383,
              48.3296398
            ],
            [
              14.3164769,
              48.3296241
            ],
            [
              14.3168316,
              48.3296006
            ],
            [
              14.3169231,
              48.3295946
            ],
            [
              14.3171031,
              48.3295818
            ],
            [
              14.3172615,
              48.3295705
            ],
            [
              14.3173373,
              48.3295625
            ],
            [
              14.3174041,
              48.3295554
            ],
            [
              14.3175845,
              48.3295349
            ],
            [
              14.317763,
              48.3295087
            ],
            [
              14.3179002,
              48.3294859
            ],
            [
              14.3179582,
              48.329477
            ],
            [
              14.3181443,
              48.3294497
            ],
            [
              14.3185017,
              48.3293916
            ],
            [
              14.3187478,
              48.3293529
            ],
            [
              14.3189002,
              48.3293298
            ],
            [
              14.3192546,
              48.3292677
            ],
            [
              14.3193599,
              48.3292472
            ],
            [
              14.3196295,
              48.3291947
            ],
            [
              14.3200974,
              48.3290889
            ],
            [
              14.3207234,
              48.3289338
            ],
            [
              14.3209186,
              48.3288827
            ],
            [
              14.3213552,
              48.328764
            ],
            [
              14.3216497,
              48.328684
            ],
            [
              14.32195,
              48.3285992
            ],
            [
              14.322243,
              48.3285164
            ],
            [
              14.3222991,
              48.3284992
            ],
            [
              14.3224731,
              48.328451
            ],
            [
              14.3227069,
              48.3283859
            ],
            [
              14.3231305,
              48.3282689
            ],
            [
              14.3232439,
              48.3282438
            ],
            [
              14.3233184,
              48.3282282
            ],
            [
              14.3234959,
              48.3281969
            ],
            [
              14.3236907,
              48.3281732
            ],
            [
              14.3238498,
              48.3281528
            ],
            [
              14.3242897,
              48.3281061
            ],
            [
              14.3244885,
              48.3280846
            ],
            [
              14.3246339,
              48.3280686
            ],
            [
              14.324749,
              48.3280559
            ],
            [
              14.3251711,
              48.3280093
            ],
            [
              14.32534,
              48.3279905
            ],
            [
              14.325535,
              48.3279689
            ],
            [
              14.325611,
              48.3279604
            ],
            [
              14.3260922,
              48.3279071
            ],
            [
              14.3264907,
              48.3278623
            ],
            [
              14.3267469,
              48.3278333
            ],
            [
              14.3272003,
              48.3277821
            ],
            [
              14.3275401,
              48.3277437
            ],
            [
              14.3277361,
              48.3277277
            ],
            [
              14.3278525,
              48.3277213
            ],
            [
              14.3279142,
              48.3277179
            ],
            [
              14.3279813,
              48.3277136
            ],
            [
              14.3280211,
              48.3277136
            ],
            [
              14.3282354,
              48.327718
            ],
            [
              14.3286115,
              48.327739
            ],
            [
              14.3287615,
              48.3277474
            ],
            [
              14.329068,
              48.3277646
            ],
            [
              14.3293115,
              48.327778
            ],
            [
              14.3293671,
              48.3277811
            ],
            [
              14.3295743,
              48.327788
            ],
            [
              14.3296577,
              48.3277847
            ],
            [
              14.329703,
              48.3277829
            ],
            [
              14.3297922,
              48.3277763
            ],
            [
              14.3300433,
              48.3277452
            ],
            [
              14.3303899,
              48.3277023
            ],
            [
              14.3304658,
              48.3276929
            ],
            [
              14.330501,
              48.3276887
            ],
            [
              14.3305242,
              48.3276857
            ],
            [
              14.3305463,
              48.3276833
            ],
            [
              14.3308316,
              48.3276476
            ],
            [
              14.3309903,
              48.3276313
            ],
            [
              14.331173,
              48.3276208
            ],
            [
              14.3313624,
              48.3276214
            ],
            [
              14.3315877,
              48.3276372
            ],
            [
              14.3320559,
              48.3276738
            ],
            [
              14.3323394,
              48.327696
            ],
            [
              14.3326351,
              48.3277163
            ],
            [
              14.3328029,
              48.3277209
            ],
            [
              14.3331188,
              48.327712
            ],
            [
              14.3332303,
              48.3277089
            ],
            [
              14.33337,
              48.3277035
            ],
            [
              14.3334395,
              48.3277008
            ],
            [
              14.3336598,
              48.3276922
            ],
            [
              14.3337155,
              48.32769
            ],
            [
              14.3338082,
              48.3276864
            ],
            [
              14.3340769,
              48.3276759
            ],
            [
              14.3344916,
              48.3276597
            ],
            [
              14.3345711,
              48.3276551
            ],
            [
              14.3346367,
              48.3276514
            ],
            [
              14.3346973,
              48.3276473
            ],
            [
              14.3348126,
              48.3276396
            ],
            [
              14.3350739,
              48.3276175
            ],
            [
              14.3352548,
              48.3275864
            ],
            [
              14.3353998,
              48.3275503
            ],
            [
              14.3355374,
              48.3274993
            ],
            [
              14.3356907,
              48.3274246
            ],
            [
              14.3357867,
              48.3273635
            ],
            [
              14.3358699,
              48.3272949
            ],
            [
              14.3359938,
              48.3271798
            ],
            [
              14.3361266,
              48.3270692
            ],
            [
              14.3362208,
              48.3270045
            ],
            [
              14.3363423,
              48.3269412
            ],
            [
              14.3365167,
              48.3268731
            ],
            [
              14.3367218,
              48.3268086
            ],
            [
              14.3370392,
              48.326716
            ],
            [
              14.3373078,
              48.3266363
            ],
            [
              14.3374682,
              48.326585
            ],
            [
              14.3375219,
              48.3265679
            ],
            [
              14.3375849,
              48.3265438
            ],
            [
              14.337655,
              48.326517
            ],
            [
              14.3377332,
              48.326483
            ],
            [
              14.3378289,
              48.3264375
            ],
            [
              14.3379371,
              48.3263814
            ],
            [
              14.3380742,
              48.3262908
            ],
            [
              14.3381532,
              48.3262353
            ],
            [
              14.3382555,
              48.3261537
            ],
            [
              14.3383151,
              48.3260975
            ],
            [
              14.3383306,
              48.3260828
            ],
            [
              14.3384017,
              48.3260065
            ],
            [
              14.3384748,
              48.3259214
            ],
            [
              14.3385165,
              48.3258639
            ],
            [
              14.3385462,
              48.3258228
            ],
            [
              14.3385925,
              48.3257425
            ],
            [
              14.3388938,
              48.3251298
            ],
            [
              14.339096,
              48.3247844
            ],
            [
              14.3391777,
              48.3246635
            ],
            [
              14.3392314,
              48.3245851
            ],
            [
              14.3393293,
              48.3244506
            ],
            [
              14.3395817,
              48.3241244
            ],
            [
              14.3395861,
              48.3241188
            ],
            [
              14.3396269,
              48.3240676
            ],
            [
              14.3397847,
              48.3238695
            ],
            [
              14.339996,
              48.3236043
            ],
            [
              14.3400023,
              48.3235959
            ],
            [
              14.34003,
              48.3235584
            ],
            [
              14.3401404,
              48.3234095
            ],
            [
              14.3401985,
              48.3233312
            ],
            [
              14.340334,
              48.323125
            ],
            [
              14.3403678,
              48.3230736
            ],
            [
              14.3404382,
              48.3229506
            ],
            [
              14.3404756,
              48.3228852
            ],
            [
              14.3405099,
              48.3228252
            ],
            [
              14.34054,
              48.3227631
            ],
            [
              14.3405516,
              48.3227392
            ],
            [
              14.3406077,
              48.3226233
            ],
            [
              14.3406502,
              48.3225207
            ],
            [
              14.340675,
              48.3224459
            ],
            [
              14.3407448,
              48.3222132
            ],
            [
              14.3407611,
              48.3221593
            ],
            [
              14.3407701,
              48.3221298
            ],
            [
              14.3408775,
              48.3217754
            ],
            [
              14.3409002,
              48.3216904
            ],
            [
              14.3409199,
              48.3216288
            ],
            [
              14.3409434,
              48.3215309
            ],
            [
              14.3409615,
              48.3214483
            ],
            [
              14.3409599,
              48.3213474
            ],
            [
              14.3409473,
              48.3212304
            ],
            [
              14.3409127,
              48.3211199
            ],
            [
              14.3408506,
              48.3210177
            ],
            [
              14.3407498,
              48.320899
            ],
            [
              14.3404541,
              48.3206132
            ],
            [
              14.3401029,
              48.3202804
            ],
            [
              14.3398684,
              48.3200549
            ],
            [
              14.3398193,
              48.3200079
            ],
            [
              14.3396569,
              48.3198524
            ],
            [
              14.3395832,
              48.3197793
            ],
            [
              14.3395216,
              48.3197023
            ],
            [
              14.3395119,
              48.3196866
            ],
            [
              14.3394182,
              48.3195327
            ],
            [
              14.33937,
              48.3194471
            ],
            [
              14.3392833,
              48.319295
            ],
            [
              14.3392456,
              48.3192323
            ],
            [
              14.3392072,
              48.3191691
            ],
            [
              14.3391842,
              48.319124
            ],
            [
              14.3390587,
              48.3191562
            ],
            [
              14.3389298,
              48.3191937
            ],
            [
              14.338792,
              48.3192416
            ],
            [
              14.3386972,
              48.3192951
            ],
            [
              14.3386212,
              48.3193607
            ],
            [
              14.3385617,
              48.3194479
            ],
            [
              14.3385238,
              48.3195433
            ],
            [
              14.3384481,
              48.3197894
            ],
            [
              14.3383467,
              48.3200022
            ],
            [
              14.3383079,
              48.3200554
            ],
            [
              14.3382828,
              48.3200899
            ],
            [
              14.3382771,
              48.3200977
            ],
            [
              14.3382574,
              48.3201192
            ],
            [
              14.3381119,
              48.3202782
            ],
            [
              14.3379657,
              48.3204426
            ],
            [
              14.3375696,
              48.3207707
            ],
            [
              14.3372188,
              48.3210475
            ],
            [
              14.3371774,
              48.3210734
            ],
            [
              14.3371729,
              48.3210756
            ],
            [
              14.3370465,
              48.3211376
            ],
            [
              14.3369324,
              48.3211935
            ],
            [
              14.336838,
              48.321253
            ],
            [
              14.3367978,
              48.3212783
            ],
            [
              14.3367304,
              48.3213208
            ],
            [
              14.3366526,
              48.3213958
            ],
            [
              14.3365792,
              48.3214666
            ],
            [
              14.3364606,
              48.3215488
            ],
            [
              14.3363669,
              48.3216137
            ],
            [
              14.3357615,
              48.3212629
            ],
            [
              14.3356515,
              48.3212687
            ],
            [
              14.3355557,
              48.3212382
            ],
            [
              14.3355204,
              48.3212204
            ]
          ],
          [
            [
              14.3354825,
              48.321222
            ],
            [
              14.335542,
              48.3212483
            ],
            [
              14.3356032,
              48.3212755
            ]
          ],
          [
            [
              14.3392062,
              48.3193571
            ],
            [
              14.3391375,
              48.3192359
            ]
          ],
          [
            [
              14.3408331,
              48.3216185
            ],
            [
              14.3408565,
              48.3214807
            ]
          ],
          [
            [
              14.3374626,
              48.3265165
            ],
            [
              14.337268,
              48.3265828
            ]
          ],
          [
            [
              14.3340496,
              48.3275953
            ],
            [
              14.3339722,
              48.3275972
            ],
            [
              14.3338478,
              48.3276041
            ],
            [
              14.3337727,
              48.3276117
            ]
          ],
          [
            [
              14.323862,
              48.3280533
            ],
            [
              14.3238461,
              48.3280761
            ],
            [
              14.3235249,
              48.3281125
            ],
            [
              14.323492,
              48.3280965
            ]
          ],
          [
            [
              14.3164835,
              48.3294785
            ],
            [
              14.3165696,
              48.3295005
            ],
            [
              14.3168244,
              48.32948
            ],
            [
              14.3168797,
              48.3294503
            ]
          ],
          [
            [
              14.3103545,
              48.3288628
            ],
            [
              14.3103183,
              48.3288757
            ],
            [
              14.3101294,
              48.3288229
            ],
            [
              14.3101221,
              48.3287965
            ]
          ],
          [
            [
              14.2962687,
              48.3235041
            ],
            [
              14.2960317,
              48.3233501
            ]
          ],
          [
            [
              14.2939031,
              48.3218196
            ],
            [
              14.2936729,
              48.3217415
            ]
          ],
          [
            [
              14.2715363,
              48.3163504
            ],
            [
              14.2714703,
              48.3164869
            ]
          ]
        ]
      },
      "id": "relation/32271"
    },
    {
      "type": "Feature",
      "properties": {
        "@id": "relation/1149345",
        "alternate": "no",
        "colour": "#cd98a5",
        "from": "Pleschinger See",
        "name": "Bus 33: Pleschinger See => Riesenhof",
        "network": "Oberösterreichischer Verkehrsverbund",
        "network:short": "OÖVV",
        "network:wikidata": "Q2011605",
        "network:wikipedia": "de:Oberösterreichischer Verkehrsverbund",
        "operator": "Linz Linien GmbH",
        "public_transport:version": "2",
        "ref": "33",
        "route": "bus",
        "to": "Riesenhof",
        "type": "route"
      },
      "geometry": {
        "type": "MultiLineString",
        "coordinates": [
          [
            [
              14.2715858,
              48.3164142
            ],
            [
              14.2715435,
              48.3165001
            ],
            [
              14.2715142,
              48.3165535
            ],
            [
              14.2714929,
              48.3165837
            ],
            [
              14.2714682,
              48.3166188
            ],
            [
              14.2715933,
              48.3166629
            ],
            [
              14.2717441,
              48.316716
            ],
            [
              14.2717758,
              48.3167272
            ],
            [
              14.2718523,
              48.3167542
            ],
            [
              14.271923,
              48.3167792
            ],
            [
              14.2722334,
              48.3168886
            ],
            [
              14.2722552,
              48.3168963
            ],
            [
              14.2723184,
              48.3169186
            ],
            [
              14.2725164,
              48.3169787
            ],
            [
              14.272549,
              48.3169384
            ],
            [
              14.2727261,
              48.3167193
            ],
            [
              14.272733,
              48.3167108
            ],
            [
              14.2727515,
              48.316688
            ],
            [
              14.272861,
              48.3165512
            ],
            [
              14.2729892,
              48.3163908
            ],
            [
              14.2731676,
              48.3161679
            ],
            [
              14.273344,
              48.3159475
            ],
            [
              14.2734236,
              48.3158479
            ],
            [
              14.2735102,
              48.315754
            ],
            [
              14.2735652,
              48.3157117
            ],
            [
              14.273636,
              48.3156714
            ],
            [
              14.2739269,
              48.3155319
            ],
            [
              14.2740926,
              48.3154088
            ],
            [
              14.2743065,
              48.3153008
            ],
            [
              14.274392,
              48.3152576
            ],
            [
              14.2743583,
              48.3152277
            ],
            [
              14.2742078,
              48.3150946
            ],
            [
              14.2740552,
              48.3149593
            ],
            [
              14.2738157,
              48.3147472
            ],
            [
              14.2736405,
              48.314592
            ],
            [
              14.2735599,
              48.3145196
            ],
            [
              14.2735247,
              48.3144784
            ],
            [
              14.2732052,
              48.3141431
            ],
            [
              14.2731797,
              48.3141183
            ],
            [
              14.2731554,
              48.3140945
            ],
            [
              14.2730888,
              48.3140295
            ],
            [
              14.2728328,
              48.3137798
            ],
            [
              14.2727773,
              48.3137257
            ],
            [
              14.2726049,
              48.3135498
            ],
            [
              14.2725227,
              48.3134515
            ],
            [
              14.2724255,
              48.3133042
            ],
            [
              14.2723854,
              48.3132097
            ],
            [
              14.2723603,
              48.3131312
            ],
            [
              14.2723386,
              48.3130314
            ],
            [
              14.2723227,
              48.3127986
            ],
            [
              14.2723073,
              48.3127221
            ],
            [
              14.2722849,
              48.3126745
            ],
            [
              14.2724514,
              48.312646
            ],
            [
              14.272666,
              48.3126092
            ],
            [
              14.2729022,
              48.3125688
            ],
            [
              14.272978,
              48.3125558
            ],
            [
              14.2731156,
              48.3125323
            ],
            [
              14.2732522,
              48.3125088
            ],
            [
              14.273467,
              48.3124718
            ],
            [
              14.2736748,
              48.312449
            ],
            [
              14.2737465,
              48.3124443
            ],
            [
              14.2739208,
              48.3124328
            ],
            [
              14.2741161,
              48.3124167
            ],
            [
              14.2742651,
              48.3123988
            ],
            [
              14.2743845,
              48.3123822
            ],
            [
              14.2745003,
              48.312366
            ],
            [
              14.2747202,
              48.3123208
            ],
            [
              14.2749845,
              48.3122586
            ],
            [
              14.2751393,
              48.3122221
            ],
            [
              14.2752311,
              48.3121956
            ],
            [
              14.2752692,
              48.3121837
            ],
            [
              14.2753243,
              48.3121664
            ],
            [
              14.2753991,
              48.3121395
            ],
            [
              14.275499,
              48.312091
            ],
            [
              14.2759758,
              48.3118159
            ],
            [
              14.2761542,
              48.3117129
            ],
            [
              14.2761964,
              48.3116748
            ],
            [
              14.2762246,
              48.3116421
            ],
            [
              14.2763171,
              48.3115276
            ],
            [
              14.2766099,
              48.3111728
            ],
            [
              14.276634,
              48.3111262
            ],
            [
              14.2766527,
              48.3110901
            ],
            [
              14.2767606,
              48.3109561
            ],
            [
              14.2767764,
              48.3109368
            ],
            [
              14.2768017,
              48.3109067
            ],
            [
              14.2768238,
              48.3108805
            ],
            [
              14.2768655,
              48.3108303
            ],
            [
              14.2769389,
              48.3107421
            ],
            [
              14.2769556,
              48.3107224
            ],
            [
              14.2769737,
              48.3107008
            ],
            [
              14.2770788,
              48.3107413
            ],
            [
              14.2771091,
              48.3107532
            ],
            [
              14.2773497,
              48.3108463
            ],
            [
              14.2774139,
              48.3108711
            ],
            [
              14.2774813,
              48.3108972
            ],
            [
              14.277794,
              48.3110184
            ],
            [
              14.278052,
              48.3111144
            ],
            [
              14.2785736,
              48.3113084
            ],
            [
              14.278988,
              48.3114625
            ],
            [
              14.2798188,
              48.3117715
            ],
            [
              14.2799689,
              48.3118265
            ],
            [
              14.280104,
              48.311876
            ],
            [
              14.2802148,
              48.3119154
            ],
            [
              14.2802953,
              48.3119454
            ],
            [
              14.2805438,
              48.3120372
            ],
            [
              14.2806107,
              48.3120618
            ],
            [
              14.2807321,
              48.3121065
            ],
            [
              14.2807904,
              48.3121281
            ],
            [
              14.280899,
              48.3121684
            ],
            [
              14.2810264,
              48.3122157
            ],
            [
              14.2810806,
              48.3122358
            ],
            [
              14.2811323,
              48.312255
            ],
            [
              14.2814942,
              48.3123893
            ],
            [
              14.2815513,
              48.3124105
            ],
            [
              14.2819123,
              48.3125445
            ],
            [
              14.2819881,
              48.3125724
            ],
            [
              14.2820328,
              48.3125831
            ],
            [
              14.2821094,
              48.3126013
            ],
            [
              14.2820867,
              48.3126443
            ],
            [
              14.2820405,
              48.3127315
            ],
            [
              14.2819858,
              48.3128179
            ],
            [
              14.2819453,
              48.3128838
            ],
            [
              14.2819177,
              48.3129266
            ],
            [
              14.2818995,
              48.3129554
            ],
            [
              14.2818666,
              48.3130121
            ],
            [
              14.281768,
              48.313182
            ],
            [
              14.2815586,
              48.3135484
            ],
            [
              14.281538,
              48.3135845
            ],
            [
              14.2815068,
              48.3136372
            ],
            [
              14.281004,
              48.3145288
            ],
            [
              14.280977,
              48.3145766
            ],
            [
              14.280945,
              48.3146333
            ],
            [
              14.2808343,
              48.3148296
            ],
            [
              14.2806584,
              48.3151402
            ],
            [
              14.2805752,
              48.315287
            ],
            [
              14.2805255,
              48.3154152
            ],
            [
              14.2804878,
              48.3155042
            ],
            [
              14.2808322,
              48.3157494
            ],
            [
              14.280852,
              48.3157613
            ],
            [
              14.2810145,
              48.3158694
            ],
            [
              14.2810673,
              48.3159045
            ],
            [
              14.2814438,
              48.3161551
            ],
            [
              14.281623,
              48.3162743
            ],
            [
              14.2820421,
              48.3165602
            ],
            [
              14.2821005,
              48.3166001
            ],
            [
              14.2825949,
              48.316955
            ],
            [
              14.2826221,
              48.3169761
            ],
            [
              14.2827116,
              48.3170454
            ],
            [
              14.2828159,
              48.3171263
            ],
            [
              14.2829892,
              48.3172666
            ],
            [
              14.2830214,
              48.3172926
            ],
            [
              14.2830774,
              48.3173386
            ],
            [
              14.2831921,
              48.3174329
            ],
            [
              14.2832904,
              48.3175046
            ],
            [
              14.2833741,
              48.3175652
            ],
            [
              14.2834351,
              48.3176079
            ],
            [
              14.2835149,
              48.3176635
            ],
            [
              14.2835976,
              48.3177194
            ],
            [
              14.283783,
              48.3178451
            ],
            [
              14.2838105,
              48.3178638
            ],
            [
              14.2839127,
              48.3179339
            ],
            [
              14.283988,
              48.3179856
            ],
            [
              14.2842467,
              48.3181611
            ],
            [
              14.2843372,
              48.3182243
            ],
            [
              14.2845044,
              48.3183215
            ],
            [
              14.2846846,
              48.3184025
            ],
            [
              14.2848175,
              48.3184439
            ],
            [
              14.284959,
              48.3184791
            ],
            [
              14.2851369,
              48.3185121
            ],
            [
              14.2852346,
              48.3185314
            ],
            [
              14.2853797,
              48.31856
            ],
            [
              14.285563,
              48.3185975
            ],
            [
              14.2858574,
              48.3186664
            ],
            [
              14.2862619,
              48.3187651
            ],
            [
              14.2866677,
              48.318864
            ],
            [
              14.286866,
              48.3189122
            ],
            [
              14.2870742,
              48.3189706
            ],
            [
              14.2870988,
              48.3189775
            ],
            [
              14.2872229,
              48.3190126
            ],
            [
              14.2873317,
              48.3190465
            ],
            [
              14.2875556,
              48.3191161
            ],
            [
              14.2877621,
              48.3191967
            ],
            [
              14.2879474,
              48.3192753
            ],
            [
              14.28817,
              48.3193818
            ],
            [
              14.2883496,
              48.3194772
            ],
            [
              14.2884059,
              48.3195095
            ],
            [
              14.288456,
              48.3195383
            ],
            [
              14.2885962,
              48.3196246
            ],
            [
              14.2889375,
              48.3198589
            ],
            [
              14.2890829,
              48.3199587
            ],
            [
              14.289117,
              48.3199828
            ],
            [
              14.2891856,
              48.3200311
            ],
            [
              14.2892519,
              48.3200781
            ],
            [
              14.2892767,
              48.3200956
            ],
            [
              14.2893392,
              48.3201398
            ],
            [
              14.2894023,
              48.3201844
            ],
            [
              14.2894649,
              48.3202279
            ],
            [
              14.2895431,
              48.3202822
            ],
            [
              14.2898256,
              48.3204836
            ],
            [
              14.2900546,
              48.3206411
            ],
            [
              14.2901557,
              48.3207009
            ],
            [
              14.2903287,
              48.320799
            ],
            [
              14.2905387,
              48.3209037
            ],
            [
              14.2905676,
              48.3209518
            ],
            [
              14.2906345,
              48.3209818
            ],
            [
              14.2906934,
              48.3210093
            ],
            [
              14.2909759,
              48.3211347
            ],
            [
              14.2911312,
              48.3211879
            ],
            [
              14.291361,
              48.3212629
            ],
            [
              14.2915679,
              48.3213204
            ],
            [
              14.2916924,
              48.3213559
            ],
            [
              14.2917859,
              48.3213797
            ],
            [
              14.2919637,
              48.3214238
            ],
            [
              14.2924922,
              48.321545
            ],
            [
              14.2926603,
              48.3215796
            ],
            [
              14.2928078,
              48.3215886
            ],
            [
              14.2930207,
              48.321646
            ],
            [
              14.2932326,
              48.3217101
            ],
            [
              14.2934146,
              48.3217712
            ],
            [
              14.2935528,
              48.3218282
            ],
            [
              14.2936455,
              48.3218709
            ],
            [
              14.2937815,
              48.3219421
            ],
            [
              14.2939416,
              48.3220318
            ],
            [
              14.2946928,
              48.3225294
            ],
            [
              14.2951722,
              48.3228512
            ],
            [
              14.2953159,
              48.3229479
            ],
            [
              14.295363,
              48.3229796
            ],
            [
              14.295742,
              48.3232346
            ],
            [
              14.2959042,
              48.323343
            ],
            [
              14.2959236,
              48.3233567
            ],
            [
              14.2959858,
              48.3233958
            ],
            [
              14.2960252,
              48.3234204
            ],
            [
              14.2962176,
              48.3235414
            ],
            [
              14.2963503,
              48.3236249
            ],
            [
              14.2965446,
              48.3237396
            ],
            [
              14.2966682,
              48.323796
            ],
            [
              14.2968072,
              48.3238518
            ],
            [
              14.2969757,
              48.3239056
            ],
            [
              14.2971273,
              48.3239435
            ],
            [
              14.2973396,
              48.3239801
            ],
            [
              14.2976529,
              48.3240199
            ],
            [
              14.2978785,
              48.3240373
            ],
            [
              14.2980697,
              48.3240432
            ],
            [
              14.2981361,
              48.3240452
            ],
            [
              14.2983094,
              48.3240505
            ],
            [
              14.2986343,
              48.3240493
            ],
            [
              14.2988082,
              48.3240482
            ],
            [
              14.2989608,
              48.3240502
            ],
            [
              14.2990923,
              48.3240572
            ],
            [
              14.2991926,
              48.3240662
            ],
            [
              14.299291,
              48.3240817
            ],
            [
              14.2993814,
              48.3241021
            ],
            [
              14.2994864,
              48.3241332
            ],
            [
              14.2995456,
              48.3241567
            ],
            [
              14.2996238,
              48.3241943
            ],
            [
              14.2996568,
              48.3242153
            ],
            [
              14.2996976,
              48.3242413
            ],
            [
              14.2997878,
              48.3243126
            ],
            [
              14.2998884,
              48.3244095
            ],
            [
              14.2999007,
              48.3244214
            ],
            [
              14.2999903,
              48.3245078
            ],
            [
              14.3001809,
              48.324692
            ],
            [
              14.3003927,
              48.324893
            ],
            [
              14.3006519,
              48.3251281
            ],
            [
              14.300783,
              48.325234
            ],
            [
              14.3009301,
              48.3253529
            ],
            [
              14.3009552,
              48.3253721
            ],
            [
              14.3010281,
              48.3254279
            ],
            [
              14.3011394,
              48.3255113
            ],
            [
              14.3012008,
              48.3255581
            ],
            [
              14.3013362,
              48.3256681
            ],
            [
              14.3015183,
              48.3258086
            ],
            [
              14.3016145,
              48.3258849
            ],
            [
              14.301712,
              48.3259622
            ],
            [
              14.3018417,
              48.3260659
            ],
            [
              14.3019177,
              48.3261248
            ],
            [
              14.3019728,
              48.3261676
            ],
            [
              14.3019888,
              48.32618
            ],
            [
              14.3020635,
              48.326238
            ],
            [
              14.3022044,
              48.3263473
            ],
            [
              14.3023738,
              48.3264788
            ],
            [
              14.3024148,
              48.3265043
            ],
            [
              14.3025368,
              48.3265841
            ],
            [
              14.3026348,
              48.3266402
            ],
            [
              14.3028301,
              48.3267373
            ],
            [
              14.3028723,
              48.3267583
            ],
            [
              14.3029385,
              48.3267884
            ],
            [
              14.3029868,
              48.3268176
            ],
            [
              14.3030728,
              48.3268688
            ],
            [
              14.3030966,
              48.3268791
            ],
            [
              14.3031185,
              48.3268888
            ],
            [
              14.3033744,
              48.3269814
            ],
            [
              14.3034968,
              48.3270248
            ],
            [
              14.3035733,
              48.3270471
            ],
            [
              14.3036865,
              48.3270752
            ],
            [
              14.3037396,
              48.3271031
            ],
            [
              14.3038578,
              48.3271307
            ],
            [
              14.3039113,
              48.3271422
            ],
            [
              14.3039514,
              48.3271452
            ],
            [
              14.3040092,
              48.3271384
            ],
            [
              14.3042054,
              48.3271727
            ],
            [
              14.3042859,
              48.3271868
            ],
            [
              14.3045565,
              48.3272356
            ],
            [
              14.3046509,
              48.3272552
            ],
            [
              14.3047823,
              48.3272862
            ],
            [
              14.3049331,
              48.3273287
            ],
            [
              14.3050909,
              48.3273781
            ],
            [
              14.3052486,
              48.3274331
            ],
            [
              14.3053914,
              48.3274872
            ],
            [
              14.3055337,
              48.3275507
            ],
            [
              14.3057134,
              48.3276316
            ],
            [
              14.3057615,
              48.3276518
            ],
            [
              14.3058802,
              48.3277016
            ],
            [
              14.3059458,
              48.3277258
            ],
            [
              14.3060128,
              48.3277505
            ],
            [
              14.3061552,
              48.3277986
            ],
            [
              14.3063196,
              48.3278493
            ],
            [
              14.3063563,
              48.3278598
            ],
            [
              14.3066699,
              48.3279474
            ],
            [
              14.3069789,
              48.3280241
            ],
            [
              14.3070517,
              48.3280422
            ],
            [
              14.307251,
              48.328091
            ],
            [
              14.3073366,
              48.3281132
            ],
            [
              14.3074882,
              48.3281516
            ],
            [
              14.307541,
              48.328165
            ],
            [
              14.3081644,
              48.3283433
            ],
            [
              14.308678,
              48.3284904
            ],
            [
              14.3090587,
              48.3285936
            ],
            [
              14.3094395,
              48.3287019
            ],
            [
              14.3096865,
              48.3287692
            ],
            [
              14.3098341,
              48.3288112
            ],
            [
              14.3102928,
              48.3289395
            ],
            [
              14.3105744,
              48.3290182
            ],
            [
              14.3109302,
              48.3291116
            ],
            [
              14.3111779,
              48.3291755
            ],
            [
              14.3113218,
              48.3292081
            ],
            [
              14.3113982,
              48.3292441
            ],
            [
              14.3114787,
              48.32927
            ],
            [
              14.3116331,
              48.3293102
            ],
            [
              14.3117701,
              48.3293363
            ],
            [
              14.3118868,
              48.3293581
            ],
            [
              14.31215,
              48.3294038
            ],
            [
              14.3122202,
              48.3294088
            ],
            [
              14.3123338,
              48.3294122
            ],
            [
              14.3126331,
              48.3294542
            ],
            [
              14.3129529,
              48.3294942
            ],
            [
              14.3132116,
              48.3295209
            ],
            [
              14.3132687,
              48.3295254
            ],
            [
              14.3135094,
              48.329545
            ],
            [
              14.3137789,
              48.329565
            ],
            [
              14.3138312,
              48.329569
            ],
            [
              14.31458,
              48.3296257
            ],
            [
              14.3147819,
              48.3296334
            ],
            [
              14.3151083,
              48.3296441
            ],
            [
              14.3155412,
              48.3296573
            ],
            [
              14.3157476,
              48.3296571
            ],
            [
              14.3159406,
              48.3296529
            ],
            [
              14.3160677,
              48.3296496
            ],
            [
              14.3162383,
              48.3296398
            ],
            [
              14.3164769,
              48.3296241
            ],
            [
              14.3168316,
              48.3296006
            ],
            [
              14.3169231,
              48.3295946
            ],
            [
              14.3171031,
              48.3295818
            ],
            [
              14.3172615,
              48.3295705
            ],
            [
              14.3173373,
              48.3295625
            ],
            [
              14.3174041,
              48.3295554
            ],
            [
              14.3175845,
              48.3295349
            ],
            [
              14.317763,
              48.3295087
            ],
            [
              14.3179002,
              48.3294859
            ],
            [
              14.3179582,
              48.329477
            ],
            [
              14.3181443,
              48.3294497
            ],
            [
              14.3185017,
              48.3293916
            ],
            [
              14.3187478,
              48.3293529
            ],
            [
              14.3189002,
              48.3293298
            ],
            [
              14.3192546,
              48.3292677
            ],
            [
              14.3193599,
              48.3292472
            ],
            [
              14.3196295,
              48.3291947
            ],
            [
              14.3200974,
              48.3290889
            ],
            [
              14.3207234,
              48.3289338
            ],
            [
              14.3209186,
              48.3288827
            ],
            [
              14.3213552,
              48.328764
            ],
            [
              14.3216497,
              48.328684
            ],
            [
              14.32195,
              48.3285992
            ],
            [
              14.322243,
              48.3285164
            ],
            [
              14.3222991,
              48.3284992
            ],
            [
              14.3224731,
              48.328451
            ],
            [
              14.3227069,
              48.3283859
            ],
            [
              14.3231305,
              48.3282689
            ],
            [
              14.3232439,
              48.3282438
            ],
            [
              14.3233184,
              48.3282282
            ],
            [
              14.3234959,
              48.3281969
            ],
            [
              14.3236907,
              48.3281732
            ],
            [
              14.3238498,
              48.3281528
            ],
            [
              14.3242897,
              48.3281061
            ],
            [
              14.3244885,
              48.3280846
            ],
            [
              14.3246339,
              48.3280686
            ],
            [
              14.324749,
              48.3280559
            ],
            [
              14.3251711,
              48.3280093
            ],
            [
              14.32534,
              48.3279905
            ],
            [
              14.325535,
              48.3279689
            ],
            [
              14.325611,
              48.3279604
            ],
            [
              14.3260922,
              48.3279071
            ],
            [
              14.3264907,
              48.3278623
            ],
            [
              14.3267469,
              48.3278333
            ],
            [
              14.3272003,
              48.3277821
            ],
            [
              14.3275401,
              48.3277437
            ],
            [
              14.3277361,
              48.3277277
            ],
            [
              14.3278525,
              48.3277213
            ],
            [
              14.3279142,
              48.3277179
            ],
            [
              14.3279813,
              48.3277136
            ],
            [
              14.3280211,
              48.3277136
            ],
            [
              14.3282354,
              48.327718
            ],
            [
              14.3286115,
              48.327739
            ],
            [
              14.3287615,
              48.3277474
            ],
            [
              14.329068,
              48.3277646
            ],
            [
              14.3293115,
              48.327778
            ],
            [
              14.3293671,
              48.3277811
            ],
            [
              14.3295743,
              48.327788
            ],
            [
              14.3296577,
              48.3277847
            ],
            [
              14.329703,
              48.3277829
            ],
            [
              14.3297922,
              48.3277763
            ],
            [
              14.3300433,
              48.3277452
            ],
            [
              14.3303899,
              48.3277023
            ],
            [
              14.3304658,
              48.3276929
            ],
            [
              14.330501,
              48.3276887
            ],
            [
              14.3305242,
              48.3276857
            ],
            [
              14.3305463,
              48.3276833
            ],
            [
              14.3308316,
              48.3276476
            ],
            [
              14.3309903,
              48.3276313
            ],
            [
              14.331173,
              48.3276208
            ],
            [
              14.3313624,
              48.3276214
            ],
            [
              14.3315877,
              48.3276372
            ],
            [
              14.3320559,
              48.3276738
            ],
            [
              14.3323394,
              48.327696
            ],
            [
              14.3326351,
              48.3277163
            ],
            [
              14.3328029,
              48.3277209
            ],
            [
              14.3331188,
              48.327712
            ],
            [
              14.3332303,
              48.3277089
            ],
            [
              14.33337,
              48.3277035
            ],
            [
              14.3334395,
              48.3277008
            ],
            [
              14.3336598,
              48.3276922
            ],
            [
              14.3337155,
              48.32769
            ],
            [
              14.3338082,
              48.3276864
            ],
            [
              14.3340769,
              48.3276759
            ],
            [
              14.3344916,
              48.3276597
            ],
            [
              14.3345711,
              48.3276551
            ],
            [
              14.3346367,
              48.3276514
            ],
            [
              14.3346973,
              48.3276473
            ],
            [
              14.3348126,
              48.3276396
            ],
            [
              14.3350739,
              48.3276175
            ],
            [
              14.3352548,
              48.3275864
            ],
            [
              14.3353998,
              48.3275503
            ],
            [
              14.3355374,
              48.3274993
            ],
            [
              14.3356907,
              48.3274246
            ],
            [
              14.3357867,
              48.3273635
            ],
            [
              14.3358699,
              48.3272949
            ],
            [
              14.3359938,
              48.3271798
            ],
            [
              14.3361266,
              48.3270692
            ],
            [
              14.3362208,
              48.3270045
            ],
            [
              14.3363423,
              48.3269412
            ],
            [
              14.3365167,
              48.3268731
            ],
            [
              14.3367218,
              48.3268086
            ],
            [
              14.3370392,
              48.326716
            ],
            [
              14.3373078,
              48.3266363
            ],
            [
              14.3374682,
              48.326585
            ],
            [
              14.3375219,
              48.3265679
            ],
            [
              14.3375849,
              48.3265438
            ],
            [
              14.337655,
              48.326517
            ],
            [
              14.3377332,
              48.326483
            ],
            [
              14.3378289,
              48.3264375
            ],
            [
              14.3379371,
              48.3263814
            ],
            [
              14.3380742,
              48.3262908
            ],
            [
              14.3381532,
              48.3262353
            ],
            [
              14.3382555,
              48.3261537
            ],
            [
              14.3383151,
              48.3260975
            ],
            [
              14.3383306,
              48.3260828
            ],
            [
              14.3384017,
              48.3260065
            ],
            [
              14.3384748,
              48.3259214
            ],
            [
              14.3385165,
              48.3258639
            ],
            [
              14.3385462,
              48.3258228
            ],
            [
              14.3385925,
              48.3257425
            ],
            [
              14.3388938,
              48.3251298
            ],
            [
              14.339096,
              48.3247844
            ],
            [
              14.3391777,
              48.3246635
            ],
            [
              14.3392314,
              48.3245851
            ],
            [
              14.3393293,
              48.3244506
            ],
            [
              14.3395817,
              48.3241244
            ],
            [
              14.3395861,
              48.3241188
            ],
            [
              14.3396269,
              48.3240676
            ],
            [
              14.3397847,
              48.3238695
            ],
            [
              14.339996,
              48.3236043
            ],
            [
              14.3400023,
              48.3235959
            ],
            [
              14.34003,
              48.3235584
            ],
            [
              14.3401404,
              48.3234095
            ],
            [
              14.3401985,
              48.3233312
            ],
            [
              14.340334,
              48.323125
            ],
            [
              14.3403678,
              48.3230736
            ],
            [
              14.3404382,
              48.3229506
            ],
            [
              14.3404756,
              48.3228852
            ],
            [
              14.3405099,
              48.3228252
            ],
            [
              14.34054,
              48.3227631
            ],
            [
              14.3405516,
              48.3227392
            ],
            [
              14.3406077,
              48.3226233
            ],
            [
              14.3406502,
              48.3225207
            ],
            [
              14.340675,
              48.3224459
            ],
            [
              14.3407448,
              48.3222132
            ],
            [
              14.3407611,
              48.3221593
            ],
            [
              14.3407701,
              48.3221298
            ],
            [
              14.3408775,
              48.3217754
            ],
            [
              14.3409002,
              48.3216904
            ],
            [
              14.3409199,
              48.3216288
            ],
            [
              14.3409434,
              48.3215309
            ],
            [
              14.3409615,
              48.3214483
            ],
            [
              14.3409599,
              48.3213474
            ],
            [
              14.3409473,
              48.3212304
            ],
            [
              14.3409127,
              48.3211199
            ],
            [
              14.3408506,
              48.3210177
            ],
            [
              14.3407498,
              48.320899
            ],
            [
              14.3404541,
              48.3206132
            ],
            [
              14.3401029,
              48.3202804
            ],
            [
              14.3398684,
              48.3200549
            ],
            [
              14.3398193,
              48.3200079
            ],
            [
              14.3396569,
              48.3198524
            ],
            [
              14.3395832,
              48.3197793
            ],
            [
              14.3395216,
              48.3197023
            ],
            [
              14.3395119,
              48.3196866
            ],
            [
              14.3394182,
              48.3195327
            ],
            [
              14.33937,
              48.3194471
            ],
            [
              14.3392833,
              48.319295
            ],
            [
              14.3392456,
              48.3192323
            ],
            [
              14.3392072,
              48.3191691
            ],
            [
              14.3391842,
              48.319124
            ],
            [
              14.3390587,
              48.3191562
            ],
            [
              14.3389298,
              48.3191937
            ],
            [
              14.338792,
              48.3192416
            ],
            [
              14.3386972,
              48.3192951
            ],
            [
              14.3386212,
              48.3193607
            ],
            [
              14.3385617,
              48.3194479
            ],
            [
              14.3385238,
              48.3195433
            ],
            [
              14.3384481,
              48.3197894
            ],
            [
              14.3383467,
              48.3200022
            ],
            [
              14.3383079,
              48.3200554
            ],
            [
              14.3382828,
              48.3200899
            ],
            [
              14.3382771,
              48.3200977
            ],
            [
              14.3382574,
              48.3201192
            ],
            [
              14.3381119,
              48.3202782
            ],
            [
              14.3379657,
              48.3204426
            ],
            [
              14.3375696,
              48.3207707
            ],
            [
              14.3372188,
              48.3210475
            ],
            [
              14.3371774,
              48.3210734
            ],
            [
              14.3371729,
              48.3210756
            ],
            [
              14.3370465,
              48.3211376
            ],
            [
              14.3369324,
              48.3211935
            ],
            [
              14.336838,
              48.321253
            ],
            [
              14.3367978,
              48.3212783
            ],
            [
              14.3367304,
              48.3213208
            ],
            [
              14.3366526,
              48.3213958
            ],
            [
              14.3365792,
              48.3214666
            ],
            [
              14.3364606,
              48.3215488
            ],
            [
              14.3363669,
              48.3216137
            ],
            [
              14.3357615,
              48.3212629
            ],
            [
              14.3357656,
              48.3211951
            ],
            [
              14.3356738,
              48.3211003
            ],
            [
              14.3356026,
              48.3210736
            ],
            [
              14.3355824,
              48.3210742
            ],
            [
              14.3355228,
              48.3210826
            ],
            [
              14.3354771,
              48.3211144
            ],
            [
              14.3354625,
              48.321157
            ],
            [
              14.3354909,
              48.3211941
            ],
            [
              14.3355204,
              48.3212204
            ]
          ],
          [
            [
              14.2715363,
              48.3163504
            ],
            [
              14.2714703,
              48.3164869
            ]
          ],
          [
            [
              14.2770574,
              48.310826
            ],
            [
              14.2769237,
              48.3108865
            ]
          ],
          [
            [
              14.2801164,
              48.3119457
            ],
            [
              14.2805972,
              48.3121284
            ]
          ],
          [
            [
              14.2816971,
              48.3131242
            ],
            [
              14.2817463,
              48.313103
            ],
            [
              14.2818083,
              48.3129955
            ],
            [
              14.2817744,
              48.3129859
            ]
          ],
          [
            [
              14.2936118,
              48.3220018
            ],
            [
              14.2936192,
              48.3219765
            ],
            [
              14.2935329,
              48.3219352
            ],
            [
              14.293428,
              48.3218907
            ],
            [
              14.2933806,
              48.3218955
            ]
          ],
          [
            [
              14.2952572,
              48.3230337
            ],
            [
              14.2953884,
              48.3231245
            ]
          ],
          [
            [
              14.3033055,
              48.3270298
            ],
            [
              14.303245,
              48.3270132
            ],
            [
              14.3030474,
              48.3269339
            ],
            [
              14.303014,
              48.3269121
            ]
          ],
          [
            [
              14.3093543,
              48.3287654
            ],
            [
              14.3093622,
              48.3287581
            ],
            [
              14.3094105,
              48.3287777
            ],
            [
              14.3095379,
              48.3288138
            ],
            [
              14.3095319,
              48.328823
            ]
          ],
          [
            [
              14.3219688,
              48.3286949
            ],
            [
              14.3219706,
              48.3286676
            ],
            [
              14.3223433,
              48.3285622
            ]
          ],
          [
            [
              14.3339519,
              48.3277592
            ],
            [
              14.3337624,
              48.32776
            ],
            [
              14.3336976,
              48.327753
            ]
          ],
          [
            [
              14.3385228,
              48.3259828
            ],
            [
              14.3384563,
              48.3260687
            ],
            [
              14.3383945,
              48.326135
            ]
          ],
          [
            [
              14.3410068,
              48.3216742
            ],
            [
              14.3410496,
              48.3215122
            ]
          ],
          [
            [
              14.3393515,
              48.319228
            ],
            [
              14.339433,
              48.3193772
            ]
          ],
          [
            [
              14.3354825,
              48.321222
            ],
            [
              14.335542,
              48.3212483
            ],
            [
              14.3356032,
              48.3212755
            ]
          ]
        ]
      },
      "id": "relation/1149345"
    }
  ]
}