{
  "type": "FeatureCollection",
  "features": [
    {
      "type": "Feature",
      "properties": {
        "@id": "relation/1147282",
        "alternate": "no",
        "colour": "#51bc4a",
        "from": "Turmstraße",
        "name": "Bus 103: Turmstraße => Lißfeld => Turmstraße",
        "network": "Oberösterreichischer Verkehrsverbund",
        "network:short": "OÖVV",
        "network:wikidata": "Q2011605",
        "network:wikipedia": "de:Oberösterreichischer Verkehrsverbund",
        "operator": "Linz Linien GmbH",
        "public_transport:version": "2",
        "ref": "103",
        "roundtrip": "yes",
        "route": "bus",
        "to": "Ringführung zur Turmstraße",
        "type": "route"
      },
      "geometry": {
        "type": "MultiLineString",
        "coordinates": [
          [
            [
              14.3122147,
              48.2762391
            ],
            [
              14.311972,
              48.2761451
            ],
            [
              14.3119067,
              48.2761198
            ],
            [
              14.311972,
              48.2761451
            ],
            [
              14.3122147,
              48.2762391
            ]
          ],
          [
            [
              14.3119067,
              48.2761198
            ],
            [
              14.3118656,
              48.2761026
            ],
            [
              14.3118255,
              48.2760858
            ],
            [
              14.3118656,
              48.2761026
            ],
            [
              14.3119067,
              48.2761198
            ]
          ],
          [
            [
              14.3118255,
              48.2760858
            ],
            [
              14.3117709,
              48.276063
            ],
            [
              14.3116837,
              48.2760252
            ],
            [
              14.3114905,
              48.2759416
            ],
            [
              14.3116837,
              48.2760252
            ],
            [
              14.3117709,
              48.276063
            ],
            [
              14.3118255,
              48.2760858
            ]
          ],
          [
            [
              14.3100778,
              48.2753492
            ],
            [
              14.3099229,
              48.275293
            ],
            [
              14.3096647,
              48.2752169
            ],
            [
              14.3093646,
              48.2751569
            ],
            [
              14.3092025,
              48.2751339
            ],
            [
              14.3090679,
              48.2751186
            ],
            [
              14.3089724,
              48.2751076
            ],
            [
              14.3075556,
              48.2749443
            ],
            [
              14.3075356,
              48.2749405
            ],
            [
              14.3073548,
              48.2749082
            ],
            [
              14.3072236,
              48.274873
            ],
            [
              14.3071234,
              48.2748376
            ],
            [
              14.306796,
              48.2746751
            ],
            [
              14.3064356,
              48.2744927
            ],
            [
              14.3063885,
              48.2744724
            ],
            [
              14.3062462,
              48.2744105
            ],
            [
              14.3061154,
              48.2743626
            ],
            [
              14.3060358,
              48.2743442
            ],
            [
              14.3059741,
              48.2743299
            ],
            [
              14.3058358,
              48.2743009
            ],
            [
              14.3056871,
              48.2742798
            ],
            [
              14.3054559,
              48.2742339
            ],
            [
              14.3051799,
              48.274157
            ],
            [
              14.3050672,
              48.2741131
            ],
            [
              14.3048947,
              48.2740469
            ],
            [
              14.3036799,
              48.2735879
            ],
            [
              14.3036552,
              48.2735785
            ],
            [
              14.303603,
              48.2735588
            ],
            [
              14.3034964,
              48.2735216
            ],
            [
              14.3033315,
              48.273464
            ],
            [
              14.3030997,
              48.273383
            ],
            [
              14.3029335,
              48.2733236
            ],
            [
              14.3028854,
              48.2733064
            ],
            [
              14.3027817,
              48.2732694
            ],
            [
              14.3027381,
              48.2732538
            ],
            [
              14.3019112,
              48.2729538
            ],
            [
              14.3018633,
              48.2729366
            ],
            [
              14.3010633,
              48.2726319
            ],
            [
              14.3010007,
              48.2726081
            ],
            [
              14.300864,
              48.2725544
            ],
            [
              14.3005021,
              48.2723949
            ],
            [
              14.300123,
              48.2722277
            ],
            [
              14.299924,
              48.2721419
            ],
            [
              14.299828,
              48.2720982
            ],
            [
              14.299647,
              48.2720159
            ],
            [
              14.2993861,
              48.2718972
            ],
            [
              14.2992275,
              48.271825
            ],
            [
              14.2991019,
              48.2717538
            ],
            [
              14.2989267,
              48.2716544
            ],
            [
              14.2987638,
              48.271562
            ],
            [
              14.2986973,
              48.2715243
            ],
            [
              14.2984452,
              48.271378
            ],
            [
              14.2983071,
              48.2712893
            ],
            [
              14.2981946,
              48.2712228
            ],
            [
              14.2981709,
              48.2712093
            ],
            [
              14.2979405,
              48.2711062
            ],
            [
              14.2970555,
              48.2707103
            ],
            [
              14.2965143,
              48.2704682
            ],
            [
              14.2964679,
              48.2704364
            ],
            [
              14.2964509,
              48.2704028
            ],
            [
              14.2964509,
              48.2703672
            ],
            [
              14.2964685,
              48.2703344
            ],
            [
              14.2964768,
              48.2703238
            ],
            [
              14.2965195,
              48.2702759
            ],
            [
              14.2973307,
              48.2694351
            ],
            [
              14.2973774,
              48.2694067
            ],
            [
              14.2974392,
              48.2693895
            ],
            [
              14.2974993,
              48.2693879
            ],
            [
              14.2975648,
              48.2694031
            ],
            [
              14.2976443,
              48.2694305
            ],
            [
              14.2977283,
              48.2694608
            ],
            [
              14.2981107,
              48.2696209
            ],
            [
              14.2981914,
              48.2696547
            ],
            [
              14.2984174,
              48.2697493
            ],
            [
              14.2984745,
              48.2697732
            ],
            [
              14.2985773,
              48.2698163
            ],
            [
              14.2986478,
              48.2698458
            ],
            [
              14.2987194,
              48.2698758
            ],
            [
              14.2991454,
              48.2700541
            ],
            [
              14.2994199,
              48.270169
            ],
            [
              14.2994483,
              48.2701809
            ],
            [
              14.2994682,
              48.2701932
            ],
            [
              14.2995728,
              48.2702578
            ],
            [
              14.2996957,
              48.270178
            ],
            [
              14.2998443,
              48.2701035
            ],
            [
              14.2999282,
              48.2700591
            ],
            [
              14.2999771,
              48.2700332
            ],
            [
              14.3001259,
              48.2699385
            ],
            [
              14.3005199,
              48.2696876
            ],
            [
              14.3006241,
              48.2696213
            ],
            [
              14.3006545,
              48.2695949
            ],
            [
              14.300725,
              48.2695257
            ],
            [
              14.3007708,
              48.2694763
            ],
            [
              14.3008589,
              48.2693739
            ],
            [
              14.3009442,
              48.2692746
            ],
            [
              14.300984,
              48.2692284
            ],
            [
              14.3011514,
              48.2690337
            ],
            [
              14.3013116,
              48.2688474
            ],
            [
              14.3013632,
              48.2687836
            ],
            [
              14.3013973,
              48.2687753
            ],
            [
              14.3014308,
              48.2687816
            ],
            [
              14.3017431,
              48.2688879
            ],
            [
              14.3017949,
              48.2689055
            ],
            [
              14.301806,
              48.2689093
            ],
            [
              14.3021549,
              48.2690274
            ],
            [
              14.3022039,
              48.269044
            ],
            [
              14.3023451,
              48.2690926
            ],
            [
              14.3024363,
              48.2691239
            ],
            [
              14.3026926,
              48.269212
            ],
            [
              14.3027695,
              48.2692395
            ],
            [
              14.3031963,
              48.2693923
            ],
            [
              14.3032403,
              48.2694081
            ],
            [
              14.3034461,
              48.2694918
            ],
            [
              14.3036557,
              48.269586
            ],
            [
              14.3037785,
              48.2696451
            ],
            [
              14.3038071,
              48.2696589
            ],
            [
              14.3039229,
              48.2697147
            ],
            [
              14.3039763,
              48.2697441
            ],
            [
              14.3040153,
              48.2697656
            ],
            [
              14.3040295,
              48.2697734
            ],
            [
              14.3042166,
              48.2698765
            ],
            [
              14.304489,
              48.2700416
            ],
            [
              14.3047102,
              48.2701755
            ],
            [
              14.3047483,
              48.2701985
            ],
            [
              14.304947,
              48.2703173
            ],
            [
              14.3052718,
              48.2705116
            ],
            [
              14.305321,
              48.270541
            ],
            [
              14.3053865,
              48.2705847
            ],
            [
              14.3053985,
              48.2705927
            ],
            [
              14.305498,
              48.270659
            ],
            [
              14.3055653,
              48.2707053
            ],
            [
              14.3057569,
              48.2708371
            ],
            [
              14.3058165,
              48.2708781
            ],
            [
              14.306235,
              48.2711961
            ],
            [
              14.3062762,
              48.2712277
            ],
            [
              14.3063669,
              48.2712971
            ],
            [
              14.3064826,
              48.2713861
            ],
            [
              14.3065794,
              48.2714601
            ],
            [
              14.3066737,
              48.2715322
            ],
            [
              14.3067308,
              48.271576
            ],
            [
              14.3068226,
              48.2716375
            ],
            [
              14.3068655,
              48.2716662
            ],
            [
              14.3069256,
              48.2717064
            ],
            [
              14.3070192,
              48.271769
            ],
            [
              14.3071095,
              48.271826
            ],
            [
              14.3071285,
              48.271838
            ],
            [
              14.3071818,
              48.2718716
            ],
            [
              14.3072824,
              48.271935
            ],
            [
              14.3073297,
              48.2719649
            ],
            [
              14.3074718,
              48.2720492
            ],
            [
              14.3075063,
              48.2720696
            ],
            [
              14.307652,
              48.272156
            ],
            [
              14.30777,
              48.2722207
            ],
            [
              14.3078692,
              48.272275
            ],
            [
              14.307958,
              48.2723219
            ],
            [
              14.3081034,
              48.2723985
            ],
            [
              14.308299,
              48.2724853
            ],
            [
              14.3083922,
              48.2725247
            ],
            [
              14.3086176,
              48.27262
            ],
            [
              14.3087994,
              48.2727119
            ],
            [
              14.3088261,
              48.2727254
            ],
            [
              14.3088573,
              48.2727412
            ],
            [
              14.309043,
              48.272835
            ],
            [
              14.3091766,
              48.2729033
            ],
            [
              14.3093139,
              48.2729736
            ],
            [
              14.3094727,
              48.2730483
            ],
            [
              14.3095298,
              48.2730795
            ],
            [
              14.3096117,
              48.2731243
            ],
            [
              14.3096328,
              48.2731374
            ],
            [
              14.3097887,
              48.2732341
            ],
            [
              14.3099238,
              48.2733361
            ],
            [
              14.3099568,
              48.2733611
            ],
            [
              14.3099792,
              48.2733795
            ],
            [
              14.3100351,
              48.2734253
            ],
            [
              14.3101284,
              48.2735046
            ],
            [
              14.3101637,
              48.2735346
            ],
            [
              14.31024,
              48.273596
            ],
            [
              14.3103169,
              48.2736579
            ],
            [
              14.310467,
              48.2737694
            ],
            [
              14.3105145,
              48.2738046
            ],
            [
              14.3105676,
              48.2738408
            ],
            [
              14.3107122,
              48.2739393
            ],
            [
              14.3107881,
              48.2739873
            ],
            [
              14.3108392,
              48.2740196
            ],
            [
              14.3111292,
              48.2742386
            ],
            [
              14.3112635,
              48.2743433
            ],
            [
              14.3113944,
              48.2744562
            ],
            [
              14.3115262,
              48.2745765
            ],
            [
              14.3116243,
              48.2746775
            ],
            [
              14.3116826,
              48.2747218
            ],
            [
              14.3117619,
              48.2747541
            ],
            [
              14.3118643,
              48.274776
            ],
            [
              14.3118221,
              48.2748787
            ],
            [
              14.3117968,
              48.2749496
            ],
            [
              14.311774,
              48.2750064
            ],
            [
              14.3117155,
              48.2751746
            ],
            [
              14.3116444,
              48.2754392
            ],
            [
              14.3115667,
              48.2757115
            ],
            [
              14.3115262,
              48.2758464
            ],
            [
              14.3114905,
              48.2759416
            ],
            [
              14.3113083,
              48.2758615
            ],
            [
              14.3108944,
              48.2756805
            ],
            [
              14.3100778,
              48.2753492
            ]
          ],
          [
            [
              14.3124256,
              48.2761555
            ],
            [
              14.3121648,
              48.2760725
            ],
            [
              14.3124256,
              48.2761555
            ]
          ]
        ]
      },
      "id": "relation/1147282"
    }
  ]
}