{
  "type": "FeatureCollection",
  "features": [
    {
      "type": "Feature",
      "properties": {
        "@id": "relation/403815",
        "alternate": "no",
        "colour": "#e4ae44",
        "from": "Urnenhain Urfahr",
        "gtfs:feed": "AT-Linz_AG",
        "gtfs:route_id": "at:esg:101:",
        "gtfs:shape_id": "4-101-E-e25-1.3.H",
        "gtfs:trip_id:like": "%4-101-E-e25-1.3.H",
        "gtfs:trip_id:sample": "108.TA.4-101-E-e25-1.3.H",
        "name": "Bus 101: Urnenhain Urfahr => Aichinger",
        "network": "Oberösterreichischer Verkehrsverbund",
        "network:short": "OÖVV",
        "network:wikidata": "Q2011605",
        "network:wikipedia": "de:Oberösterreichischer Verkehrsverbund",
        "operator": "Linz Linien GmbH",
        "public_transport:version": "2",
        "ref": "101",
        "route": "bus",
        "to": "Aichinger",
        "type": "route"
      },
      "geometry": {
        "type": "MultiLineString",
        "coordinates": [
          [
            [
              14.2935182,
              48.3242308
            ],
            [
              14.2935213,
              48.3241777
            ],
            [
              14.2935394,
              48.3241316
            ],
            [
              14.2936062,
              48.3241457
            ],
            [
              14.2937001,
              48.324158
            ],
            [
              14.2938056,
              48.3241659
            ],
            [
              14.2939217,
              48.3241659
            ],
            [
              14.2940298,
              48.3241587
            ],
            [
              14.2941648,
              48.324144
            ],
            [
              14.294304,
              48.3241218
            ],
            [
              14.2944436,
              48.3240882
            ],
            [
              14.2946266,
              48.3240316
            ],
            [
              14.2948083,
              48.3239716
            ],
            [
              14.2948645,
              48.323953
            ],
            [
              14.2950493,
              48.323884
            ],
            [
              14.2951637,
              48.3238356
            ],
            [
              14.2953073,
              48.3237624
            ],
            [
              14.295463,
              48.3236668
            ],
            [
              14.295644,
              48.3235516
            ],
            [
              14.2957918,
              48.3234423
            ],
            [
              14.2958569,
              48.3233992
            ],
            [
              14.2959236,
              48.3233567
            ],
            [
              14.2959858,
              48.3233958
            ],
            [
              14.2960252,
              48.3234204
            ],
            [
              14.2962176,
              48.3235414
            ],
            [
              14.2963503,
              48.3236249
            ],
            [
              14.2965446,
              48.3237396
            ],
            [
              14.2966682,
              48.323796
            ],
            [
              14.2968072,
              48.3238518
            ],
            [
              14.2969757,
              48.3239056
            ],
            [
              14.2971273,
              48.3239435
            ],
            [
              14.2973396,
              48.3239801
            ],
            [
              14.2976529,
              48.3240199
            ],
            [
              14.2978785,
              48.3240373
            ],
            [
              14.2980697,
              48.3240432
            ],
            [
              14.2981361,
              48.3240452
            ],
            [
              14.2983094,
              48.3240505
            ],
            [
              14.2986343,
              48.3240493
            ],
            [
              14.2988082,
              48.3240482
            ],
            [
              14.2989608,
              48.3240502
            ],
            [
              14.2990923,
              48.3240572
            ],
            [
              14.2991926,
              48.3240662
            ],
            [
              14.299291,
              48.3240817
            ],
            [
              14.2993814,
              48.3241021
            ],
            [
              14.2994864,
              48.3241332
            ],
            [
              14.2995456,
              48.3241567
            ],
            [
              14.2996238,
              48.3241943
            ],
            [
              14.2996568,
              48.3242153
            ],
            [
              14.2996976,
              48.3242413
            ],
            [
              14.2997878,
              48.3243126
            ],
            [
              14.2998884,
              48.3244095
            ],
            [
              14.2999007,
              48.3244214
            ],
            [
              14.2999903,
              48.3245078
            ],
            [
              14.3001809,
              48.324692
            ],
            [
              14.3003927,
              48.324893
            ],
            [
              14.3006519,
              48.3251281
            ],
            [
              14.300783,
              48.325234
            ],
            [
              14.3009301,
              48.3253529
            ],
            [
              14.3009552,
              48.3253721
            ],
            [
              14.3010281,
              48.3254279
            ],
            [
              14.3011394,
              48.3255113
            ],
            [
              14.3012008,
              48.3255581
            ],
            [
              14.3013362,
              48.3256681
            ],
            [
              14.3015183,
              48.3258086
            ],
            [
              14.3016145,
              48.3258849
            ],
            [
              14.301712,
              48.3259622
            ],
            [
              14.3018417,
              48.3260659
            ],
            [
              14.3019177,
              48.3261248
            ],
            [
              14.3019728,
              48.3261676
            ],
            [
              14.3019888,
              48.32618
            ],
            [
              14.3020635,
              48.326238
            ],
            [
              14.3022044,
              48.3263473
            ],
            [
              14.3023738,
              48.3264788
            ],
            [
              14.3024148,
              48.3265043
            ],
            [
              14.3025368,
              48.3265841
            ],
            [
              14.3026348,
              48.3266402
            ],
            [
              14.3028301,
              48.3267373
            ],
            [
              14.3028723,
              48.3267583
            ],
            [
              14.3029385,
              48.3267884
            ],
            [
              14.3029868,
              48.3268176
            ],
            [
              14.3030728,
              48.3268688
            ],
            [
              14.3030966,
              48.3268791
            ],
            [
              14.3031185,
              48.3268888
            ],
            [
              14.3033744,
              48.3269814
            ],
            [
              14.3034968,
              48.3270248
            ],
            [
              14.3035733,
              48.3270471
            ],
            [
              14.3036865,
              48.3270752
            ],
            [
              14.3037248,
              48.3270674
            ],
            [
              14.3037741,
              48.3270643
            ],
            [
              14.3038291,
              48.3270703
            ],
            [
              14.3038837,
              48.3270795
            ],
            [
              14.3039471,
              48.3270931
            ],
            [
              14.3039699,
              48.3271011
            ],
            [
              14.3040092,
              48.3271384
            ],
            [
              14.3042054,
              48.3271727
            ],
            [
              14.3042859,
              48.3271868
            ],
            [
              14.3045565,
              48.3272356
            ],
            [
              14.3046509,
              48.3272552
            ],
            [
              14.3047823,
              48.3272862
            ],
            [
              14.3049331,
              48.3273287
            ],
            [
              14.3050909,
              48.3273781
            ],
            [
              14.3052486,
              48.3274331
            ],
            [
              14.3053914,
              48.3274872
            ],
            [
              14.3055337,
              48.3275507
            ],
            [
              14.3057134,
              48.3276316
            ],
            [
              14.3057615,
              48.3276518
            ],
            [
              14.3058802,
              48.3277016
            ],
            [
              14.3059458,
              48.3277258
            ],
            [
              14.3060128,
              48.3277505
            ],
            [
              14.3061552,
              48.3277986
            ],
            [
              14.3063196,
              48.3278493
            ],
            [
              14.3063563,
              48.3278598
            ],
            [
              14.3066699,
              48.3279474
            ],
            [
              14.3069789,
              48.3280241
            ],
            [
              14.3070517,
              48.3280422
            ],
            [
              14.307251,
              48.328091
            ],
            [
              14.3073366,
              48.3281132
            ],
            [
              14.3073029,
              48.3281722
            ],
            [
              14.3072742,
              48.3282223
            ],
            [
              14.3072145,
              48.3283267
            ],
            [
              14.3071807,
              48.3283859
            ],
            [
              14.307164,
              48.3284152
            ],
            [
              14.3071575,
              48.3284265
            ],
            [
              14.3071048,
              48.3285187
            ],
            [
              14.307059,
              48.3285988
            ],
            [
              14.3070362,
              48.3286386
            ],
            [
              14.3067518,
              48.3291364
            ],
            [
              14.3067297,
              48.3291751
            ],
            [
              14.3066754,
              48.3292701
            ],
            [
              14.3066673,
              48.3292843
            ],
            [
              14.3064538,
              48.3296579
            ],
            [
              14.3064237,
              48.3297106
            ],
            [
              14.3063468,
              48.3296885
            ],
            [
              14.3058587,
              48.3295482
            ],
            [
              14.3054809,
              48.3294396
            ],
            [
              14.3050712,
              48.3293218
            ],
            [
              14.3049996,
              48.3293039
            ],
            [
              14.3047238,
              48.3292376
            ],
            [
              14.3047031,
              48.329272
            ],
            [
              14.3046512,
              48.3293587
            ],
            [
              14.3042911,
              48.3299601
            ],
            [
              14.3042727,
              48.3299907
            ],
            [
              14.3041781,
              48.3301486
            ],
            [
              14.3039255,
              48.3305704
            ],
            [
              14.3038922,
              48.3306261
            ],
            [
              14.3038293,
              48.3306092
            ],
            [
              14.3035489,
              48.3305339
            ],
            [
              14.3035172,
              48.3305254
            ],
            [
              14.303394,
              48.3304923
            ],
            [
              14.3032497,
              48.3304536
            ],
            [
              14.3030887,
              48.3304104
            ],
            [
              14.3030029,
              48.3303873
            ],
            [
              14.3029714,
              48.3303806
            ],
            [
              14.3029581,
              48.3303775
            ],
            [
              14.3028393,
              48.3303514
            ],
            [
              14.3028134,
              48.3304161
            ],
            [
              14.302771,
              48.3305546
            ],
            [
              14.3027494,
              48.3306325
            ],
            [
              14.3027031,
              48.3307916
            ],
            [
              14.3026813,
              48.3308665
            ],
            [
              14.3026012,
              48.3311413
            ],
            [
              14.3024949,
              48.3315061
            ],
            [
              14.3024714,
              48.3315745
            ],
            [
              14.3024658,
              48.331591
            ],
            [
              14.3024148,
              48.3317277
            ],
            [
              14.3023473,
              48.3318903
            ],
            [
              14.3022705,
              48.3320765
            ],
            [
              14.3022432,
              48.3321359
            ],
            [
              14.3022077,
              48.3322119
            ],
            [
              14.3021677,
              48.3322857
            ],
            [
              14.3021191,
              48.332396
            ],
            [
              14.3020565,
              48.3325118
            ],
            [
              14.3019927,
              48.3326125
            ],
            [
              14.3019629,
              48.3326455
            ],
            [
              14.3019319,
              48.3326677
            ],
            [
              14.3018428,
              48.3327161
            ],
            [
              14.3015778,
              48.3330058
            ],
            [
              14.3011559,
              48.3334565
            ],
            [
              14.3009878,
              48.3336368
            ],
            [
              14.3009732,
              48.3336525
            ],
            [
              14.3008861,
              48.3337458
            ],
            [
              14.3008678,
              48.3337654
            ],
            [
              14.3008024,
              48.3338459
            ],
            [
              14.3007495,
              48.3339182
            ],
            [
              14.3007014,
              48.3339918
            ],
            [
              14.3006948,
              48.3340039
            ],
            [
              14.3006882,
              48.3340159
            ],
            [
              14.3006682,
              48.3340537
            ],
            [
              14.3006574,
              48.3340791
            ],
            [
              14.3006397,
              48.3341237
            ],
            [
              14.3006284,
              48.3341686
            ],
            [
              14.3006229,
              48.3342354
            ],
            [
              14.3006245,
              48.3343008
            ],
            [
              14.3006373,
              48.3346661
            ],
            [
              14.3006425,
              48.3347715
            ],
            [
              14.3006543,
              48.3348471
            ],
            [
              14.3006648,
              48.334883
            ],
            [
              14.3006738,
              48.334916
            ],
            [
              14.3006828,
              48.3349357
            ],
            [
              14.3006964,
              48.3349657
            ],
            [
              14.3007297,
              48.335035
            ],
            [
              14.3007859,
              48.3351299
            ],
            [
              14.3008428,
              48.3352122
            ],
            [
              14.3008697,
              48.3352551
            ],
            [
              14.3008939,
              48.3352992
            ],
            [
              14.3009081,
              48.3353395
            ],
            [
              14.300917,
              48.3353748
            ],
            [
              14.3009306,
              48.3354361
            ],
            [
              14.3009405,
              48.3355022
            ],
            [
              14.3010175,
              48.3361822
            ],
            [
              14.3010175,
              48.3362422
            ],
            [
              14.3010134,
              48.3362697
            ],
            [
              14.3010095,
              48.3362984
            ],
            [
              14.3010038,
              48.3363276
            ],
            [
              14.3009655,
              48.3364145
            ],
            [
              14.3009373,
              48.336465
            ],
            [
              14.3009359,
              48.3364679
            ],
            [
              14.3009078,
              48.3365143
            ],
            [
              14.3008626,
              48.3365912
            ],
            [
              14.3008561,
              48.3366019
            ],
            [
              14.3008001,
              48.3366935
            ],
            [
              14.3007599,
              48.3367671
            ],
            [
              14.3007179,
              48.3368608
            ],
            [
              14.300678,
              48.3369641
            ],
            [
              14.3006553,
              48.3370546
            ],
            [
              14.3006298,
              48.3371878
            ],
            [
              14.3006171,
              48.3373133
            ],
            [
              14.3006016,
              48.3374041
            ],
            [
              14.3005713,
              48.3375249
            ],
            [
              14.3005235,
              48.3376307
            ],
            [
              14.3004718,
              48.3377291
            ],
            [
              14.3003818,
              48.3378862
            ],
            [
              14.3003126,
              48.3379934
            ],
            [
              14.300229,
              48.3380936
            ],
            [
              14.3001025,
              48.3382254
            ],
            [
              14.300067,
              48.3382773
            ],
            [
              14.3000588,
              48.3383233
            ],
            [
              14.3000757,
              48.3383682
            ],
            [
              14.3001037,
              48.3383976
            ],
            [
              14.300137,
              48.3384105
            ],
            [
              14.3001577,
              48.3384185
            ],
            [
              14.3002288,
              48.3384226
            ],
            [
              14.3003053,
              48.338405
            ],
            [
              14.3003643,
              48.3383672
            ],
            [
              14.3004555,
              48.3382026
            ],
            [
              14.3005072,
              48.3381172
            ],
            [
              14.3005744,
              48.3380116
            ],
            [
              14.3006605,
              48.3379112
            ],
            [
              14.3007595,
              48.3378222
            ],
            [
              14.300865,
              48.3377471
            ],
            [
              14.3009857,
              48.3376551
            ],
            [
              14.3011085,
              48.3375492
            ],
            [
              14.3012227,
              48.3374426
            ],
            [
              14.3013013,
              48.3373692
            ],
            [
              14.3015323,
              48.3371381
            ],
            [
              14.3016698,
              48.3370407
            ],
            [
              14.3018019,
              48.3369687
            ],
            [
              14.3018301,
              48.3369556
            ],
            [
              14.3018839,
              48.3369304
            ],
            [
              14.3019501,
              48.3368995
            ],
            [
              14.3021044,
              48.3368492
            ],
            [
              14.3022642,
              48.3368092
            ],
            [
              14.3023482,
              48.3367931
            ],
            [
              14.3024283,
              48.3367777
            ],
            [
              14.3025955,
              48.3367497
            ],
            [
              14.3027474,
              48.3367144
            ],
            [
              14.3028868,
              48.3366714
            ],
            [
              14.3030229,
              48.3366164
            ],
            [
              14.3031073,
              48.3365662
            ],
            [
              14.3032027,
              48.3365094
            ],
            [
              14.3032888,
              48.3364794
            ],
            [
              14.3033235,
              48.3364712
            ],
            [
              14.3033996,
              48.3364632
            ],
            [
              14.303499,
              48.3364641
            ],
            [
              14.3036686,
              48.3364692
            ],
            [
              14.303808,
              48.3364737
            ],
            [
              14.3042283,
              48.3364851
            ],
            [
              14.3042711,
              48.3364863
            ],
            [
              14.3043605,
              48.3365032
            ],
            [
              14.3044305,
              48.3365287
            ],
            [
              14.3044931,
              48.3365641
            ],
            [
              14.3045037,
              48.3365733
            ],
            [
              14.3045427,
              48.3366072
            ],
            [
              14.3045766,
              48.3366553
            ],
            [
              14.3045915,
              48.3367118
            ],
            [
              14.3045937,
              48.3367554
            ],
            [
              14.3045864,
              48.3367925
            ],
            [
              14.3045623,
              48.3368373
            ],
            [
              14.3045191,
              48.3368914
            ],
            [
              14.304404,
              48.3369831
            ],
            [
              14.3042867,
              48.3370647
            ],
            [
              14.3041584,
              48.3371435
            ],
            [
              14.3041469,
              48.3371497
            ],
            [
              14.3040248,
              48.3372099
            ],
            [
              14.303764,
              48.3373143
            ],
            [
              14.3037144,
              48.3373332
            ],
            [
              14.303444,
              48.337436
            ],
            [
              14.3031967,
              48.3375256
            ],
            [
              14.3030803,
              48.3375783
            ],
            [
              14.3029766,
              48.3376388
            ],
            [
              14.302911,
              48.3376987
            ],
            [
              14.302902,
              48.3377069
            ],
            [
              14.3028343,
              48.337779
            ],
            [
              14.3027938,
              48.3378439
            ],
            [
              14.302769,
              48.3378875
            ],
            [
              14.3027625,
              48.3379047
            ],
            [
              14.3027545,
              48.3379258
            ],
            [
              14.3027492,
              48.3379398
            ],
            [
              14.3027412,
              48.3380053
            ],
            [
              14.3027436,
              48.3380767
            ],
            [
              14.3027754,
              48.3382847
            ],
            [
              14.3027922,
              48.3384116
            ],
            [
              14.3027879,
              48.3384777
            ],
            [
              14.3027731,
              48.3385725
            ],
            [
              14.3027485,
              48.3386436
            ],
            [
              14.3027014,
              48.3387603
            ],
            [
              14.302677,
              48.3388431
            ],
            [
              14.3026672,
              48.3389201
            ],
            [
              14.3026707,
              48.3389868
            ],
            [
              14.3026834,
              48.3390494
            ],
            [
              14.3026895,
              48.3390725
            ],
            [
              14.3027327,
              48.3392032
            ],
            [
              14.3028359,
              48.3395098
            ],
            [
              14.3028656,
              48.3396229
            ],
            [
              14.302885,
              48.3397207
            ],
            [
              14.3028954,
              48.3398236
            ],
            [
              14.3029052,
              48.3399206
            ],
            [
              14.3029403,
              48.3402984
            ],
            [
              14.3029712,
              48.3405417
            ],
            [
              14.3029779,
              48.340654
            ],
            [
              14.3029673,
              48.3407443
            ],
            [
              14.3029345,
              48.3408227
            ],
            [
              14.302879,
              48.3408993
            ],
            [
              14.3025842,
              48.3412522
            ],
            [
              14.3023287,
              48.3415312
            ],
            [
              14.3020722,
              48.3417789
            ],
            [
              14.3020063,
              48.3418527
            ],
            [
              14.3019479,
              48.3419335
            ],
            [
              14.3019046,
              48.3420101
            ],
            [
              14.3018743,
              48.3420871
            ],
            [
              14.301835,
              48.3422118
            ],
            [
              14.3017718,
              48.3424574
            ],
            [
              14.3017335,
              48.3425827
            ],
            [
              14.3016916,
              48.3426979
            ],
            [
              14.3016386,
              48.3427993
            ],
            [
              14.3015756,
              48.3428975
            ],
            [
              14.3014969,
              48.3430008
            ],
            [
              14.3014069,
              48.3430973
            ],
            [
              14.3012943,
              48.3431947
            ],
            [
              14.301169,
              48.3432865
            ],
            [
              14.3010855,
              48.3433374
            ],
            [
              14.3010455,
              48.3433617
            ],
            [
              14.3009133,
              48.3434291
            ],
            [
              14.30077,
              48.3434896
            ],
            [
              14.3006315,
              48.34354
            ],
            [
              14.3004434,
              48.3435968
            ],
            [
              14.3003703,
              48.3436241
            ],
            [
              14.3003305,
              48.3436484
            ],
            [
              14.3003122,
              48.343676
            ],
            [
              14.3003106,
              48.3437149
            ],
            [
              14.3003232,
              48.3437585
            ],
            [
              14.3003521,
              48.3437907
            ],
            [
              14.3003796,
              48.3438069
            ],
            [
              14.3004177,
              48.3438169
            ],
            [
              14.3004875,
              48.3438192
            ],
            [
              14.3005621,
              48.3438067
            ],
            [
              14.3006436,
              48.3437782
            ],
            [
              14.3007838,
              48.3437085
            ],
            [
              14.3009623,
              48.3436303
            ],
            [
              14.3011334,
              48.3435666
            ],
            [
              14.3012953,
              48.3435239
            ],
            [
              14.3014639,
              48.3434922
            ],
            [
              14.301648,
              48.3434693
            ],
            [
              14.3018534,
              48.3434486
            ],
            [
              14.3020486,
              48.3434217
            ],
            [
              14.3021977,
              48.3433959
            ],
            [
              14.3023436,
              48.3433591
            ],
            [
              14.3024789,
              48.3433098
            ],
            [
              14.302617,
              48.3432471
            ],
            [
              14.3027427,
              48.3431769
            ],
            [
              14.302848,
              48.3431011
            ],
            [
              14.3030137,
              48.3429401
            ],
            [
              14.3033679,
              48.342586
            ],
            [
              14.3036827,
              48.3422958
            ],
            [
              14.3038135,
              48.3421926
            ],
            [
              14.3039641,
              48.3420874
            ],
            [
              14.3040651,
              48.3420273
            ],
            [
              14.3041174,
              48.342001
            ],
            [
              14.3041947,
              48.3419626
            ],
            [
              14.3042901,
              48.3419238
            ],
            [
              14.3043467,
              48.3419004
            ],
            [
              14.3043944,
              48.3418814
            ],
            [
              14.3044405,
              48.3418626
            ],
            [
              14.3044702,
              48.3418505
            ],
            [
              14.3044979,
              48.3418392
            ],
            [
              14.3046107,
              48.3417933
            ],
            [
              14.3051728,
              48.3415773
            ],
            [
              14.3053039,
              48.3415112
            ],
            [
              14.3054629,
              48.3414528
            ],
            [
              14.3056141,
              48.3414274
            ],
            [
              14.3058303,
              48.3414163
            ],
            [
              14.3060519,
              48.3414199
            ],
            [
              14.3062522,
              48.3414319
            ],
            [
              14.3064316,
              48.3414547
            ],
            [
              14.3065661,
              48.3414839
            ],
            [
              14.3066922,
              48.3415197
            ],
            [
              14.3068069,
              48.3415618
            ],
            [
              14.3068849,
              48.3416073
            ],
            [
              14.3069812,
              48.3416883
            ],
            [
              14.3070417,
              48.3417595
            ],
            [
              14.3070818,
              48.3417523
            ],
            [
              14.3071161,
              48.3417547
            ],
            [
              14.3072095,
              48.3417865
            ],
            [
              14.307615,
              48.3419865
            ],
            [
              14.3076243,
              48.3419911
            ]
          ],
          [
            [
              14.3010786,
              48.3336892
            ],
            [
              14.3010478,
              48.3336763
            ],
            [
              14.3010946,
              48.3336233
            ],
            [
              14.3011279,
              48.333637
            ]
          ],
          [
            [
              14.3046664,
              48.3294169
            ],
            [
              14.3047253,
              48.3293266
            ]
          ]
        ]
      },
      "id": "relation/403815"
    },
    {
      "type": "Feature",
      "properties": {
        "@id": "relation/1147287",
        "alternate": "no",
        "colour": "#e4ae44",
        "from": "Aichinger",
        "gtfs:feed": "AT-Linz_AG",
        "gtfs:route_id": "at:esg:101:",
        "gtfs:shape_id": "4-101-E-e25-1.1.R",
        "gtfs:trip_id:like": "%4-101-E-e25-1.1.R",
        "gtfs:trip_id:sample": "1.TA.4-101-E-e25-1.1.R",
        "name": "Bus 101: Aichinger => Urnenhain Urfahr",
        "network": "Oberösterreichischer Verkehrsverbund",
        "network:short": "OÖVV",
        "network:wikidata": "Q2011605",
        "network:wikipedia": "de:Oberösterreichischer Verkehrsverbund",
        "operator": "Linz Linien GmbH",
        "public_transport:version": "2",
        "ref": "101",
        "route": "bus",
        "to": "Urnenhain Urfahr",
        "type": "route"
      },
      "geometry": {
        "type": "MultiLineString",
        "coordinates": [
          [
            [
              14.2935182,
              48.3242308
            ],
            [
              14.2935483,
              48.3243106
            ],
            [
              14.2935182,
              48.3242308
            ],
            [
              14.2935213,
              48.3241777
            ],
            [
              14.2935394,
              48.3241316
            ],
            [
              14.2936062,
              48.3241457
            ],
            [
              14.2937001,
              48.324158
            ],
            [
              14.2938056,
              48.3241659
            ],
            [
              14.2939217,
              48.3241659
            ],
            [
              14.2940298,
              48.3241587
            ],
            [
              14.2941648,
              48.324144
            ],
            [
              14.294304,
              48.3241218
            ],
            [
              14.2944436,
              48.3240882
            ],
            [
              14.2946266,
              48.3240316
            ],
            [
              14.2948083,
              48.3239716
            ],
            [
              14.2948645,
              48.323953
            ],
            [
              14.2950493,
              48.323884
            ],
            [
              14.2951637,
              48.3238356
            ],
            [
              14.2953073,
              48.3237624
            ],
            [
              14.295463,
              48.3236668
            ],
            [
              14.295644,
              48.3235516
            ],
            [
              14.295795,
              48.3235251
            ],
            [
              14.2958714,
              48.3235149
            ],
            [
              14.295942,
              48.3235107
            ],
            [
              14.2960141,
              48.3235239
            ],
            [
              14.2963503,
              48.3236249
            ],
            [
              14.2965446,
              48.3237396
            ],
            [
              14.2966682,
              48.323796
            ],
            [
              14.2968072,
              48.3238518
            ],
            [
              14.2969757,
              48.3239056
            ],
            [
              14.2971273,
              48.3239435
            ],
            [
              14.2973396,
              48.3239801
            ],
            [
              14.2976529,
              48.3240199
            ],
            [
              14.2978785,
              48.3240373
            ],
            [
              14.2980697,
              48.3240432
            ],
            [
              14.2981361,
              48.3240452
            ],
            [
              14.2983094,
              48.3240505
            ],
            [
              14.2986343,
              48.3240493
            ],
            [
              14.2988082,
              48.3240482
            ],
            [
              14.2989608,
              48.3240502
            ],
            [
              14.2990923,
              48.3240572
            ],
            [
              14.2991926,
              48.3240662
            ],
            [
              14.299291,
              48.3240817
            ],
            [
              14.2993814,
              48.3241021
            ],
            [
              14.2994864,
              48.3241332
            ],
            [
              14.2995456,
              48.3241567
            ],
            [
              14.2996238,
              48.3241943
            ],
            [
              14.2996568,
              48.3242153
            ],
            [
              14.2996976,
              48.3242413
            ],
            [
              14.2997878,
              48.3243126
            ],
            [
              14.2998884,
              48.3244095
            ],
            [
              14.2999007,
              48.3244214
            ],
            [
              14.2999903,
              48.3245078
            ],
            [
              14.3001809,
              48.324692
            ],
            [
              14.3003927,
              48.324893
            ],
            [
              14.3006519,
              48.3251281
            ],
            [
              14.300783,
              48.325234
            ],
            [
              14.3009301,
              48.3253529
            ],
            [
              14.3009552,
              48.3253721
            ],
            [
              14.3010281,
              48.3254279
            ],
            [
              14.3011394,
              48.3255113
            ],
            [
              14.3012008,
              48.3255581
            ],
            [
              14.3013362,
              48.3256681
            ],
            [
              14.3015183,
              48.3258086
            ],
            [
              14.3016145,
              48.3258849
            ],
            [
              14.301712,
              48.3259622
            ],
            [
              14.3018417,
              48.3260659
            ],
            [
              14.3019177,
              48.3261248
            ],
            [
              14.3019728,
              48.3261676
            ],
            [
              14.3019888,
              48.32618
            ],
            [
              14.3020635,
              48.326238
            ],
            [
              14.3022044,
              48.3263473
            ],
            [
              14.3023738,
              48.3264788
            ],
            [
              14.3024148,
              48.3265043
            ],
            [
              14.3025368,
              48.3265841
            ],
            [
              14.3026348,
              48.3266402
            ],
            [
              14.3028301,
              48.3267373
            ],
            [
              14.3028723,
              48.3267583
            ],
            [
              14.3029385,
              48.3267884
            ],
            [
              14.3029868,
              48.3268176
            ],
            [
              14.3030728,
              48.3268688
            ],
            [
              14.3030966,
              48.3268791
            ],
            [
              14.3031185,
              48.3268888
            ],
            [
              14.3033744,
              48.3269814
            ],
            [
              14.3034968,
              48.3270248
            ],
            [
              14.3035733,
              48.3270471
            ],
            [
              14.3036865,
              48.3270752
            ],
            [
              14.303664,
              48.3271534
            ],
            [
              14.3036539,
              48.3271888
            ],
            [
              14.3036409,
              48.327234
            ],
            [
              14.3035694,
              48.3274827
            ],
            [
              14.3035381,
              48.3275961
            ],
            [
              14.3035029,
              48.3277324
            ],
            [
              14.3034896,
              48.3278143
            ],
            [
              14.3034858,
              48.3278379
            ],
            [
              14.303472,
              48.3279489
            ],
            [
              14.3034637,
              48.3280488
            ],
            [
              14.3034509,
              48.3282613
            ],
            [
              14.3034306,
              48.3285983
            ],
            [
              14.3034299,
              48.3286096
            ],
            [
              14.3034289,
              48.3286258
            ],
            [
              14.3033999,
              48.3290621
            ],
            [
              14.3034787,
              48.3290614
            ],
            [
              14.3034931,
              48.3290605
            ],
            [
              14.3035924,
              48.3290635
            ],
            [
              14.3037479,
              48.3290806
            ],
            [
              14.303973,
              48.3291054
            ],
            [
              14.3040335,
              48.3291143
            ],
            [
              14.3041986,
              48.3291384
            ],
            [
              14.3043142,
              48.3291579
            ],
            [
              14.3044334,
              48.3291782
            ],
            [
              14.3047238,
              48.3292376
            ],
            [
              14.3047031,
              48.329272
            ],
            [
              14.3046512,
              48.3293587
            ],
            [
              14.3042911,
              48.3299601
            ],
            [
              14.3042727,
              48.3299907
            ],
            [
              14.3041781,
              48.3301486
            ],
            [
              14.3039255,
              48.3305704
            ],
            [
              14.3038922,
              48.3306261
            ],
            [
              14.3038293,
              48.3306092
            ],
            [
              14.3035489,
              48.3305339
            ],
            [
              14.3035172,
              48.3305254
            ],
            [
              14.303394,
              48.3304923
            ],
            [
              14.3032497,
              48.3304536
            ],
            [
              14.3030887,
              48.3304104
            ],
            [
              14.3030029,
              48.3303873
            ],
            [
              14.3029714,
              48.3303806
            ],
            [
              14.3029581,
              48.3303775
            ],
            [
              14.3028393,
              48.3303514
            ],
            [
              14.3028134,
              48.3304161
            ],
            [
              14.302771,
              48.3305546
            ],
            [
              14.3027494,
              48.3306325
            ],
            [
              14.3027031,
              48.3307916
            ],
            [
              14.3026813,
              48.3308665
            ],
            [
              14.3026012,
              48.3311413
            ],
            [
              14.3024949,
              48.3315061
            ],
            [
              14.3024714,
              48.3315745
            ],
            [
              14.3024658,
              48.331591
            ],
            [
              14.3024148,
              48.3317277
            ],
            [
              14.3023473,
              48.3318903
            ],
            [
              14.3022705,
              48.3320765
            ],
            [
              14.3022432,
              48.3321359
            ],
            [
              14.3022077,
              48.3322119
            ],
            [
              14.3021677,
              48.3322857
            ],
            [
              14.302045,
              48.3324374
            ],
            [
              14.3019914,
              48.3325044
            ],
            [
              14.3019441,
              48.3325669
            ],
            [
              14.3018925,
              48.3326339
            ],
            [
              14.3018428,
              48.3327161
            ],
            [
              14.3015778,
              48.3330058
            ],
            [
              14.3011559,
              48.3334565
            ],
            [
              14.3009878,
              48.3336368
            ],
            [
              14.3009732,
              48.3336525
            ],
            [
              14.3008861,
              48.3337458
            ],
            [
              14.3008678,
              48.3337654
            ],
            [
              14.3008024,
              48.3338459
            ],
            [
              14.3007495,
              48.3339182
            ],
            [
              14.3007014,
              48.3339918
            ],
            [
              14.3006948,
              48.3340039
            ],
            [
              14.3006882,
              48.3340159
            ],
            [
              14.3006682,
              48.3340537
            ],
            [
              14.3006574,
              48.3340791
            ],
            [
              14.3006397,
              48.3341237
            ],
            [
              14.3006284,
              48.3341686
            ],
            [
              14.3006229,
              48.3342354
            ],
            [
              14.3006245,
              48.3343008
            ],
            [
              14.3006373,
              48.3346661
            ],
            [
              14.3006425,
              48.3347715
            ],
            [
              14.3006543,
              48.3348471
            ],
            [
              14.3006648,
              48.334883
            ],
            [
              14.3006738,
              48.334916
            ],
            [
              14.3006828,
              48.3349357
            ],
            [
              14.3006964,
              48.3349657
            ],
            [
              14.3007297,
              48.335035
            ],
            [
              14.3007859,
              48.3351299
            ],
            [
              14.3008428,
              48.3352122
            ],
            [
              14.3008697,
              48.3352551
            ],
            [
              14.3008939,
              48.3352992
            ],
            [
              14.3009081,
              48.3353395
            ],
            [
              14.300917,
              48.3353748
            ],
            [
              14.3009306,
              48.3354361
            ],
            [
              14.3009405,
              48.3355022
            ],
            [
              14.3010175,
              48.3361822
            ],
            [
              14.3010175,
              48.3362422
            ],
            [
              14.3010134,
              48.3362697
            ],
            [
              14.3010095,
              48.3362984
            ],
            [
              14.3010038,
              48.3363276
            ],
            [
              14.3009655,
              48.3364145
            ],
            [
              14.3009373,
              48.336465
            ],
            [
              14.3009359,
              48.3364679
            ],
            [
              14.3009078,
              48.3365143
            ],
            [
              14.3008626,
              48.3365912
            ],
            [
              14.3008561,
              48.3366019
            ],
            [
              14.3008001,
              48.3366935
            ],
            [
              14.3007599,
              48.3367671
            ],
            [
              14.3007179,
              48.3368608
            ],
            [
              14.300678,
              48.3369641
            ],
            [
              14.3006553,
              48.3370546
            ],
            [
              14.3006298,
              48.3371878
            ],
            [
              14.3006171,
              48.3373133
            ],
            [
              14.3006016,
              48.3374041
            ],
            [
              14.3005713,
              48.3375249
            ],
            [
              14.3005235,
              48.3376307
            ],
            [
              14.3004718,
              48.3377291
            ],
            [
              14.3003818,
              48.3378862
            ],
            [
              14.3003126,
              48.3379934
            ],
            [
              14.300229,
              48.3380936
            ],
            [
              14.3001025,
              48.3382254
            ],
            [
              14.300067,
              48.3382773
            ],
            [
              14.3000588,
              48.3383233
            ],
            [
              14.3000757,
              48.3383682
            ],
            [
              14.3001037,
              48.3383976
            ],
            [
              14.300137,
              48.3384105
            ],
            [
              14.3001577,
              48.3384185
            ],
            [
              14.3002288,
              48.3384226
            ],
            [
              14.3003053,
              48.338405
            ],
            [
              14.3003643,
              48.3383672
            ],
            [
              14.3004555,
              48.3382026
            ],
            [
              14.3005072,
              48.3381172
            ],
            [
              14.3005744,
              48.3380116
            ],
            [
              14.3006605,
              48.3379112
            ],
            [
              14.3007595,
              48.3378222
            ],
            [
              14.300865,
              48.3377471
            ],
            [
              14.3009857,
              48.3376551
            ],
            [
              14.3011085,
              48.3375492
            ],
            [
              14.3012227,
              48.3374426
            ],
            [
              14.3013013,
              48.3373692
            ],
            [
              14.3015323,
              48.3371381
            ],
            [
              14.3016698,
              48.3370407
            ],
            [
              14.3018019,
              48.3369687
            ],
            [
              14.3018301,
              48.3369556
            ],
            [
              14.3018839,
              48.3369304
            ],
            [
              14.3019501,
              48.3368995
            ],
            [
              14.3021044,
              48.3368492
            ],
            [
              14.3022642,
              48.3368092
            ],
            [
              14.3023482,
              48.3367931
            ],
            [
              14.3024283,
              48.3367777
            ],
            [
              14.3025955,
              48.3367497
            ],
            [
              14.3027474,
              48.3367144
            ],
            [
              14.3028868,
              48.3366714
            ],
            [
              14.3030229,
              48.3366164
            ],
            [
              14.3031073,
              48.3365662
            ],
            [
              14.3032027,
              48.3365094
            ],
            [
              14.3032888,
              48.3364794
            ],
            [
              14.3033235,
              48.3364712
            ],
            [
              14.3033996,
              48.3364632
            ],
            [
              14.303499,
              48.3364641
            ],
            [
              14.3036686,
              48.3364692
            ],
            [
              14.303808,
              48.3364737
            ],
            [
              14.3042283,
              48.3364851
            ],
            [
              14.3042711,
              48.3364863
            ],
            [
              14.3043605,
              48.3365032
            ],
            [
              14.3044305,
              48.3365287
            ],
            [
              14.3044931,
              48.3365641
            ],
            [
              14.3045037,
              48.3365733
            ],
            [
              14.3045427,
              48.3366072
            ],
            [
              14.3045766,
              48.3366553
            ],
            [
              14.3045915,
              48.3367118
            ],
            [
              14.3045937,
              48.3367554
            ],
            [
              14.3045864,
              48.3367925
            ],
            [
              14.3045623,
              48.3368373
            ],
            [
              14.3045191,
              48.3368914
            ],
            [
              14.304404,
              48.3369831
            ],
            [
              14.3042867,
              48.3370647
            ],
            [
              14.3041584,
              48.3371435
            ],
            [
              14.3041469,
              48.3371497
            ],
            [
              14.3040248,
              48.3372099
            ],
            [
              14.303764,
              48.3373143
            ],
            [
              14.3037144,
              48.3373332
            ],
            [
              14.303444,
              48.337436
            ],
            [
              14.3031967,
              48.3375256
            ],
            [
              14.3030803,
              48.3375783
            ],
            [
              14.3029766,
              48.3376388
            ],
            [
              14.302911,
              48.3376987
            ],
            [
              14.302902,
              48.3377069
            ],
            [
              14.3028343,
              48.337779
            ],
            [
              14.3027938,
              48.3378439
            ],
            [
              14.302769,
              48.3378875
            ],
            [
              14.3027625,
              48.3379047
            ],
            [
              14.3027545,
              48.3379258
            ],
            [
              14.3027492,
              48.3379398
            ],
            [
              14.3027412,
              48.3380053
            ],
            [
              14.3027436,
              48.3380767
            ],
            [
              14.3027754,
              48.3382847
            ],
            [
              14.3027922,
              48.3384116
            ],
            [
              14.3027879,
              48.3384777
            ],
            [
              14.3027731,
              48.3385725
            ],
            [
              14.3027485,
              48.3386436
            ],
            [
              14.3027014,
              48.3387603
            ],
            [
              14.302677,
              48.3388431
            ],
            [
              14.3026672,
              48.3389201
            ],
            [
              14.3026707,
              48.3389868
            ],
            [
              14.3026834,
              48.3390494
            ],
            [
              14.3026895,
              48.3390725
            ],
            [
              14.3027327,
              48.3392032
            ],
            [
              14.3028359,
              48.3395098
            ],
            [
              14.3028656,
              48.3396229
            ],
            [
              14.302885,
              48.3397207
            ],
            [
              14.3028954,
              48.3398236
            ],
            [
              14.3029052,
              48.3399206
            ],
            [
              14.3029403,
              48.3402984
            ],
            [
              14.3029712,
              48.3405417
            ],
            [
              14.3029779,
              48.340654
            ],
            [
              14.3029673,
              48.3407443
            ],
            [
              14.3029345,
              48.3408227
            ],
            [
              14.302879,
              48.3408993
            ],
            [
              14.3025842,
              48.3412522
            ],
            [
              14.3023287,
              48.3415312
            ],
            [
              14.3020722,
              48.3417789
            ],
            [
              14.3020063,
              48.3418527
            ],
            [
              14.3019479,
              48.3419335
            ],
            [
              14.3019046,
              48.3420101
            ],
            [
              14.3018743,
              48.3420871
            ],
            [
              14.301835,
              48.3422118
            ],
            [
              14.3017718,
              48.3424574
            ],
            [
              14.3017335,
              48.3425827
            ],
            [
              14.3016916,
              48.3426979
            ],
            [
              14.3016386,
              48.3427993
            ],
            [
              14.3015756,
              48.3428975
            ],
            [
              14.3014969,
              48.3430008
            ],
            [
              14.3014069,
              48.3430973
            ],
            [
              14.3012943,
              48.3431947
            ],
            [
              14.301169,
              48.3432865
            ],
            [
              14.3010855,
              48.3433374
            ],
            [
              14.3010455,
              48.3433617
            ],
            [
              14.3009133,
              48.3434291
            ],
            [
              14.30077,
              48.3434896
            ],
            [
              14.3006315,
              48.34354
            ],
            [
              14.3004434,
              48.3435968
            ],
            [
              14.3003703,
              48.3436241
            ],
            [
              14.3003305,
              48.3436484
            ],
            [
              14.3003122,
              48.343676
            ],
            [
              14.3003106,
              48.3437149
            ],
            [
              14.3003232,
              48.3437585
            ],
            [
              14.3003521,
              48.3437907
            ],
            [
              14.3003796,
              48.3438069
            ],
            [
              14.3004177,
              48.3438169
            ],
            [
              14.3004875,
              48.3438192
            ],
            [
              14.3005621,
              48.3438067
            ],
            [
              14.3006436,
              48.3437782
            ],
            [
              14.3007838,
              48.3437085
            ],
            [
              14.3009623,
              48.3436303
            ],
            [
              14.3011334,
              48.3435666
            ],
            [
              14.3012953,
              48.3435239
            ],
            [
              14.3014639,
              48.3434922
            ],
            [
              14.301648,
              48.3434693
            ],
            [
              14.3018534,
              48.3434486
            ],
            [
              14.3020486,
              48.3434217
            ],
            [
              14.3021977,
              48.3433959
            ],
            [
              14.3023436,
              48.3433591
            ],
            [
              14.3024789,
              48.3433098
            ],
            [
              14.302617,
              48.3432471
            ],
            [
              14.3027427,
              48.3431769
            ],
            [
              14.302848,
              48.3431011
            ],
            [
              14.3030137,
              48.3429401
            ],
            [
              14.3033679,
              48.342586
            ],
            [
              14.3036827,
              48.3422958
            ],
            [
              14.3038135,
              48.3421926
            ],
            [
              14.3039641,
              48.3420874
            ],
            [
              14.3040651,
              48.3420273
            ],
            [
              14.3041174,
              48.342001
            ],
            [
              14.3041947,
              48.3419626
            ],
            [
              14.3042901,
              48.3419238
            ],
            [
              14.3043467,
              48.3419004
            ],
            [
              14.3043944,
              48.3418814
            ],
            [
              14.3044405,
              48.3418626
            ],
            [
              14.3044702,
              48.3418505
            ],
            [
              14.3044979,
              48.3418392
            ],
            [
              14.3046107,
              48.3417933
            ],
            [
              14.3051728,
              48.3415773
            ],
            [
              14.3053039,
              48.3415112
            ],
            [
              14.3054629,
              48.3414528
            ],
            [
              14.3056141,
              48.3414274
            ],
            [
              14.3058303,
              48.3414163
            ],
            [
              14.3060519,
              48.3414199
            ],
            [
              14.3062522,
              48.3414319
            ],
            [
              14.3064316,
              48.3414547
            ],
            [
              14.3065661,
              48.3414839
            ],
            [
              14.3066922,
              48.3415197
            ],
            [
              14.3068069,
              48.3415618
            ],
            [
              14.3068849,
              48.3416073
            ],
            [
              14.3069812,
              48.3416883
            ],
            [
              14.3070417,
              48.3417595
            ],
            [
              14.3073397,
              48.3421798
            ],
            [
              14.3073762,
              48.342244
            ],
            [
              14.3074006,
              48.342306
            ],
            [
              14.3074077,
              48.3423644
            ],
            [
              14.3074044,
              48.3424331
            ],
            [
              14.3073877,
              48.3425114
            ],
            [
              14.3073552,
              48.3425819
            ],
            [
              14.3073099,
              48.3426497
            ],
            [
              14.3072886,
              48.3426735
            ],
            [
              14.3072586,
              48.3427072
            ],
            [
              14.3073096,
              48.3427412
            ],
            [
              14.3073922,
              48.3427264
            ],
            [
              14.3074685,
              48.3427021
            ],
            [
              14.3075833,
              48.3426542
            ],
            [
              14.3077424,
              48.342574
            ],
            [
              14.3077663,
              48.3425345
            ],
            [
              14.3077867,
              48.3424825
            ],
            [
              14.3077903,
              48.3424241
            ],
            [
              14.3077816,
              48.3423609
            ],
            [
              14.307745,
              48.3422845
            ],
            [
              14.3077135,
              48.3422129
            ],
            [
              14.3076972,
              48.3421453
            ],
            [
              14.307701,
              48.3421151
            ],
            [
              14.3077033,
              48.3420967
            ],
            [
              14.3077085,
              48.3420553
            ],
            [
              14.3076243,
              48.3419911
            ]
          ],
          [
            [
              14.3033055,
              48.3270298
            ],
            [
              14.303245,
              48.3270132
            ],
            [
              14.3030474,
              48.3269339
            ],
            [
              14.303014,
              48.3269121
            ]
          ],
          [
            [
              14.3007307,
              48.3337917
            ],
            [
              14.3007624,
              48.3337915
            ],
            [
              14.3008317,
              48.3337093
            ],
            [
              14.3008262,
              48.3336861
            ]
          ]
        ]
      },
      "id": "relation/1147287"
    }
  ]
}