{
  "type": "FeatureCollection",
  "features": [
    {
      "type": "Feature",
      "properties": {
        "@id": "relation/403423",
        "alternate": "yes",
        "colour": "#e52c1a",
        "from": "Stieglbauernstraße",
        "name": "Bus 45: Stieglbauernstraße => Froschberg",
        "network": "OÖVV",
        "network:wikidata": "Q2011605",
        "network:wikipedia": "de:Oberösterreichischer Verkehrsverbund",
        "operator": "Linz Linien GmbH",
        "public_transport:version": "2",
        "ref": "45",
        "route": "trolleybus",
        "to": "Froschberg",
        "type": "route"
      },
      "geometry": {
        "type": "MultiLineString",
        "coordinates": [
          [
            [
              14.3129582,
              48.2972931
            ],
            [
              14.3129817,
              48.2972489
            ],
            [
              14.312993,
              48.2972257
            ],
            [
              14.3130259,
              48.29716
            ],
            [
              14.3131397,
              48.2969253
            ],
            [
              14.3132196,
              48.2967742
            ],
            [
              14.3131492,
              48.2967585
            ],
            [
              14.3129266,
              48.2967069
            ],
            [
              14.3128865,
              48.2967077
            ],
            [
              14.3128492,
              48.2967175
            ],
            [
              14.3128191,
              48.2967351
            ],
            [
              14.3127998,
              48.2967585
            ],
            [
              14.3127934,
              48.2967848
            ],
            [
              14.3127946,
              48.2968104
            ],
            [
              14.3128096,
              48.2968352
            ],
            [
              14.3128511,
              48.2968588
            ],
            [
              14.3130783,
              48.2969101
            ],
            [
              14.3131397,
              48.2969253
            ],
            [
              14.3130259,
              48.29716
            ],
            [
              14.312993,
              48.2972257
            ],
            [
              14.3129817,
              48.2972489
            ],
            [
              14.3129582,
              48.2972931
            ],
            [
              14.3128041,
              48.2976021
            ],
            [
              14.312798,
              48.297614
            ],
            [
              14.3126948,
              48.2978196
            ],
            [
              14.3126501,
              48.297932
            ],
            [
              14.3126311,
              48.2979798
            ],
            [
              14.3126124,
              48.2980266
            ],
            [
              14.3125884,
              48.298087
            ],
            [
              14.3124725,
              48.2983277
            ],
            [
              14.3122704,
              48.2987473
            ],
            [
              14.3121737,
              48.29895
            ],
            [
              14.3120359,
              48.2992326
            ],
            [
              14.3120141,
              48.2992772
            ],
            [
              14.3118401,
              48.2996368
            ],
            [
              14.311737,
              48.2998549
            ],
            [
              14.3116609,
              48.3000158
            ],
            [
              14.3115188,
              48.3003162
            ],
            [
              14.3114308,
              48.3005021
            ],
            [
              14.3113871,
              48.3005726
            ],
            [
              14.3113232,
              48.3006759
            ],
            [
              14.3110392,
              48.3006427
            ],
            [
              14.3109854,
              48.3006364
            ],
            [
              14.3105597,
              48.3005866
            ],
            [
              14.3104752,
              48.3005767
            ],
            [
              14.3101645,
              48.3005404
            ],
            [
              14.3100669,
              48.3005291
            ],
            [
              14.3090426,
              48.3004092
            ],
            [
              14.3087832,
              48.3003789
            ],
            [
              14.3087805,
              48.3004695
            ],
            [
              14.3087793,
              48.3005097
            ],
            [
              14.3087667,
              48.3006195
            ],
            [
              14.3087594,
              48.3006607
            ],
            [
              14.3087564,
              48.3006777
            ],
            [
              14.3087469,
              48.3007315
            ],
            [
              14.3087136,
              48.3008237
            ],
            [
              14.3086762,
              48.3009074
            ],
            [
              14.3086026,
              48.301011
            ],
            [
              14.3085449,
              48.3010815
            ],
            [
              14.3084286,
              48.3012235
            ],
            [
              14.308411,
              48.3012451
            ],
            [
              14.3083741,
              48.3012902
            ],
            [
              14.3078988,
              48.3017723
            ],
            [
              14.3078147,
              48.301839
            ],
            [
              14.30774,
              48.3018875
            ],
            [
              14.307659,
              48.3019245
            ],
            [
              14.3075525,
              48.3019575
            ],
            [
              14.30735,
              48.302009
            ],
            [
              14.3072082,
              48.302045
            ],
            [
              14.3072369,
              48.3021122
            ],
            [
              14.3072538,
              48.3021517
            ],
            [
              14.3072577,
              48.3021608
            ],
            [
              14.3072642,
              48.3021966
            ],
            [
              14.3072877,
              48.3023254
            ],
            [
              14.3073732,
              48.3028731
            ],
            [
              14.3074781,
              48.3033728
            ],
            [
              14.3074898,
              48.3034479
            ],
            [
              14.3075195,
              48.3036214
            ],
            [
              14.3075299,
              48.3036819
            ],
            [
              14.3075671,
              48.303899
            ],
            [
              14.3076415,
              48.3039388
            ],
            [
              14.3072948,
              48.3042463
            ],
            [
              14.3072614,
              48.3042758
            ],
            [
              14.3072211,
              48.3043115
            ],
            [
              14.3069253,
              48.3045733
            ],
            [
              14.3067822,
              48.3046969
            ],
            [
              14.3067257,
              48.3047456
            ],
            [
              14.3063228,
              48.3050936
            ],
            [
              14.3060816,
              48.3053019
            ],
            [
              14.3060403,
              48.3053375
            ],
            [
              14.3059429,
              48.305421
            ],
            [
              14.3058543,
              48.3054969
            ],
            [
              14.3057208,
              48.3054421
            ],
            [
              14.3056868,
              48.3054281
            ],
            [
              14.3056387,
              48.3054101
            ],
            [
              14.3053729,
              48.3053109
            ],
            [
              14.3051616,
              48.305232
            ],
            [
              14.3047834,
              48.3050908
            ],
            [
              14.3039123,
              48.3047656
            ],
            [
              14.3039093,
              48.3047645
            ],
            [
              14.3036423,
              48.3046651
            ],
            [
              14.3029267,
              48.3043986
            ],
            [
              14.3026603,
              48.3042994
            ],
            [
              14.302567,
              48.3042647
            ],
            [
              14.3017214,
              48.3039471
            ],
            [
              14.30139,
              48.3038267
            ],
            [
              14.3010058,
              48.3036839
            ],
            [
              14.3005724,
              48.3035209
            ],
            [
              14.3005132,
              48.3034987
            ],
            [
              14.3003813,
              48.3034484
            ],
            [
              14.3002213,
              48.3033952
            ],
            [
              14.3001637,
              48.303376
            ],
            [
              14.2999872,
              48.3033173
            ],
            [
              14.2997,
              48.3032218
            ],
            [
              14.2995298,
              48.3031653
            ],
            [
              14.299296,
              48.3030874
            ],
            [
              14.2991011,
              48.3030225
            ],
            [
              14.2990125,
              48.3029937
            ],
            [
              14.2989251,
              48.3029689
            ],
            [
              14.2986581,
              48.3028931
            ],
            [
              14.2984709,
              48.302847
            ],
            [
              14.2975344,
              48.3026167
            ],
            [
              14.2974531,
              48.3025967
            ],
            [
              14.2974154,
              48.3025874
            ],
            [
              14.2970292,
              48.3024924
            ],
            [
              14.2964478,
              48.3023493
            ],
            [
              14.2964103,
              48.3023401
            ],
            [
              14.2963356,
              48.3023214
            ],
            [
              14.296208,
              48.3022894
            ],
            [
              14.2961444,
              48.3022735
            ],
            [
              14.2960518,
              48.3022503
            ],
            [
              14.2959465,
              48.3022241
            ],
            [
              14.2959104,
              48.3022152
            ],
            [
              14.2957208,
              48.3021681
            ],
            [
              14.2952219,
              48.3020441
            ],
            [
              14.2945289,
              48.3018718
            ],
            [
              14.2944644,
              48.3018558
            ],
            [
              14.2943891,
              48.3018378
            ],
            [
              14.2940636,
              48.3017591
            ],
            [
              14.2934529,
              48.3016118
            ],
            [
              14.292729,
              48.3014378
            ],
            [
              14.2926837,
              48.3014264
            ],
            [
              14.2925738,
              48.3013986
            ],
            [
              14.2924344,
              48.3013634
            ],
            [
              14.2924022,
              48.3013552
            ],
            [
              14.2919763,
              48.3012475
            ],
            [
              14.2908272,
              48.3009571
            ],
            [
              14.2908142,
              48.3009538
            ],
            [
              14.290746,
              48.3009366
            ],
            [
              14.2906858,
              48.3009214
            ],
            [
              14.2906255,
              48.3009061
            ],
            [
              14.2906083,
              48.3009018
            ],
            [
              14.2905906,
              48.3008973
            ],
            [
              14.2905878,
              48.3008966
            ],
            [
              14.2905282,
              48.3008863
            ],
            [
              14.2905246,
              48.3008857
            ],
            [
              14.2904632,
              48.3008752
            ],
            [
              14.2904472,
              48.3008725
            ],
            [
              14.2904409,
              48.3008714
            ],
            [
              14.2892698,
              48.3006913
            ],
            [
              14.2892309,
              48.3006853
            ],
            [
              14.2891474,
              48.3006725
            ],
            [
              14.2887599,
              48.3006129
            ],
            [
              14.2880439,
              48.3005028
            ],
            [
              14.2877905,
              48.3004638
            ],
            [
              14.2875303,
              48.3004238
            ],
            [
              14.2874587,
              48.3004059
            ],
            [
              14.2874121,
              48.3003879
            ],
            [
              14.2873703,
              48.3003471
            ],
            [
              14.2873657,
              48.300329
            ],
            [
              14.2873585,
              48.3003011
            ],
            [
              14.2874282,
              48.2996805
            ],
            [
              14.2874335,
              48.2996443
            ],
            [
              14.287445,
              48.2995659
            ],
            [
              14.2874751,
              48.2993612
            ],
            [
              14.2875389,
              48.2989275
            ],
            [
              14.287561,
              48.2987772
            ],
            [
              14.2876007,
              48.2985075
            ],
            [
              14.2876115,
              48.2984522
            ],
            [
              14.2876536,
              48.298236
            ],
            [
              14.2876606,
              48.2982002
            ],
            [
              14.2876659,
              48.2981736
            ],
            [
              14.2876796,
              48.298104
            ],
            [
              14.2877064,
              48.2979485
            ],
            [
              14.2877174,
              48.2978595
            ],
            [
              14.2877202,
              48.2977639
            ],
            [
              14.287706,
              48.2976444
            ],
            [
              14.2876596,
              48.2974623
            ],
            [
              14.2876503,
              48.2974258
            ],
            [
              14.2876441,
              48.2974017
            ],
            [
              14.2876221,
              48.2973261
            ],
            [
              14.2875826,
              48.2972301
            ],
            [
              14.2875717,
              48.2972036
            ],
            [
              14.2874905,
              48.2970216
            ],
            [
              14.2874691,
              48.2969735
            ],
            [
              14.2873819,
              48.296766
            ],
            [
              14.2872531,
              48.2964595
            ],
            [
              14.2870763,
              48.2960574
            ],
            [
              14.2870351,
              48.2959638
            ],
            [
              14.2870213,
              48.2959274
            ],
            [
              14.2870075,
              48.2958909
            ],
            [
              14.2869645,
              48.295893
            ],
            [
              14.2869219,
              48.2958881
            ],
            [
              14.2868825,
              48.2958766
            ],
            [
              14.2868483,
              48.295859
            ],
            [
              14.2868216,
              48.2958365
            ],
            [
              14.2868038,
              48.2958103
            ],
            [
              14.286796,
              48.2957821
            ],
            [
              14.2867988,
              48.2957534
            ],
            [
              14.2868118,
              48.295726
            ],
            [
              14.2868313,
              48.2957042
            ],
            [
              14.2868574,
              48.2956856
            ],
            [
              14.2868889,
              48.2956712
            ],
            [
              14.2869243,
              48.2956616
            ],
            [
              14.2869602,
              48.2956573
            ],
            [
              14.2869966,
              48.2956581
            ],
            [
              14.2870321,
              48.2956637
            ],
            [
              14.2870651,
              48.2956741
            ],
            [
              14.2870942,
              48.2956887
            ],
            [
              14.2871288,
              48.2956719
            ],
            [
              14.2871842,
              48.2956426
            ],
            [
              14.2876029,
              48.295424
            ],
            [
              14.288176,
              48.2951232
            ],
            [
              14.2883159,
              48.2950496
            ],
            [
              14.2883907,
              48.2950117
            ],
            [
              14.2890811,
              48.294659
            ],
            [
              14.2891576,
              48.29462
            ],
            [
              14.2892355,
              48.2945796
            ],
            [
              14.2902681,
              48.2940442
            ],
            [
              14.2903029,
              48.2940268
            ],
            [
              14.2903777,
              48.2939893
            ],
            [
              14.2904362,
              48.2939674
            ],
            [
              14.2904569,
              48.2939596
            ],
            [
              14.2907097,
              48.2938646
            ],
            [
              14.2912747,
              48.2936524
            ],
            [
              14.2917781,
              48.2934632
            ],
            [
              14.2918506,
              48.293436
            ],
            [
              14.2919069,
              48.2934149
            ],
            [
              14.2919903,
              48.2933865
            ],
            [
              14.2921216,
              48.2933496
            ],
            [
              14.2920222,
              48.2932314
            ],
            [
              14.2919681,
              48.293167
            ],
            [
              14.2916737,
              48.292817
            ],
            [
              14.2913042,
              48.2923777
            ],
            [
              14.291022,
              48.2920416
            ],
            [
              14.2909653,
              48.2919717
            ],
            [
              14.2908578,
              48.2918505
            ],
            [
              14.290813,
              48.2918006
            ],
            [
              14.2905937,
              48.2915567
            ],
            [
              14.2902324,
              48.2911546
            ],
            [
              14.2900172,
              48.2909395
            ],
            [
              14.2898888,
              48.2908323
            ],
            [
              14.2897626,
              48.2907591
            ],
            [
              14.2896934,
              48.2907234
            ],
            [
              14.2896364,
              48.290694
            ],
            [
              14.2895209,
              48.2906481
            ],
            [
              14.2893375,
              48.2906029
            ],
            [
              14.2892542,
              48.2905863
            ],
            [
              14.289157,
              48.2905673
            ],
            [
              14.2889577,
              48.2905643
            ],
            [
              14.2888014,
              48.2905442
            ],
            [
              14.2885122,
              48.2905038
            ],
            [
              14.2881607,
              48.2904671
            ],
            [
              14.2879021,
              48.2904442
            ],
            [
              14.2878634,
              48.2904399
            ],
            [
              14.2878135,
              48.2904365
            ],
            [
              14.2877186,
              48.2904236
            ],
            [
              14.2876388,
              48.2904052
            ],
            [
              14.287549,
              48.2903726
            ],
            [
              14.2874923,
              48.2903443
            ],
            [
              14.2874528,
              48.2903082
            ],
            [
              14.287428,
              48.2902608
            ],
            [
              14.2874331,
              48.2902028
            ],
            [
              14.2874546,
              48.2899595
            ],
            [
              14.2874673,
              48.2898446
            ],
            [
              14.2874851,
              48.2895895
            ],
            [
              14.2874856,
              48.2894191
            ],
            [
              14.2874856,
              48.289394
            ],
            [
              14.2874584,
              48.2893947
            ],
            [
              14.287396,
              48.2893963
            ],
            [
              14.287342,
              48.2893977
            ],
            [
              14.2871788,
              48.2894455
            ],
            [
              14.286668,
              48.2896123
            ],
            [
              14.2863796,
              48.2897059
            ],
            [
              14.286271,
              48.2897411
            ],
            [
              14.2860453,
              48.2898094
            ],
            [
              14.2858185,
              48.2898666
            ],
            [
              14.2848096,
              48.2900553
            ],
            [
              14.284565,
              48.2900985
            ],
            [
              14.2836707,
              48.2902635
            ],
            [
              14.2832032,
              48.2903495
            ],
            [
              14.2831522,
              48.2903589
            ],
            [
              14.2830731,
              48.2903735
            ],
            [
              14.2829477,
              48.290395
            ],
            [
              14.2827944,
              48.2904168
            ],
            [
              14.2826658,
              48.2904303
            ],
            [
              14.2825439,
              48.2904377
            ],
            [
              14.2823595,
              48.2904419
            ],
            [
              14.282283,
              48.2904408
            ],
            [
              14.282185,
              48.2904394
            ],
            [
              14.2821209,
              48.2904362
            ],
            [
              14.2815861,
              48.2904099
            ],
            [
              14.2810667,
              48.2903844
            ],
            [
              14.2809341,
              48.2903779
            ],
            [
              14.2808525,
              48.2903739
            ],
            [
              14.2804054,
              48.2903519
            ],
            [
              14.2803865,
              48.290351
            ],
            [
              14.2801999,
              48.2903419
            ],
            [
              14.2800683,
              48.2903354
            ],
            [
              14.2799571,
              48.2903299
            ],
            [
              14.2797103,
              48.2903202
            ],
            [
              14.2796822,
              48.2903191
            ],
            [
              14.2795117,
              48.2903325
            ],
            [
              14.2793672,
              48.2903525
            ],
            [
              14.2790527,
              48.2903961
            ],
            [
              14.2789992,
              48.2904035
            ],
            [
              14.2786011,
              48.2904586
            ],
            [
              14.2783267,
              48.2904965
            ],
            [
              14.2778407,
              48.2905638
            ],
            [
              14.2771983,
              48.2906527
            ],
            [
              14.2762817,
              48.2907796
            ],
            [
              14.2762156,
              48.2907891
            ],
            [
              14.2760332,
              48.2908154
            ],
            [
              14.2759563,
              48.2908246
            ],
            [
              14.2758914,
              48.2908336
            ],
            [
              14.2758733,
              48.2908361
            ],
            [
              14.2758271,
              48.2908423
            ],
            [
              14.2755141,
              48.2908842
            ],
            [
              14.2753153,
              48.290917
            ],
            [
              14.2752438,
              48.2909329
            ],
            [
              14.2751102,
              48.2909626
            ],
            [
              14.2749203,
              48.2910058
            ],
            [
              14.2747991,
              48.2910352
            ],
            [
              14.2746654,
              48.2910748
            ],
            [
              14.2744631,
              48.2911416
            ],
            [
              14.274298,
              48.2911976
            ],
            [
              14.2741743,
              48.2912445
            ],
            [
              14.2740493,
              48.291294
            ],
            [
              14.2738606,
              48.2913705
            ],
            [
              14.2737409,
              48.291419
            ],
            [
              14.2736734,
              48.2914463
            ],
            [
              14.2734796,
              48.2915248
            ],
            [
              14.2733931,
              48.2915599
            ],
            [
              14.2727128,
              48.2918355
            ],
            [
              14.2726202,
              48.2918716
            ],
            [
              14.2725769,
              48.2918218
            ],
            [
              14.2725635,
              48.2918022
            ],
            [
              14.2725549,
              48.2917832
            ],
            [
              14.2725514,
              48.291771
            ],
            [
              14.2725486,
              48.2917473
            ],
            [
              14.2725502,
              48.2917273
            ],
            [
              14.2725544,
              48.2917077
            ],
            [
              14.2725655,
              48.2916749
            ],
            [
              14.2725937,
              48.2916086
            ],
            [
              14.2726176,
              48.2915525
            ],
            [
              14.2726566,
              48.2914507
            ],
            [
              14.2726958,
              48.2913365
            ],
            [
              14.2727107,
              48.2912862
            ],
            [
              14.2727245,
              48.2912335
            ],
            [
              14.2727382,
              48.2911776
            ],
            [
              14.2727492,
              48.2911152
            ],
            [
              14.2727606,
              48.291037
            ],
            [
              14.272763,
              48.2910122
            ],
            [
              14.2727696,
              48.2909457
            ],
            [
              14.2727805,
              48.2908137
            ],
            [
              14.2728199,
              48.2908145
            ],
            [
              14.2728704,
              48.2908128
            ],
            [
              14.2728927,
              48.2908112
            ],
            [
              14.2729184,
              48.2908081
            ],
            [
              14.2729415,
              48.290804
            ],
            [
              14.2729705,
              48.2907959
            ],
            [
              14.2732488,
              48.2907044
            ]
          ],
          [
            [
              14.2732342,
              48.2906656
            ],
            [
              14.2730391,
              48.2907297
            ],
            [
              14.273003,
              48.2907415
            ]
          ],
          [
            [
              14.2727178,
              48.2918924
            ],
            [
              14.2729413,
              48.2918003
            ]
          ],
          [
            [
              14.2756557,
              48.2909273
            ],
            [
              14.2754538,
              48.2909525
            ]
          ],
          [
            [
              14.280647,
              48.2904268
            ],
            [
              14.2806489,
              48.290411
            ],
            [
              14.2803717,
              48.2903962
            ],
            [
              14.2803697,
              48.2904127
            ]
          ],
          [
            [
              14.2873091,
              48.2903601
            ],
            [
              14.2873847,
              48.2898948
            ]
          ],
          [
            [
              14.2903912,
              48.2915043
            ],
            [
              14.2902529,
              48.2913412
            ],
            [
              14.2900966,
              48.2911569
            ]
          ],
          [
            [
              14.2904615,
              48.2938838
            ],
            [
              14.2904752,
              48.2938993
            ],
            [
              14.2906788,
              48.2938201
            ],
            [
              14.2906662,
              48.2938057
            ]
          ],
          [
            [
              14.2875558,
              48.2953796
            ],
            [
              14.2875716,
              48.2953929
            ],
            [
              14.2873876,
              48.2954895
            ],
            [
              14.2873712,
              48.2954756
            ]
          ],
          [
            [
              14.287571,
              48.2974741
            ],
            [
              14.2875981,
              48.2975784
            ]
          ],
          [
            [
              14.2911132,
              48.3010892
            ],
            [
              14.2908025,
              48.3010122
            ]
          ],
          [
            [
              14.2994444,
              48.3032578
            ],
            [
              14.2994641,
              48.3032305
            ],
            [
              14.2992339,
              48.3031558
            ],
            [
              14.2992205,
              48.303174
            ],
            [
              14.2992278,
              48.303188
            ]
          ],
          [
            [
              14.3052807,
              48.3053882
            ],
            [
              14.3053081,
              48.3053571
            ],
            [
              14.3055014,
              48.3054325
            ],
            [
              14.3054759,
              48.3054614
            ]
          ],
          [
            [
              14.3073659,
              48.3043088
            ],
            [
              14.3074576,
              48.3042175
            ],
            [
              14.3074933,
              48.3041886
            ],
            [
              14.3075853,
              48.3041141
            ]
          ],
          [
            [
              14.3073224,
              48.302173
            ],
            [
              14.3073244,
              48.3021881
            ],
            [
              14.3073414,
              48.3023189
            ]
          ],
          [
            [
              14.3101332,
              48.3006146
            ],
            [
              14.3103764,
              48.3006439
            ]
          ],
          [
            [
              14.3129171,
              48.2972325
            ],
            [
              14.3128737,
              48.2973217
            ]
          ]
        ]
      },
      "id": "relation/403423"
    },
    {
      "type": "Feature",
      "properties": {
        "@id": "relation/1148400",
        "alternate": "yes",
        "colour": "#e52c1a",
        "from": "Froschberg",
        "name": "Bus 45: Froschberg => Stieglbauernstraße",
        "network": "OÖVV",
        "network:wikidata": "Q2011605",
        "network:wikipedia": "de:Oberösterreichischer Verkehrsverbund",
        "operator": "Linz Linien GmbH",
        "public_transport:version": "2",
        "ref": "45",
        "route": "trolleybus",
        "to": "Stieglbauernstraße",
        "type": "route"
      },
      "geometry": {
        "type": "MultiLineString",
        "coordinates": [
          [
            [
              14.3129582,
              48.2972931
            ],
            [
              14.3128041,
              48.2976021
            ],
            [
              14.312798,
              48.297614
            ],
            [
              14.3126948,
              48.2978196
            ],
            [
              14.3126501,
              48.297932
            ],
            [
              14.3126311,
              48.2979798
            ],
            [
              14.3126124,
              48.2980266
            ],
            [
              14.3125884,
              48.298087
            ],
            [
              14.3124725,
              48.2983277
            ],
            [
              14.3122704,
              48.2987473
            ],
            [
              14.3121737,
              48.29895
            ],
            [
              14.3120359,
              48.2992326
            ],
            [
              14.3120141,
              48.2992772
            ],
            [
              14.3118401,
              48.2996368
            ],
            [
              14.311737,
              48.2998549
            ],
            [
              14.3116609,
              48.3000158
            ],
            [
              14.3115188,
              48.3003162
            ],
            [
              14.3114308,
              48.3005021
            ],
            [
              14.3113871,
              48.3005726
            ],
            [
              14.3113232,
              48.3006759
            ],
            [
              14.3110392,
              48.3006427
            ],
            [
              14.3109854,
              48.3006364
            ],
            [
              14.3105597,
              48.3005866
            ],
            [
              14.3104752,
              48.3005767
            ],
            [
              14.3101645,
              48.3005404
            ],
            [
              14.3100669,
              48.3005291
            ],
            [
              14.3090426,
              48.3004092
            ],
            [
              14.3087832,
              48.3003789
            ],
            [
              14.3087805,
              48.3004695
            ],
            [
              14.3087793,
              48.3005097
            ],
            [
              14.3087667,
              48.3006195
            ],
            [
              14.3087594,
              48.3006607
            ],
            [
              14.3087564,
              48.3006777
            ],
            [
              14.3087469,
              48.3007315
            ],
            [
              14.3087136,
              48.3008237
            ],
            [
              14.3086762,
              48.3009074
            ],
            [
              14.3086026,
              48.301011
            ],
            [
              14.3085449,
              48.3010815
            ],
            [
              14.3084286,
              48.3012235
            ],
            [
              14.308411,
              48.3012451
            ],
            [
              14.3083741,
              48.3012902
            ],
            [
              14.3078988,
              48.3017723
            ],
            [
              14.3078147,
              48.301839
            ],
            [
              14.30774,
              48.3018875
            ],
            [
              14.307659,
              48.3019245
            ],
            [
              14.3075525,
              48.3019575
            ],
            [
              14.30735,
              48.302009
            ],
            [
              14.3072082,
              48.302045
            ],
            [
              14.3072369,
              48.3021122
            ],
            [
              14.3072538,
              48.3021517
            ],
            [
              14.3072577,
              48.3021608
            ],
            [
              14.3072642,
              48.3021966
            ],
            [
              14.3072877,
              48.3023254
            ],
            [
              14.3073732,
              48.3028731
            ],
            [
              14.3074781,
              48.3033728
            ],
            [
              14.3074898,
              48.3034479
            ],
            [
              14.3075195,
              48.3036214
            ],
            [
              14.3075299,
              48.3036819
            ],
            [
              14.3075671,
              48.303899
            ],
            [
              14.3076415,
              48.3039388
            ],
            [
              14.3072948,
              48.3042463
            ],
            [
              14.3072614,
              48.3042758
            ],
            [
              14.3072211,
              48.3043115
            ],
            [
              14.3069253,
              48.3045733
            ],
            [
              14.3067822,
              48.3046969
            ],
            [
              14.3067257,
              48.3047456
            ],
            [
              14.3063228,
              48.3050936
            ],
            [
              14.3060816,
              48.3053019
            ],
            [
              14.3060403,
              48.3053375
            ],
            [
              14.3059429,
              48.305421
            ],
            [
              14.3058543,
              48.3054969
            ],
            [
              14.3057208,
              48.3054421
            ],
            [
              14.3056868,
              48.3054281
            ],
            [
              14.3056387,
              48.3054101
            ],
            [
              14.3053729,
              48.3053109
            ],
            [
              14.3051616,
              48.305232
            ],
            [
              14.3047834,
              48.3050908
            ],
            [
              14.3039123,
              48.3047656
            ],
            [
              14.3039093,
              48.3047645
            ],
            [
              14.3036423,
              48.3046651
            ],
            [
              14.3029267,
              48.3043986
            ],
            [
              14.3026603,
              48.3042994
            ],
            [
              14.302567,
              48.3042647
            ],
            [
              14.3017214,
              48.3039471
            ],
            [
              14.30139,
              48.3038267
            ],
            [
              14.3010058,
              48.3036839
            ],
            [
              14.3005724,
              48.3035209
            ],
            [
              14.3005132,
              48.3034987
            ],
            [
              14.3003813,
              48.3034484
            ],
            [
              14.3002213,
              48.3033952
            ],
            [
              14.3001637,
              48.303376
            ],
            [
              14.2999872,
              48.3033173
            ],
            [
              14.2997,
              48.3032218
            ],
            [
              14.2995298,
              48.3031653
            ],
            [
              14.299296,
              48.3030874
            ],
            [
              14.2991011,
              48.3030225
            ],
            [
              14.2990125,
              48.3029937
            ],
            [
              14.2989251,
              48.3029689
            ],
            [
              14.2986581,
              48.3028931
            ],
            [
              14.2984709,
              48.302847
            ],
            [
              14.2975344,
              48.3026167
            ],
            [
              14.2974531,
              48.3025967
            ],
            [
              14.2974154,
              48.3025874
            ],
            [
              14.2970292,
              48.3024924
            ],
            [
              14.2964478,
              48.3023493
            ],
            [
              14.2964103,
              48.3023401
            ],
            [
              14.2963356,
              48.3023214
            ],
            [
              14.296208,
              48.3022894
            ],
            [
              14.2961444,
              48.3022735
            ],
            [
              14.2960518,
              48.3022503
            ],
            [
              14.2959465,
              48.3022241
            ],
            [
              14.2959104,
              48.3022152
            ],
            [
              14.2957208,
              48.3021681
            ],
            [
              14.2952219,
              48.3020441
            ],
            [
              14.2945289,
              48.3018718
            ],
            [
              14.2944644,
              48.3018558
            ],
            [
              14.2943891,
              48.3018378
            ],
            [
              14.2940636,
              48.3017591
            ],
            [
              14.2934529,
              48.3016118
            ],
            [
              14.292729,
              48.3014378
            ],
            [
              14.2926837,
              48.3014264
            ],
            [
              14.2925738,
              48.3013986
            ],
            [
              14.2924344,
              48.3013634
            ],
            [
              14.2924022,
              48.3013552
            ],
            [
              14.2919763,
              48.3012475
            ],
            [
              14.2908272,
              48.3009571
            ],
            [
              14.2908142,
              48.3009538
            ],
            [
              14.290746,
              48.3009366
            ],
            [
              14.2906858,
              48.3009214
            ],
            [
              14.2906255,
              48.3009061
            ],
            [
              14.2906083,
              48.3009018
            ],
            [
              14.2905906,
              48.3008973
            ],
            [
              14.2905878,
              48.3008966
            ],
            [
              14.2905282,
              48.3008863
            ],
            [
              14.2905246,
              48.3008857
            ],
            [
              14.2904632,
              48.3008752
            ],
            [
              14.2904472,
              48.3008725
            ],
            [
              14.2904409,
              48.3008714
            ],
            [
              14.2892698,
              48.3006913
            ],
            [
              14.2892309,
              48.3006853
            ],
            [
              14.2891474,
              48.3006725
            ],
            [
              14.2887599,
              48.3006129
            ],
            [
              14.2880439,
              48.3005028
            ],
            [
              14.2877905,
              48.3004638
            ],
            [
              14.2875303,
              48.3004238
            ],
            [
              14.2874587,
              48.3004059
            ],
            [
              14.2874121,
              48.3003879
            ],
            [
              14.2873703,
              48.3003471
            ],
            [
              14.2873657,
              48.300329
            ],
            [
              14.2873585,
              48.3003011
            ],
            [
              14.2874282,
              48.2996805
            ],
            [
              14.2874335,
              48.2996443
            ],
            [
              14.287445,
              48.2995659
            ],
            [
              14.2874751,
              48.2993612
            ],
            [
              14.2875389,
              48.2989275
            ],
            [
              14.287561,
              48.2987772
            ],
            [
              14.2876007,
              48.2985075
            ],
            [
              14.2876115,
              48.2984522
            ],
            [
              14.2876536,
              48.298236
            ],
            [
              14.2876606,
              48.2982002
            ],
            [
              14.2876659,
              48.2981736
            ],
            [
              14.2876796,
              48.298104
            ],
            [
              14.2877064,
              48.2979485
            ],
            [
              14.2877174,
              48.2978595
            ],
            [
              14.2877202,
              48.2977639
            ],
            [
              14.287706,
              48.2976444
            ],
            [
              14.2876596,
              48.2974623
            ],
            [
              14.2876503,
              48.2974258
            ],
            [
              14.2876441,
              48.2974017
            ],
            [
              14.2876221,
              48.2973261
            ],
            [
              14.2875826,
              48.2972301
            ],
            [
              14.2875717,
              48.2972036
            ],
            [
              14.2874905,
              48.2970216
            ],
            [
              14.2874691,
              48.2969735
            ],
            [
              14.2873819,
              48.296766
            ],
            [
              14.2872531,
              48.2964595
            ],
            [
              14.2870763,
              48.2960574
            ],
            [
              14.2870351,
              48.2959638
            ],
            [
              14.2870213,
              48.2959274
            ],
            [
              14.2870075,
              48.2958909
            ],
            [
              14.2870516,
              48.295881
            ],
            [
              14.2870902,
              48.2958638
            ],
            [
              14.2871209,
              48.2958406
            ],
            [
              14.2871414,
              48.2958128
            ],
            [
              14.2871499,
              48.2957864
            ],
            [
              14.2871491,
              48.2957594
            ],
            [
              14.2871391,
              48.2957332
            ],
            [
              14.2871205,
              48.2957093
            ],
            [
              14.2870942,
              48.2956887
            ],
            [
              14.2871288,
              48.2956719
            ],
            [
              14.2871842,
              48.2956426
            ],
            [
              14.2876029,
              48.295424
            ],
            [
              14.288176,
              48.2951232
            ],
            [
              14.2883159,
              48.2950496
            ],
            [
              14.2885067,
              48.2950705
            ],
            [
              14.2891232,
              48.2951717
            ],
            [
              14.2893517,
              48.2952091
            ],
            [
              14.2895566,
              48.295243
            ],
            [
              14.289612,
              48.2952483
            ],
            [
              14.2896509,
              48.2952483
            ],
            [
              14.2897078,
              48.2952374
            ],
            [
              14.2897809,
              48.295317
            ],
            [
              14.2898505,
              48.2953039
            ],
            [
              14.2902246,
              48.2952334
            ],
            [
              14.2903884,
              48.2952025
            ],
            [
              14.2904539,
              48.295131
            ],
            [
              14.2906011,
              48.2949808
            ],
            [
              14.2907651,
              48.294802
            ],
            [
              14.290948,
              48.2946109
            ],
            [
              14.2909999,
              48.2945567
            ],
            [
              14.2916649,
              48.2938507
            ],
            [
              14.2919818,
              48.2935156
            ],
            [
              14.2920412,
              48.293457
            ],
            [
              14.2921216,
              48.2933496
            ],
            [
              14.2923702,
              48.2933155
            ],
            [
              14.292431,
              48.2932944
            ],
            [
              14.2925733,
              48.293247
            ],
            [
              14.2927012,
              48.2931985
            ],
            [
              14.2929631,
              48.2930902
            ],
            [
              14.2931224,
              48.2930252
            ],
            [
              14.2929943,
              48.2928894
            ],
            [
              14.2929682,
              48.2928606
            ],
            [
              14.2929139,
              48.2927971
            ],
            [
              14.2928977,
              48.2927785
            ],
            [
              14.2927871,
              48.2926516
            ],
            [
              14.2926623,
              48.2925085
            ],
            [
              14.2925475,
              48.2923767
            ],
            [
              14.2922359,
              48.2920192
            ],
            [
              14.2921452,
              48.291915
            ],
            [
              14.2920419,
              48.2917965
            ],
            [
              14.2919278,
              48.2916656
            ],
            [
              14.2919016,
              48.2916297
            ],
            [
              14.2919033,
              48.2916087
            ],
            [
              14.2918947,
              48.2915883
            ],
            [
              14.291886,
              48.2915782
            ],
            [
              14.2918746,
              48.2915692
            ],
            [
              14.2918482,
              48.2915569
            ],
            [
              14.2918314,
              48.2915528
            ],
            [
              14.2918138,
              48.2915507
            ],
            [
              14.2917808,
              48.2915527
            ],
            [
              14.2917505,
              48.2915619
            ],
            [
              14.2917267,
              48.2915772
            ],
            [
              14.291712,
              48.2915968
            ],
            [
              14.2917079,
              48.2916185
            ],
            [
              14.2917116,
              48.2916337
            ],
            [
              14.2917206,
              48.291648
            ],
            [
              14.2917344,
              48.2916604
            ],
            [
              14.2917522,
              48.2916704
            ],
            [
              14.2916416,
              48.2917125
            ],
            [
              14.2913308,
              48.2918307
            ],
            [
              14.2911889,
              48.2918855
            ],
            [
              14.2911559,
              48.2918981
            ],
            [
              14.2911407,
              48.2919041
            ],
            [
              14.2910792,
              48.2919084
            ],
            [
              14.2910332,
              48.2918999
            ],
            [
              14.2909872,
              48.2918409
            ],
            [
              14.2909659,
              48.2918075
            ],
            [
              14.2905788,
              48.2913499
            ],
            [
              14.2904739,
              48.2912259
            ],
            [
              14.2901896,
              48.2908899
            ],
            [
              14.2901344,
              48.290832
            ],
            [
              14.290076,
              48.2907847
            ],
            [
              14.2900077,
              48.2907428
            ],
            [
              14.2899265,
              48.2907013
            ],
            [
              14.2897448,
              48.2906272
            ],
            [
              14.2897091,
              48.2906224
            ],
            [
              14.2895209,
              48.2906481
            ],
            [
              14.2893375,
              48.2906029
            ],
            [
              14.2892542,
              48.2905863
            ],
            [
              14.289157,
              48.2905673
            ],
            [
              14.2890849,
              48.2905398
            ],
            [
              14.2888147,
              48.2904369
            ],
            [
              14.2882996,
              48.2902419
            ],
            [
              14.2881649,
              48.2901643
            ],
            [
              14.2880855,
              48.2901073
            ],
            [
              14.2880431,
              48.2900765
            ],
            [
              14.2879571,
              48.2900101
            ],
            [
              14.2879226,
              48.2899829
            ],
            [
              14.2878535,
              48.2899141
            ],
            [
              14.2877862,
              48.2898483
            ],
            [
              14.2877742,
              48.2898288
            ],
            [
              14.2877348,
              48.2897604
            ],
            [
              14.2876971,
              48.2896823
            ],
            [
              14.287657,
              48.2895813
            ],
            [
              14.2876389,
              48.2894921
            ],
            [
              14.2876373,
              48.2894265
            ],
            [
              14.2876366,
              48.2894003
            ],
            [
              14.2874856,
              48.289394
            ],
            [
              14.2874584,
              48.2893947
            ],
            [
              14.287396,
              48.2893963
            ],
            [
              14.287342,
              48.2893977
            ],
            [
              14.2871788,
              48.2894455
            ],
            [
              14.286668,
              48.2896123
            ],
            [
              14.2863796,
              48.2897059
            ],
            [
              14.286271,
              48.2897411
            ],
            [
              14.2860453,
              48.2898094
            ],
            [
              14.2858185,
              48.2898666
            ],
            [
              14.2848096,
              48.2900553
            ],
            [
              14.284565,
              48.2900985
            ],
            [
              14.2836707,
              48.2902635
            ],
            [
              14.2832032,
              48.2903495
            ],
            [
              14.2831522,
              48.2903589
            ],
            [
              14.2830731,
              48.2903735
            ],
            [
              14.2829477,
              48.290395
            ],
            [
              14.2827944,
              48.2904168
            ],
            [
              14.2826658,
              48.2904303
            ],
            [
              14.2825439,
              48.2904377
            ],
            [
              14.2823595,
              48.2904419
            ],
            [
              14.282283,
              48.2904408
            ],
            [
              14.282185,
              48.2904394
            ],
            [
              14.2821209,
              48.2904362
            ],
            [
              14.2815861,
              48.2904099
            ],
            [
              14.2810667,
              48.2903844
            ],
            [
              14.2809341,
              48.2903779
            ],
            [
              14.2808525,
              48.2903739
            ],
            [
              14.2804054,
              48.2903519
            ],
            [
              14.2803865,
              48.290351
            ],
            [
              14.2801999,
              48.2903419
            ],
            [
              14.2800683,
              48.2903354
            ],
            [
              14.2799571,
              48.2903299
            ],
            [
              14.2797103,
              48.2903202
            ],
            [
              14.2796822,
              48.2903191
            ],
            [
              14.2795117,
              48.2903325
            ],
            [
              14.2793672,
              48.2903525
            ],
            [
              14.2790527,
              48.2903961
            ],
            [
              14.2789992,
              48.2904035
            ],
            [
              14.2786011,
              48.2904586
            ],
            [
              14.2783267,
              48.2904965
            ],
            [
              14.2778407,
              48.2905638
            ],
            [
              14.2771983,
              48.2906527
            ],
            [
              14.2762817,
              48.2907796
            ],
            [
              14.2762156,
              48.2907891
            ],
            [
              14.2760332,
              48.2908154
            ],
            [
              14.2759563,
              48.2908246
            ],
            [
              14.2758914,
              48.2908336
            ],
            [
              14.2758733,
              48.2908361
            ],
            [
              14.2758566,
              48.2907814
            ],
            [
              14.2758508,
              48.2907571
            ],
            [
              14.2758388,
              48.2907297
            ],
            [
              14.2757574,
              48.2906064
            ],
            [
              14.2756563,
              48.2902036
            ],
            [
              14.2756479,
              48.29017
            ],
            [
              14.2754888,
              48.2901883
            ],
            [
              14.275049,
              48.290239
            ],
            [
              14.2748319,
              48.2902718
            ],
            [
              14.2743601,
              48.2903645
            ],
            [
              14.273936,
              48.2904783
            ],
            [
              14.2732488,
              48.2907044
            ]
          ],
          [
            [
              14.3129171,
              48.2972325
            ],
            [
              14.3128737,
              48.2973217
            ]
          ],
          [
            [
              14.3105023,
              48.3005025
            ],
            [
              14.3101806,
              48.3004596
            ]
          ],
          [
            [
              14.3072243,
              48.3023282
            ],
            [
              14.3071964,
              48.3021667
            ]
          ],
          [
            [
              14.3070088,
              48.304385
            ],
            [
              14.3071767,
              48.3042388
            ]
          ],
          [
            [
              14.3049568,
              48.3050857
            ],
            [
              14.3052146,
              48.3051823
            ]
          ],
          [
            [
              14.2995806,
              48.3031027
            ],
            [
              14.2993429,
              48.3030226
            ]
          ],
          [
            [
              14.2961914,
              48.3022269
            ],
            [
              14.2964744,
              48.3022971
            ]
          ],
          [
            [
              14.2904733,
              48.3008167
            ],
            [
              14.2902591,
              48.3007844
            ]
          ],
          [
            [
              14.287801,
              48.2976376
            ],
            [
              14.2877764,
              48.2975217
            ]
          ],
          [
            [
              14.2872215,
              48.2957035
            ],
            [
              14.2872044,
              48.2956888
            ],
            [
              14.2872268,
              48.2956772
            ],
            [
              14.2873259,
              48.2956262
            ],
            [
              14.287342,
              48.29564
            ]
          ],
          [
            [
              14.2908416,
              48.2948879
            ],
            [
              14.2908087,
              48.2948745
            ],
            [
              14.2906043,
              48.2950967
            ],
            [
              14.2906338,
              48.2951087
            ]
          ],
          [
            [
              14.2921166,
              48.2917806
            ],
            [
              14.2922217,
              48.2919029
            ]
          ],
          [
            [
              14.2902328,
              48.2908133
            ],
            [
              14.2902412,
              48.2908624
            ],
            [
              14.2902796,
              48.2908946
            ],
            [
              14.2903734,
              48.2909894
            ],
            [
              14.2905946,
              48.2912475
            ],
            [
              14.2906501,
              48.2912521
            ]
          ],
          [
            [
              14.2880144,
              48.2899953
            ],
            [
              14.2880625,
              48.2900335
            ],
            [
              14.2881326,
              48.2900887
            ]
          ],
          [
            [
              14.2809999,
              48.2903282
            ],
            [
              14.2807102,
              48.2903138
            ]
          ],
          [
            [
              14.2760126,
              48.2907394
            ],
            [
              14.27596,
              48.2907378
            ],
            [
              14.275922,
              48.2907252
            ],
            [
              14.2758126,
              48.2905942
            ]
          ],
          [
            [
              14.2732342,
              48.2906656
            ],
            [
              14.2730391,
              48.2907297
            ],
            [
              14.273003,
              48.2907415
            ]
          ]
        ]
      },
      "id": "relation/1148400"
    }
  ]
}